<?xml version="1.0" encoding="UTF-8"?>
<gpx
  version="1.0"
  creator="GPSBabel - http://www.gpsbabel.org"
  xmlns:xsi="http://www.w3.org/2001/XMLSchema-instance"
  xmlns="http://www.topografix.com/GPX/1/0"
  xsi:schemaLocation="http://www.topografix.com/GPX/1/0 http://www.topografix.com/GPX/1/0/gpx.xsd">
<time>2011-11-25T06:10:33Z</time>
<bounds minlat="-6.102890100" minlon="105.423180950" maxlat="-6.101179100" maxlon="105.433859990"/>
<wpt lat="-6.101695260" lon="105.433604090">
  <ele>0.000000</ele>
  <name>Starting point</name>
  <cmt>Starting point</cmt>
  <desc>Starting point</desc>
</wpt>
<wpt lat="-6.101393600" lon="105.426796650">
  <ele>168.000000</ele>
  <name>Outer cone</name>
  <cmt>Outer cone</cmt>
  <desc>Outer cone</desc>
</wpt>
<wpt lat="-6.101182960" lon="105.423354120">
  <ele>322.000000</ele>
  <name>Summit</name>
  <cmt>Summit</cmt>
  <desc>Summit</desc>
</wpt>
<trk>
  <name>ACTIVE LOG</name>
<trkseg>
<trkpt lat="-6.101825850" lon="105.433808280">
  <ele>11.673218</ele>
</trkpt>
<trkpt lat="-6.101819900" lon="105.433858650">
  <ele>16.479736</ele>
</trkpt>
<trkpt lat="-6.101814120" lon="105.433859990">
  <ele>15.518433</ele>
</trkpt>
<trkpt lat="-6.101750000" lon="105.433794110">
  <ele>17.441162</ele>
</trkpt>
<trkpt lat="-6.101591330" lon="105.433575850">
  <ele>22.247559</ele>
</trkpt>
<trkpt lat="-6.101593420" lon="105.433536030">
  <ele>21.766968</ele>
</trkpt>
<trkpt lat="-6.101591160" lon="105.433580620">
  <ele>22.247559</ele>
</trkpt>
<trkpt lat="-6.101616140" lon="105.433504850">
  <ele>20.324951</ele>
</trkpt>
<trkpt lat="-6.101642040" lon="105.433458580">
  <ele>20.805664</ele>
</trkpt>
<trkpt lat="-6.101662320" lon="105.433449280">
  <ele>20.805664</ele>
</trkpt>
<trkpt lat="-6.101676820" lon="105.433373260">
  <ele>20.324951</ele>
</trkpt>
<trkpt lat="-6.101669360" lon="105.433364450">
  <ele>20.805664</ele>
</trkpt>
<trkpt lat="-6.101723340" lon="105.433195480">
  <ele>15.999023</ele>
</trkpt>
<trkpt lat="-6.101732560" lon="105.433109980">
  <ele>16.960449</ele>
</trkpt>
<trkpt lat="-6.101825270" lon="105.433043680">
  <ele>16.479736</ele>
</trkpt>
<trkpt lat="-6.101838170" lon="105.433038570">
  <ele>16.479736</ele>
</trkpt>
<trkpt lat="-6.101920820" lon="105.433007220">
  <ele>15.518433</ele>
</trkpt>
<trkpt lat="-6.101932050" lon="105.433004200">
  <ele>15.518433</ele>
</trkpt>
<trkpt lat="-6.102036820" lon="105.432972430">
  <ele>15.037720</ele>
</trkpt>
<trkpt lat="-6.102085690" lon="105.432954410">
  <ele>15.999023</ele>
</trkpt>
<trkpt lat="-6.102114360" lon="105.432956420">
  <ele>16.479736</ele>
</trkpt>
<trkpt lat="-6.102171020" lon="105.432928180">
  <ele>17.921753</ele>
</trkpt>
<trkpt lat="-6.102236060" lon="105.432861460">
  <ele>21.286377</ele>
</trkpt>
<trkpt lat="-6.102238740" lon="105.432849390">
  <ele>21.766968</ele>
</trkpt>
<trkpt lat="-6.102326750" lon="105.432794070">
  <ele>25.612305</ele>
</trkpt>
<trkpt lat="-6.102393470" lon="105.432744110">
  <ele>29.938110</ele>
</trkpt>
<trkpt lat="-6.102459190" lon="105.432668170">
  <ele>33.783447</ele>
</trkpt>
<trkpt lat="-6.102570840" lon="105.432588290">
  <ele>34.264160</ele>
</trkpt>
<trkpt lat="-6.102589950" lon="105.432555770">
  <ele>34.264160</ele>
</trkpt>
<trkpt lat="-6.102608720" lon="105.432521150">
  <ele>32.822266</ele>
</trkpt>
<trkpt lat="-6.102613080" lon="105.432464240">
  <ele>31.860718</ele>
</trkpt>
<trkpt lat="-6.102608130" lon="105.432358040">
  <ele>31.860718</ele>
</trkpt>
<trkpt lat="-6.102590780" lon="105.432289890">
  <ele>30.418823</ele>
</trkpt>
<trkpt lat="-6.102572180" lon="105.432200960">
  <ele>28.976929</ele>
</trkpt>
<trkpt lat="-6.102576620" lon="105.432179510">
  <ele>28.976929</ele>
</trkpt>
<trkpt lat="-6.102574940" lon="105.432143800">
  <ele>29.457520</ele>
</trkpt>
<trkpt lat="-6.102575950" lon="105.432125190">
  <ele>29.457520</ele>
</trkpt>
<trkpt lat="-6.102609560" lon="105.432106250">
  <ele>30.418823</ele>
</trkpt>
<trkpt lat="-6.102646270" lon="105.432096690">
  <ele>31.380127</ele>
</trkpt>
<trkpt lat="-6.102649630" lon="105.432096860">
  <ele>31.860718</ele>
</trkpt>
<trkpt lat="-6.102693630" lon="105.432060730">
  <ele>32.822266</ele>
</trkpt>
<trkpt lat="-6.102694890" lon="105.432012710">
  <ele>32.341553</ele>
</trkpt>
<trkpt lat="-6.102716180" lon="105.431968530">
  <ele>31.860718</ele>
</trkpt>
<trkpt lat="-6.102699080" lon="105.431886560">
  <ele>31.380127</ele>
</trkpt>
<trkpt lat="-6.102696730" lon="105.431851440">
  <ele>31.380127</ele>
</trkpt>
<trkpt lat="-6.102662700" lon="105.431758650">
  <ele>31.860718</ele>
</trkpt>
<trkpt lat="-6.102626160" lon="105.431691090">
  <ele>34.264160</ele>
</trkpt>
<trkpt lat="-6.102596480" lon="105.431625130">
  <ele>35.706055</ele>
</trkpt>
<trkpt lat="-6.102569750" lon="105.431558570">
  <ele>37.148071</ele>
</trkpt>
<trkpt lat="-6.102556840" lon="105.431522620">
  <ele>36.667480</ele>
</trkpt>
<trkpt lat="-6.102492380" lon="105.431442320">
  <ele>37.628662</ele>
</trkpt>
<trkpt lat="-6.102436310" lon="105.431329580">
  <ele>38.590088</ele>
</trkpt>
<trkpt lat="-6.102429680" lon="105.431211650">
  <ele>39.551270</ele>
</trkpt>
<trkpt lat="-6.102404960" lon="105.431087260">
  <ele>42.435425</ele>
</trkpt>
<trkpt lat="-6.102400180" lon="105.431021630">
  <ele>43.396606</ele>
</trkpt>
<trkpt lat="-6.102401770" lon="105.430982320">
  <ele>43.877319</ele>
</trkpt>
<trkpt lat="-6.102439740" lon="105.430898500">
  <ele>46.761230</ele>
</trkpt>
<trkpt lat="-6.102413260" lon="105.430838480">
  <ele>48.203369</ele>
</trkpt>
<trkpt lat="-6.102343430" lon="105.430793470">
  <ele>48.683960</ele>
</trkpt>
<trkpt lat="-6.102314940" lon="105.430786010">
  <ele>49.164551</ele>
</trkpt>
<trkpt lat="-6.102236570" lon="105.430787100">
  <ele>48.683960</ele>
</trkpt>
<trkpt lat="-6.102203960" lon="105.430776790">
  <ele>48.683960</ele>
</trkpt>
<trkpt lat="-6.102177310" lon="105.430729440">
  <ele>47.722534</ele>
</trkpt>
<trkpt lat="-6.102172020" lon="105.430666150">
  <ele>48.683960</ele>
</trkpt>
<trkpt lat="-6.102189960" lon="105.430649220">
  <ele>49.645264</ele>
</trkpt>
<trkpt lat="-6.102211670" lon="105.430569340">
  <ele>51.567871</ele>
</trkpt>
<trkpt lat="-6.102211840" lon="105.430562800">
  <ele>51.567871</ele>
</trkpt>
<trkpt lat="-6.102220640" lon="105.430461720">
  <ele>52.048584</ele>
</trkpt>
<trkpt lat="-6.102207400" lon="105.430360210">
  <ele>53.971191</ele>
</trkpt>
<trkpt lat="-6.102230110" lon="105.430296930">
  <ele>54.451782</ele>
</trkpt>
<trkpt lat="-6.102259950" lon="105.430214950">
  <ele>55.893799</ele>
</trkpt>
<trkpt lat="-6.102288280" lon="105.430140020">
  <ele>57.335815</ele>
</trkpt>
<trkpt lat="-6.102293900" lon="105.430117470">
  <ele>58.297119</ele>
</trkpt>
<trkpt lat="-6.102300600" lon="105.430087970">
  <ele>59.258423</ele>
</trkpt>
<trkpt lat="-6.102323070" lon="105.429970960">
  <ele>62.622925</ele>
</trkpt>
<trkpt lat="-6.102321890" lon="105.429919320">
  <ele>65.987671</ele>
</trkpt>
<trkpt lat="-6.102330190" lon="105.429843720">
  <ele>67.429688</ele>
</trkpt>
<trkpt lat="-6.102326420" lon="105.429799460">
  <ele>70.313477</ele>
</trkpt>
<trkpt lat="-6.102332290" lon="105.429719080">
  <ele>72.716919</ele>
</trkpt>
<trkpt lat="-6.102347120" lon="105.429656050">
  <ele>73.678223</ele>
</trkpt>
<trkpt lat="-6.102355170" lon="105.429586900">
  <ele>75.600830</ele>
</trkpt>
<trkpt lat="-6.102395320" lon="105.429554960">
  <ele>80.407471</ele>
</trkpt>
<trkpt lat="-6.102378810" lon="105.429490340">
  <ele>80.888184</ele>
</trkpt>
<trkpt lat="-6.102346120" lon="105.429430070">
  <ele>77.042847</ele>
</trkpt>
<trkpt lat="-6.102348720" lon="105.429428900">
  <ele>77.042847</ele>
</trkpt>
<trkpt lat="-6.102336560" lon="105.429418670">
  <ele>76.562134</ele>
</trkpt>
<trkpt lat="-6.102317030" lon="105.429386740">
  <ele>76.562134</ele>
</trkpt>
<trkpt lat="-6.102310410" lon="105.429362510">
  <ele>76.562134</ele>
</trkpt>
<trkpt lat="-6.102286190" lon="105.429331420">
  <ele>76.081421</ele>
</trkpt>
<trkpt lat="-6.102272360" lon="105.429305100">
  <ele>76.562134</ele>
</trkpt>
<trkpt lat="-6.102263970" lon="105.429254560">
  <ele>77.523438</ele>
</trkpt>
<trkpt lat="-6.102255010" lon="105.429174840">
  <ele>78.004028</ele>
</trkpt>
<trkpt lat="-6.102218540" lon="105.429100580">
  <ele>79.926636</ele>
</trkpt>
<trkpt lat="-6.102200440" lon="105.429066970">
  <ele>81.368774</ele>
</trkpt>
<trkpt lat="-6.102187360" lon="105.429008210">
  <ele>82.810791</ele>
</trkpt>
<trkpt lat="-6.102187110" lon="105.428949960">
  <ele>85.213989</ele>
</trkpt>
<trkpt lat="-6.102194910" lon="105.428898910">
  <ele>85.213989</ele>
</trkpt>
<trkpt lat="-6.102166910" lon="105.428849370">
  <ele>87.617188</ele>
</trkpt>
<trkpt lat="-6.102139000" lon="105.428785760">
  <ele>89.539917</ele>
</trkpt>
<trkpt lat="-6.102133380" lon="105.428760110">
  <ele>90.501343</ele>
</trkpt>
<trkpt lat="-6.102107740" lon="105.428699250">
  <ele>92.904541</ele>
</trkpt>
<trkpt lat="-6.102088710" lon="105.428626160">
  <ele>95.307739</ele>
</trkpt>
<trkpt lat="-6.102070020" lon="105.428571510">
  <ele>96.269287</ele>
</trkpt>
<trkpt lat="-6.102050990" lon="105.428528350">
  <ele>97.711182</ele>
</trkpt>
<trkpt lat="-6.102041690" lon="105.428519710">
  <ele>98.191895</ele>
</trkpt>
<trkpt lat="-6.102005730" lon="105.428456930">
  <ele>99.633789</ele>
</trkpt>
<trkpt lat="-6.101984100" lon="105.428420470">
  <ele>100.114502</ele>
</trkpt>
<trkpt lat="-6.101967250" lon="105.428373700">
  <ele>102.037109</ele>
</trkpt>
<trkpt lat="-6.101952590" lon="105.428343280">
  <ele>102.998291</ele>
</trkpt>
<trkpt lat="-6.101945630" lon="105.428329030">
  <ele>102.998291</ele>
</trkpt>
<trkpt lat="-6.101926600" lon="105.428271530">
  <ele>105.401733</ele>
</trkpt>
<trkpt lat="-6.101907830" lon="105.428224420">
  <ele>108.285645</ele>
</trkpt>
<trkpt lat="-6.101904140" lon="105.428192990">
  <ele>110.208252</ele>
</trkpt>
<trkpt lat="-6.101895000" lon="105.428163820">
  <ele>111.650269</ele>
</trkpt>
<trkpt lat="-6.101873380" lon="105.428122410">
  <ele>114.534180</ele>
</trkpt>
<trkpt lat="-6.101855610" lon="105.428064830">
  <ele>116.937500</ele>
</trkpt>
<trkpt lat="-6.101875890" lon="105.428035990">
  <ele>117.898804</ele>
</trkpt>
<trkpt lat="-6.101865920" lon="105.427994090">
  <ele>117.418213</ele>
</trkpt>
<trkpt lat="-6.101851000" lon="105.427953600">
  <ele>118.379395</ele>
</trkpt>
<trkpt lat="-6.101851920" lon="105.427941110">
  <ele>118.860107</ele>
</trkpt>
<trkpt lat="-6.101840100" lon="105.427932730">
  <ele>119.821411</ele>
</trkpt>
<trkpt lat="-6.101838420" lon="105.427901630">
  <ele>119.821411</ele>
</trkpt>
<trkpt lat="-6.101827360" lon="105.427832820">
  <ele>122.224731</ele>
</trkpt>
<trkpt lat="-6.101805740" lon="105.427774310">
  <ele>123.666748</ele>
</trkpt>
<trkpt lat="-6.101773970" lon="105.427720250">
  <ele>125.589355</ele>
</trkpt>
<trkpt lat="-6.101758630" lon="105.427684630">
  <ele>126.550659</ele>
</trkpt>
<trkpt lat="-6.101753350" lon="105.427659400">
  <ele>127.031372</ele>
</trkpt>
<trkpt lat="-6.101724510" lon="105.427584800">
  <ele>131.357300</ele>
</trkpt>
<trkpt lat="-6.101685870" lon="105.427530570">
  <ele>136.644653</ele>
</trkpt>
<trkpt lat="-6.101658550" lon="105.427488410">
  <ele>138.567261</ele>
</trkpt>
<trkpt lat="-6.101621420" lon="105.427417240">
  <ele>140.970459</ele>
</trkpt>
<trkpt lat="-6.101593420" lon="105.427389330">
  <ele>143.373657</ele>
</trkpt>
<trkpt lat="-6.101575480" lon="105.427355380">
  <ele>146.257813</ele>
</trkpt>
<trkpt lat="-6.101525610" lon="105.427299560">
  <ele>149.622314</ele>
</trkpt>
<trkpt lat="-6.101511780" lon="105.427284980">
  <ele>151.544922</ele>
</trkpt>
<trkpt lat="-6.101448670" lon="105.427219930">
  <ele>154.428955</ele>
</trkpt>
<trkpt lat="-6.101419330" lon="105.427176180">
  <ele>155.390259</ele>
</trkpt>
<trkpt lat="-6.101405000" lon="105.427113650">
  <ele>157.312866</ele>
</trkpt>
<trkpt lat="-6.101402480" lon="105.427103680">
  <ele>158.274170</ele>
</trkpt>
<trkpt lat="-6.101379430" lon="105.427064280">
  <ele>158.754761</ele>
</trkpt>
<trkpt lat="-6.101364340" lon="105.427034110">
  <ele>159.235474</ele>
</trkpt>
<trkpt lat="-6.101322520" lon="105.426972500">
  <ele>160.677490</ele>
</trkpt>
<trkpt lat="-6.101309440" lon="105.426921620">
  <ele>161.158203</ele>
</trkpt>
<trkpt lat="-6.101303580" lon="105.426890610">
  <ele>162.600098</ele>
</trkpt>
<trkpt lat="-6.101297960" lon="105.426854730">
  <ele>165.003418</ele>
</trkpt>
<trkpt lat="-6.101292930" lon="105.426852810">
  <ele>166.445313</ele>
</trkpt>
<trkpt lat="-6.101341880" lon="105.426811480">
  <ele>167.887329</ele>
</trkpt>
<trkpt lat="-6.101391750" lon="105.426796980">
  <ele>167.887329</ele>
</trkpt>
<trkpt lat="-6.101410700" lon="105.426803600">
  <ele>167.887329</ele>
</trkpt>
<trkpt lat="-6.101426370" lon="105.426803180">
  <ele>167.887329</ele>
</trkpt>
<trkpt lat="-6.101488900" lon="105.426837050">
  <ele>167.887329</ele>
</trkpt>
<trkpt lat="-6.101560230" lon="105.426863790">
  <ele>168.848755</ele>
</trkpt>
<trkpt lat="-6.101594430" lon="105.426881890">
  <ele>169.810059</ele>
</trkpt>
<trkpt lat="-6.101619910" lon="105.426895720">
  <ele>171.252075</ele>
</trkpt>
<trkpt lat="-6.101633400" lon="105.426910050">
  <ele>171.732666</ele>
</trkpt>
<trkpt lat="-6.101733480" lon="105.426943830">
  <ele>176.058594</ele>
</trkpt>
<trkpt lat="-6.101772120" lon="105.426952890">
  <ele>176.539307</ele>
</trkpt>
<trkpt lat="-6.101852090" lon="105.427000490">
  <ele>177.020020</ele>
</trkpt>
<trkpt lat="-6.101922160" lon="105.427024470">
  <ele>177.500610</ele>
</trkpt>
<trkpt lat="-6.101961140" lon="105.427047680">
  <ele>177.981201</ele>
</trkpt>
<trkpt lat="-6.101973620" lon="105.427076100">
  <ele>177.020020</ele>
</trkpt>
<trkpt lat="-6.101999860" lon="105.427071990">
  <ele>177.500610</ele>
</trkpt>
<trkpt lat="-6.102121900" lon="105.427080540">
  <ele>175.097290</ele>
</trkpt>
<trkpt lat="-6.102167160" lon="105.427083640">
  <ele>174.135864</ele>
</trkpt>
<trkpt lat="-6.102186020" lon="105.427082550">
  <ele>173.174683</ele>
</trkpt>
<trkpt lat="-6.102220720" lon="105.427091020">
  <ele>172.213257</ele>
</trkpt>
<trkpt lat="-6.102306890" lon="105.427107280">
  <ele>169.810059</ele>
</trkpt>
<trkpt lat="-6.102376380" lon="105.427129320">
  <ele>167.887329</ele>
</trkpt>
<trkpt lat="-6.102427840" lon="105.427135280">
  <ele>167.887329</ele>
</trkpt>
<trkpt lat="-6.102551390" lon="105.427154130">
  <ele>167.887329</ele>
</trkpt>
<trkpt lat="-6.102553990" lon="105.427145920">
  <ele>169.329468</ele>
</trkpt>
<trkpt lat="-6.102611820" lon="105.427153550">
  <ele>168.848755</ele>
</trkpt>
<trkpt lat="-6.102568490" lon="105.427145670">
  <ele>167.887329</ele>
</trkpt>
<trkpt lat="-6.102525490" lon="105.427143150">
  <ele>167.887329</ele>
</trkpt>
<trkpt lat="-6.102466980" lon="105.427138130">
  <ele>167.406738</ele>
</trkpt>
<trkpt lat="-6.102490120" lon="105.427128570">
  <ele>166.926025</ele>
</trkpt>
<trkpt lat="-6.102474860" lon="105.427134190">
  <ele>166.445313</ele>
</trkpt>
<trkpt lat="-6.102449800" lon="105.427142570">
  <ele>168.368042</ele>
</trkpt>
<trkpt lat="-6.102444690" lon="105.427141310">
  <ele>168.368042</ele>
</trkpt>
<trkpt lat="-6.102421130" lon="105.427136870">
  <ele>168.848755</ele>
</trkpt>
<trkpt lat="-6.102351060" lon="105.427120690">
  <ele>170.771362</ele>
</trkpt>
<trkpt lat="-6.102318460" lon="105.427115240">
  <ele>170.771362</ele>
</trkpt>
<trkpt lat="-6.102274200" lon="105.427114070">
  <ele>170.771362</ele>
</trkpt>
<trkpt lat="-6.102191890" lon="105.427107360">
  <ele>170.290649</ele>
</trkpt>
<trkpt lat="-6.102026770" lon="105.427050530">
  <ele>169.810059</ele>
</trkpt>
<trkpt lat="-6.101891230" lon="105.426993960">
  <ele>169.810059</ele>
</trkpt>
<trkpt lat="-6.101758380" lon="105.426938720">
  <ele>167.406738</ele>
</trkpt>
<trkpt lat="-6.101688890" lon="105.426910050">
  <ele>165.964722</ele>
</trkpt>
<trkpt lat="-6.101600130" lon="105.426866470">
  <ele>166.926025</ele>
</trkpt>
<trkpt lat="-6.101576990" lon="105.426859510">
  <ele>166.926025</ele>
</trkpt>
<trkpt lat="-6.101552180" lon="105.426838640">
  <ele>166.926025</ele>
</trkpt>
<trkpt lat="-6.101444890" lon="105.426785000">
  <ele>168.368042</ele>
</trkpt>
<trkpt lat="-6.101410780" lon="105.426778960">
  <ele>168.848755</ele>
</trkpt>
<trkpt lat="-6.101394440" lon="105.426755910">
  <ele>169.329468</ele>
</trkpt>
<trkpt lat="-6.101371130" lon="105.426711240">
  <ele>169.810059</ele>
</trkpt>
<trkpt lat="-6.101337350" lon="105.426553150">
  <ele>168.368042</ele>
</trkpt>
<trkpt lat="-6.101335510" lon="105.426508310">
  <ele>167.887329</ele>
</trkpt>
<trkpt lat="-6.101336100" lon="105.426466990">
  <ele>167.887329</ele>
</trkpt>
<trkpt lat="-6.101335340" lon="105.426457510">
  <ele>167.406738</ele>
</trkpt>
<trkpt lat="-6.101323110" lon="105.426440420">
  <ele>167.406738</ele>
</trkpt>
<trkpt lat="-6.101306090" lon="105.426386860">
  <ele>166.926025</ele>
</trkpt>
<trkpt lat="-6.101299220" lon="105.426350390">
  <ele>166.445313</ele>
</trkpt>
<trkpt lat="-6.101302320" lon="105.426235810">
  <ele>164.042114</ele>
</trkpt>
<trkpt lat="-6.101329480" lon="105.426127440">
  <ele>165.003418</ele>
</trkpt>
<trkpt lat="-6.101341550" lon="105.426076890">
  <ele>165.003418</ele>
</trkpt>
<trkpt lat="-6.101359480" lon="105.426043780">
  <ele>165.003418</ele>
</trkpt>
<trkpt lat="-6.101383790" lon="105.425960050">
  <ele>165.003418</ele>
</trkpt>
<trkpt lat="-6.101423940" lon="105.425865420">
  <ele>166.445313</ele>
</trkpt>
<trkpt lat="-6.101444890" lon="105.425830300">
  <ele>169.329468</ele>
</trkpt>
<trkpt lat="-6.101484040" lon="105.425791490">
  <ele>171.252075</ele>
</trkpt>
<trkpt lat="-6.101509020" lon="105.425774560">
  <ele>173.174683</ele>
</trkpt>
<trkpt lat="-6.101544560" lon="105.425739100">
  <ele>175.097290</ele>
</trkpt>
<trkpt lat="-6.101552770" lon="105.425723090">
  <ele>178.942627</ele>
</trkpt>
<trkpt lat="-6.101544720" lon="105.425703310">
  <ele>180.384521</ele>
</trkpt>
<trkpt lat="-6.101511360" lon="105.425676410">
  <ele>181.826416</ele>
</trkpt>
<trkpt lat="-6.101542290" lon="105.425654780">
  <ele>182.787842</ele>
</trkpt>
<trkpt lat="-6.101545900" lon="105.425661650">
  <ele>183.749023</ele>
</trkpt>
<trkpt lat="-6.101545900" lon="105.425661650">
  <ele>183.749023</ele>
</trkpt>
<trkpt lat="-6.101591490" lon="105.425640030">
  <ele>186.152466</ele>
</trkpt>
<trkpt lat="-6.101613620" lon="105.425631900">
  <ele>187.594360</ele>
</trkpt>
<trkpt lat="-6.101637680" lon="105.425590320">
  <ele>191.439575</ele>
</trkpt>
<trkpt lat="-6.101640530" lon="105.425553860">
  <ele>206.820679</ele>
</trkpt>
<trkpt lat="-6.101666850" lon="105.425531400">
  <ele>207.301392</ele>
</trkpt>
<trkpt lat="-6.101665340" lon="105.425543380">
  <ele>207.782104</ele>
</trkpt>
<trkpt lat="-6.101708760" lon="105.425534000">
  <ele>210.185425</ele>
</trkpt>
<trkpt lat="-6.101763410" lon="105.425515140">
  <ele>214.030640</ele>
</trkpt>
<trkpt lat="-6.101809930" lon="105.425503490">
  <ele>214.511230</ele>
</trkpt>
<trkpt lat="-6.101793750" lon="105.425473560">
  <ele>215.953247</ele>
</trkpt>
<trkpt lat="-6.101812270" lon="105.425454870">
  <ele>215.472656</ele>
</trkpt>
<trkpt lat="-6.101762480" lon="105.425422690">
  <ele>211.146729</ele>
</trkpt>
<trkpt lat="-6.101813110" lon="105.425367450">
  <ele>210.185425</ele>
</trkpt>
<trkpt lat="-6.101889300" lon="105.425360660">
  <ele>213.069336</ele>
</trkpt>
<trkpt lat="-6.101918970" lon="105.425316650">
  <ele>214.991943</ele>
</trkpt>
<trkpt lat="-6.101928610" lon="105.425292350">
  <ele>215.953247</ele>
</trkpt>
<trkpt lat="-6.101908670" lon="105.425292850">
  <ele>212.588623</ele>
</trkpt>
<trkpt lat="-6.101913360" lon="105.425294780">
  <ele>212.588623</ele>
</trkpt>
<trkpt lat="-6.101963230" lon="105.425294530">
  <ele>196.726929</ele>
</trkpt>
<trkpt lat="-6.101982010" lon="105.425361410">
  <ele>191.920288</ele>
</trkpt>
<trkpt lat="-6.101953260" lon="105.425306180">
  <ele>190.958984</ele>
</trkpt>
<trkpt lat="-6.101927520" lon="105.425243140">
  <ele>197.207520</ele>
</trkpt>
<trkpt lat="-6.101894840" lon="105.425207020">
  <ele>202.975464</ele>
</trkpt>
<trkpt lat="-6.101907240" lon="105.425190510">
  <ele>214.991943</ele>
</trkpt>
<trkpt lat="-6.101927610" lon="105.425167790">
  <ele>218.356567</ele>
</trkpt>
<trkpt lat="-6.101935150" lon="105.425149180">
  <ele>218.837280</ele>
</trkpt>
<trkpt lat="-6.101935820" lon="105.425147840">
  <ele>218.837280</ele>
</trkpt>
<trkpt lat="-6.101928450" lon="105.425128480">
  <ele>218.837280</ele>
</trkpt>
<trkpt lat="-6.101935400" lon="105.425070140">
  <ele>221.240601</ele>
</trkpt>
<trkpt lat="-6.101926850" lon="105.425066120">
  <ele>222.201782</ele>
</trkpt>
<trkpt lat="-6.101931800" lon="105.425056060">
  <ele>222.201782</ele>
</trkpt>
<trkpt lat="-6.101952330" lon="105.425026810">
  <ele>224.605225</ele>
</trkpt>
<trkpt lat="-6.101955690" lon="105.425025630">
  <ele>224.124512</ele>
</trkpt>
<trkpt lat="-6.101946220" lon="105.425019600">
  <ele>229.411743</ele>
</trkpt>
<trkpt lat="-6.101926770" lon="105.425022700">
  <ele>231.814941</ele>
</trkpt>
<trkpt lat="-6.101950830" lon="105.425008030">
  <ele>233.257080</ele>
</trkpt>
<trkpt lat="-6.101957620" lon="105.424989680">
  <ele>233.257080</ele>
</trkpt>
<trkpt lat="-6.101855020" lon="105.424896890">
  <ele>266.422485</ele>
</trkpt>
<trkpt lat="-6.101895760" lon="105.424924130">
  <ele>265.461304</ele>
</trkpt>
<trkpt lat="-6.101943790" lon="105.424905350">
  <ele>261.135254</ele>
</trkpt>
<trkpt lat="-6.101976390" lon="105.424902840">
  <ele>254.886597</ele>
</trkpt>
<trkpt lat="-6.101983770" lon="105.424893120">
  <ele>252.963989</ele>
</trkpt>
<trkpt lat="-6.102007990" lon="105.424880120">
  <ele>254.886597</ele>
</trkpt>
<trkpt lat="-6.101979320" lon="105.424911560">
  <ele>253.925415</ele>
</trkpt>
<trkpt lat="-6.101974970" lon="105.424943490">
  <ele>252.963989</ele>
</trkpt>
<trkpt lat="-6.101963900" lon="105.424975340">
  <ele>249.599487</ele>
</trkpt>
<trkpt lat="-6.101966330" lon="105.424985230">
  <ele>247.196045</ele>
</trkpt>
<trkpt lat="-6.101968180" lon="105.424994370">
  <ele>246.234863</ele>
</trkpt>
<trkpt lat="-6.101959960" lon="105.425001160">
  <ele>245.754150</ele>
</trkpt>
<trkpt lat="-6.101936410" lon="105.425043820">
  <ele>241.908936</ele>
</trkpt>
<trkpt lat="-6.101936580" lon="105.425047260">
  <ele>240.947632</ele>
</trkpt>
<trkpt lat="-6.101937670" lon="105.425080120">
  <ele>240.467041</ele>
</trkpt>
<trkpt lat="-6.101934230" lon="105.425130320">
  <ele>229.411743</ele>
</trkpt>
<trkpt lat="-6.101930540" lon="105.425146080">
  <ele>226.527832</ele>
</trkpt>
<trkpt lat="-6.101931130" lon="105.425160830">
  <ele>223.163208</ele>
</trkpt>
<trkpt lat="-6.101877480" lon="105.425212130">
  <ele>221.721191</ele>
</trkpt>
<trkpt lat="-6.101805230" lon="105.425221940">
  <ele>221.240601</ele>
</trkpt>
<trkpt lat="-6.101868850" lon="105.425237700">
  <ele>220.759888</ele>
</trkpt>
<trkpt lat="-6.101900030" lon="105.425288320">
  <ele>217.395386</ele>
</trkpt>
<trkpt lat="-6.101903970" lon="105.425290920">
  <ele>215.472656</ele>
</trkpt>
<trkpt lat="-6.101915040" lon="105.425322770">
  <ele>214.511230</ele>
</trkpt>
<trkpt lat="-6.101895590" lon="105.425276920">
  <ele>214.991943</ele>
</trkpt>
<trkpt lat="-6.101892910" lon="105.425234340">
  <ele>219.317993</ele>
</trkpt>
<trkpt lat="-6.101919390" lon="105.425202320">
  <ele>222.201782</ele>
</trkpt>
<trkpt lat="-6.101946300" lon="105.425124460">
  <ele>230.373047</ele>
</trkpt>
<trkpt lat="-6.101951660" lon="105.425009460">
  <ele>236.140991</ele>
</trkpt>
<trkpt lat="-6.101959790" lon="105.424956570">
  <ele>237.582886</ele>
</trkpt>
<trkpt lat="-6.101985610" lon="105.424916080">
  <ele>237.582886</ele>
</trkpt>
<trkpt lat="-6.101985280" lon="105.424898560">
  <ele>237.582886</ele>
</trkpt>
<trkpt lat="-6.101978070" lon="105.424907950">
  <ele>239.024902</ele>
</trkpt>
<trkpt lat="-6.101973290" lon="105.424846010">
  <ele>241.428223</ele>
</trkpt>
<trkpt lat="-6.101932130" lon="105.424784320">
  <ele>247.676758</ele>
</trkpt>
<trkpt lat="-6.101969100" lon="105.424725730">
  <ele>251.522095</ele>
</trkpt>
<trkpt lat="-6.102032210" lon="105.424627830">
  <ele>256.809326</ele>
</trkpt>
<trkpt lat="-6.102165740" lon="105.424442760">
  <ele>264.980591</ele>
</trkpt>
<trkpt lat="-6.102192480" lon="105.424398080">
  <ele>266.422485</ele>
</trkpt>
<trkpt lat="-6.102225000" lon="105.424324570">
  <ele>270.267700</ele>
</trkpt>
<trkpt lat="-6.102149980" lon="105.424073110">
  <ele>287.571411</ele>
</trkpt>
<trkpt lat="-6.102065830" lon="105.424083090">
  <ele>294.781372</ele>
</trkpt>
<trkpt lat="-6.102059120" lon="105.424085020">
  <ele>292.858765</ele>
</trkpt>
<trkpt lat="-6.102054680" lon="105.424085600">
  <ele>293.339355</ele>
</trkpt>
<trkpt lat="-6.102051660" lon="105.424090050">
  <ele>291.416748</ele>
</trkpt>
<trkpt lat="-6.102007820" lon="105.424085020">
  <ele>291.416748</ele>
</trkpt>
<trkpt lat="-6.101966330" lon="105.424067750">
  <ele>292.378174</ele>
</trkpt>
<trkpt lat="-6.101936740" lon="105.424052910">
  <ele>292.858765</ele>
</trkpt>
<trkpt lat="-6.101878660" lon="105.424050900">
  <ele>296.223511</ele>
</trkpt>
<trkpt lat="-6.101801040" lon="105.424026680">
  <ele>300.549316</ele>
</trkpt>
<trkpt lat="-6.101794170" lon="105.424022320">
  <ele>301.991333</ele>
</trkpt>
<trkpt lat="-6.101749070" lon="105.423999940">
  <ele>303.913940</ele>
</trkpt>
<trkpt lat="-6.101679250" lon="105.423929780">
  <ele>311.604492</ele>
</trkpt>
<trkpt lat="-6.101551430" lon="105.423838760">
  <ele>317.372437</ele>
</trkpt>
<trkpt lat="-6.101520160" lon="105.423816800">
  <ele>318.814331</ele>
</trkpt>
<trkpt lat="-6.101520160" lon="105.423816800">
  <ele>318.814331</ele>
</trkpt>
<trkpt lat="-6.101380860" lon="105.423767760">
  <ele>317.372437</ele>
</trkpt>
<trkpt lat="-6.101380860" lon="105.423767760">
  <ele>317.372437</ele>
</trkpt>
<trkpt lat="-6.101280610" lon="105.423639440">
  <ele>320.737061</ele>
</trkpt>
<trkpt lat="-6.101258650" lon="105.423588470">
  <ele>321.698364</ele>
</trkpt>
<trkpt lat="-6.101210030" lon="105.423495350">
  <ele>322.659668</ele>
</trkpt>
<trkpt lat="-6.101199050" lon="105.423476320">
  <ele>323.140381</ele>
</trkpt>
<trkpt lat="-6.101183210" lon="105.423385630">
  <ele>323.140381</ele>
</trkpt>
<trkpt lat="-6.101180030" lon="105.423356710">
  <ele>321.698364</ele>
</trkpt>
<trkpt lat="-6.101187910" lon="105.423363670">
  <ele>323.140381</ele>
</trkpt>
<trkpt lat="-6.101179100" lon="105.423346320">
  <ele>324.582275</ele>
</trkpt>
<trkpt lat="-6.101220850" lon="105.423374820">
  <ele>325.543579</ele>
</trkpt>
<trkpt lat="-6.101231910" lon="105.423400220">
  <ele>324.101563</ele>
</trkpt>
<trkpt lat="-6.101235180" lon="105.423410110">
  <ele>323.620972</ele>
</trkpt>
<trkpt lat="-6.101295450" lon="105.423527200">
  <ele>321.698364</ele>
</trkpt>
<trkpt lat="-6.101328810" lon="105.423607580">
  <ele>317.853027</ele>
</trkpt>
<trkpt lat="-6.101337520" lon="105.423661900">
  <ele>314.007813</ele>
</trkpt>
<trkpt lat="-6.101366860" lon="105.423695760">
  <ele>312.085205</ele>
</trkpt>
<trkpt lat="-6.101462660" lon="105.423792660">
  <ele>311.123779</ele>
</trkpt>
<trkpt lat="-6.101517060" lon="105.423826440">
  <ele>310.643066</ele>
</trkpt>
<trkpt lat="-6.101613120" lon="105.423856610">
  <ele>310.643066</ele>
</trkpt>
<trkpt lat="-6.101705910" lon="105.423933640">
  <ele>310.643066</ele>
</trkpt>
<trkpt lat="-6.101784780" lon="105.423992900">
  <ele>308.720459</ele>
</trkpt>
<trkpt lat="-6.101872790" lon="105.424027430">
  <ele>306.797852</ele>
</trkpt>
<trkpt lat="-6.101983100" lon="105.424067750">
  <ele>302.471924</ele>
</trkpt>
<trkpt lat="-6.102097930" lon="105.424053500">
  <ele>299.107300</ele>
</trkpt>
<trkpt lat="-6.102228940" lon="105.424079400">
  <ele>291.897461</ele>
</trkpt>
<trkpt lat="-6.102315690" lon="105.424092480">
  <ele>288.052246</ele>
</trkpt>
<trkpt lat="-6.102366900" lon="105.424077730">
  <ele>286.610229</ele>
</trkpt>
<trkpt lat="-6.102399430" lon="105.424073450">
  <ele>285.168213</ele>
</trkpt>
<trkpt lat="-6.102477800" lon="105.424052750">
  <ele>282.284302</ele>
</trkpt>
<trkpt lat="-6.102510820" lon="105.424039000">
  <ele>280.842407</ele>
</trkpt>
<trkpt lat="-6.102529010" lon="105.424029610">
  <ele>280.361694</ele>
</trkpt>
<trkpt lat="-6.102588940" lon="105.423986360">
  <ele>278.438965</ele>
</trkpt>
<trkpt lat="-6.102657590" lon="105.423920650">
  <ele>277.477661</ele>
</trkpt>
<trkpt lat="-6.102667230" lon="105.423902460">
  <ele>277.477661</ele>
</trkpt>
<trkpt lat="-6.102717180" lon="105.423834900">
  <ele>278.919678</ele>
</trkpt>
<trkpt lat="-6.102773170" lon="105.423751170">
  <ele>278.919678</ele>
</trkpt>
<trkpt lat="-6.102780970" lon="105.423713620">
  <ele>278.919678</ele>
</trkpt>
<trkpt lat="-6.102782060" lon="105.423712270">
  <ele>278.919678</ele>
</trkpt>
<trkpt lat="-6.102790270" lon="105.423685870">
  <ele>278.438965</ele>
</trkpt>
<trkpt lat="-6.102804020" lon="105.423573470">
  <ele>278.438965</ele>
</trkpt>
<trkpt lat="-6.102802180" lon="105.423546980">
  <ele>278.438965</ele>
</trkpt>
<trkpt lat="-6.102814330" lon="105.423528290">
  <ele>278.919678</ele>
</trkpt>
<trkpt lat="-6.102833190" lon="105.423486800">
  <ele>278.919678</ele>
</trkpt>
<trkpt lat="-6.102832770" lon="105.423470290">
  <ele>279.880859</ele>
</trkpt>
<trkpt lat="-6.102864790" lon="105.423342300">
  <ele>280.842407</ele>
</trkpt>
<trkpt lat="-6.102871490" lon="105.423302320">
  <ele>281.322998</ele>
</trkpt>
<trkpt lat="-6.102878870" lon="105.423281030">
  <ele>281.803589</ele>
</trkpt>
<trkpt lat="-6.102890100" lon="105.423216480">
  <ele>284.687622</ele>
</trkpt>
<trkpt lat="-6.102867470" lon="105.423206680">
  <ele>292.378174</ele>
</trkpt>
<trkpt lat="-6.102863530" lon="105.423200810">
  <ele>292.378174</ele>
</trkpt>
<trkpt lat="-6.102864450" lon="105.423180950">
  <ele>293.339355</ele>
</trkpt>
<trkpt lat="-6.102864710" lon="105.423250770">
  <ele>295.261963</ele>
</trkpt>
<trkpt lat="-6.102846850" lon="105.423337520">
  <ele>293.339355</ele>
</trkpt>
<trkpt lat="-6.102832770" lon="105.423429300">
  <ele>289.974854</ele>
</trkpt>
<trkpt lat="-6.102822960" lon="105.423446570">
  <ele>289.974854</ele>
</trkpt>
<trkpt lat="-6.102801920" lon="105.423555620">
  <ele>289.013550</ele>
</trkpt>
<trkpt lat="-6.102779380" lon="105.423684530">
  <ele>287.571411</ele>
</trkpt>
<trkpt lat="-6.102737890" lon="105.423800700">
  <ele>284.206909</ele>
</trkpt>
<trkpt lat="-6.102670500" lon="105.423913190">
  <ele>280.842407</ele>
</trkpt>
<trkpt lat="-6.102631520" lon="105.423977310">
  <ele>277.477661</ele>
</trkpt>
<trkpt lat="-6.102578880" lon="105.424007480">
  <ele>276.516357</ele>
</trkpt>
<trkpt lat="-6.102553320" lon="105.424006730">
  <ele>276.516357</ele>
</trkpt>
<trkpt lat="-6.102504030" lon="105.424021650">
  <ele>276.997070</ele>
</trkpt>
<trkpt lat="-6.102473190" lon="105.424028100">
  <ele>276.997070</ele>
</trkpt>
<trkpt lat="-6.102467570" lon="105.424034220">
  <ele>276.516357</ele>
</trkpt>
<trkpt lat="-6.102405960" lon="105.424053670">
  <ele>277.958252</ele>
</trkpt>
<trkpt lat="-6.102394560" lon="105.424057110">
  <ele>278.438965</ele>
</trkpt>
<trkpt lat="-6.102321810" lon="105.424079900">
  <ele>278.438965</ele>
</trkpt>
<trkpt lat="-6.102258780" lon="105.424079650">
  <ele>283.245605</ele>
</trkpt>
<trkpt lat="-6.102256350" lon="105.424087280">
  <ele>282.284302</ele>
</trkpt>
<trkpt lat="-6.102248130" lon="105.424144950">
  <ele>282.284302</ele>
</trkpt>
<trkpt lat="-6.102222650" lon="105.424201690">
  <ele>278.919678</ele>
</trkpt>
<trkpt lat="-6.102224080" lon="105.424264640">
  <ele>274.113037</ele>
</trkpt>
<trkpt lat="-6.102211170" lon="105.424297750">
  <ele>272.671143</ele>
</trkpt>
<trkpt lat="-6.102210080" lon="105.424371680">
  <ele>267.864502</ele>
</trkpt>
<trkpt lat="-6.102180490" lon="105.424413920">
  <ele>263.057861</ele>
</trkpt>
<trkpt lat="-6.102135480" lon="105.424454320">
  <ele>259.212646</ele>
</trkpt>
<trkpt lat="-6.102101280" lon="105.424485000">
  <ele>259.212646</ele>
</trkpt>
<trkpt lat="-6.102074540" lon="105.424524820">
  <ele>255.848022</ele>
</trkpt>
<trkpt lat="-6.102039590" lon="105.424566980">
  <ele>252.002808</ele>
</trkpt>
<trkpt lat="-6.102020140" lon="105.424622630">
  <ele>250.560791</ele>
</trkpt>
<trkpt lat="-6.102007150" lon="105.424642160">
  <ele>249.118774</ele>
</trkpt>
<trkpt lat="-6.101960970" lon="105.424717770">
  <ele>243.831543</ele>
</trkpt>
<trkpt lat="-6.101935820" lon="105.424771160">
  <ele>239.986206</ele>
</trkpt>
<trkpt lat="-6.101965160" lon="105.424815000">
  <ele>236.621704</ele>
</trkpt>
<trkpt lat="-6.102000450" lon="105.424865710">
  <ele>232.776489</ele>
</trkpt>
<trkpt lat="-6.101973210" lon="105.424961430">
  <ele>226.047119</ele>
</trkpt>
<trkpt lat="-6.101932130" lon="105.425022950">
  <ele>223.643799</ele>
</trkpt>
<trkpt lat="-6.101939430" lon="105.425044750">
  <ele>222.682495</ele>
</trkpt>
<trkpt lat="-6.101939430" lon="105.425087580">
  <ele>218.837280</ele>
</trkpt>
<trkpt lat="-6.101941100" lon="105.425146500">
  <ele>216.433960</ele>
</trkpt>
<trkpt lat="-6.101911100" lon="105.425198130">
  <ele>214.030640</ele>
</trkpt>
<trkpt lat="-6.101898190" lon="105.425232580">
  <ele>212.588623</ele>
</trkpt>
<trkpt lat="-6.101922240" lon="105.425281200">
  <ele>210.185425</ele>
</trkpt>
<trkpt lat="-6.101930290" lon="105.425345490">
  <ele>207.782104</ele>
</trkpt>
<trkpt lat="-6.101921410" lon="105.425386810">
  <ele>205.859497</ele>
</trkpt>
<trkpt lat="-6.101848480" lon="105.425459150">
  <ele>201.533569</ele>
</trkpt>
<trkpt lat="-6.101843960" lon="105.425469460">
  <ele>198.649536</ele>
</trkpt>
<trkpt lat="-6.101841440" lon="105.425514050">
  <ele>196.726929</ele>
</trkpt>
<trkpt lat="-6.101806070" lon="105.425559730">
  <ele>192.401123</ele>
</trkpt>
<trkpt lat="-6.101786540" lon="105.425585550">
  <ele>190.958984</ele>
</trkpt>
<trkpt lat="-6.101713030" lon="105.425635250">
  <ele>186.152466</ele>
</trkpt>
<trkpt lat="-6.101680170" lon="105.425667600">
  <ele>181.826416</ele>
</trkpt>
<trkpt lat="-6.101632820" lon="105.425694760">
  <ele>178.461914</ele>
</trkpt>
<trkpt lat="-6.101591070" lon="105.425761650">
  <ele>173.655273</ele>
</trkpt>
<trkpt lat="-6.101551930" lon="105.425795760">
  <ele>171.732666</ele>
</trkpt>
<trkpt lat="-6.101482780" lon="105.425844710">
  <ele>168.368042</ele>
</trkpt>
<trkpt lat="-6.101456040" lon="105.425953760">
  <ele>165.003418</ele>
</trkpt>
<trkpt lat="-6.101447580" lon="105.425968680">
  <ele>165.484131</ele>
</trkpt>
<trkpt lat="-6.101398540" lon="105.426042190">
  <ele>165.484131</ele>
</trkpt>
<trkpt lat="-6.101337520" lon="105.426173120">
  <ele>166.445313</ele>
</trkpt>
<trkpt lat="-6.101297620" lon="105.426345620">
  <ele>165.003418</ele>
</trkpt>
<trkpt lat="-6.101288740" lon="105.426424410">
  <ele>164.522705</ele>
</trkpt>
<trkpt lat="-6.101247170" lon="105.426540080">
  <ele>162.600098</ele>
</trkpt>
<trkpt lat="-6.101282540" lon="105.426598500">
  <ele>161.638916</ele>
</trkpt>
<trkpt lat="-6.101288490" lon="105.426683240">
  <ele>164.042114</ele>
</trkpt>
<trkpt lat="-6.101310620" lon="105.426785330">
  <ele>166.926025</ele>
</trkpt>
<trkpt lat="-6.101326960" lon="105.426835370">
  <ele>167.887329</ele>
</trkpt>
<trkpt lat="-6.101359320" lon="105.426840400">
  <ele>168.368042</ele>
</trkpt>
<trkpt lat="-6.101349930" lon="105.426857580">
  <ele>168.368042</ele>
</trkpt>
<trkpt lat="-6.101332490" lon="105.426842660">
  <ele>167.887329</ele>
</trkpt>
<trkpt lat="-6.101323940" lon="105.426891360">
  <ele>165.964722</ele>
</trkpt>
<trkpt lat="-6.101349930" lon="105.426974180">
  <ele>164.042114</ele>
</trkpt>
<trkpt lat="-6.101380440" lon="105.427020610">
  <ele>161.158203</ele>
</trkpt>
<trkpt lat="-6.101403070" lon="105.427050370">
  <ele>160.196899</ele>
</trkpt>
<trkpt lat="-6.101418320" lon="105.427071410">
  <ele>159.235474</ele>
</trkpt>
<trkpt lat="-6.101451600" lon="105.427156820">
  <ele>157.312866</ele>
</trkpt>
<trkpt lat="-6.101468950" lon="105.427244240">
  <ele>153.467651</ele>
</trkpt>
<trkpt lat="-6.101488150" lon="105.427269300">
  <ele>152.025757</ele>
</trkpt>
<trkpt lat="-6.101556370" lon="105.427345330">
  <ele>149.141602</ele>
</trkpt>
<trkpt lat="-6.101612030" lon="105.427404500">
  <ele>145.777100</ele>
</trkpt>
<trkpt lat="-6.101630130" lon="105.427426460">
  <ele>145.296387</ele>
</trkpt>
<trkpt lat="-6.101668270" lon="105.427466190">
  <ele>144.335205</ele>
</trkpt>
<trkpt lat="-6.101693080" lon="105.427502150">
  <ele>143.854370</ele>
</trkpt>
<trkpt lat="-6.101708090" lon="105.427536940">
  <ele>143.373657</ele>
</trkpt>
<trkpt lat="-6.101728790" lon="105.427569290">
  <ele>141.931763</ele>
</trkpt>
<trkpt lat="-6.101730970" lon="105.427589830">
  <ele>140.970459</ele>
</trkpt>
<trkpt lat="-6.101758210" lon="105.427671630">
  <ele>137.125244</ele>
</trkpt>
<trkpt lat="-6.101787210" lon="105.427734410">
  <ele>135.683105</ele>
</trkpt>
<trkpt lat="-6.101812440" lon="105.427793090">
  <ele>134.721924</ele>
</trkpt>
<trkpt lat="-6.101842870" lon="105.427874060">
  <ele>131.357300</ele>
</trkpt>
<trkpt lat="-6.101855520" lon="105.427899290">
  <ele>130.395996</ele>
</trkpt>
<trkpt lat="-6.101861980" lon="105.427927530">
  <ele>129.434692</ele>
</trkpt>
<trkpt lat="-6.101880920" lon="105.427975730">
  <ele>127.511963</ele>
</trkpt>
<trkpt lat="-6.101898940" lon="105.428027950">
  <ele>126.550659</ele>
</trkpt>
<trkpt lat="-6.101944960" lon="105.428122240">
  <ele>122.224731</ele>
</trkpt>
<trkpt lat="-6.101965240" lon="105.428167670">
  <ele>120.302124</ele>
</trkpt>
<trkpt lat="-6.101976060" lon="105.428238330">
  <ele>117.418213</ele>
</trkpt>
<trkpt lat="-6.102018130" lon="105.428337740">
  <ele>111.650269</ele>
</trkpt>
<trkpt lat="-6.102038250" lon="105.428389120">
  <ele>108.766235</ele>
</trkpt>
<trkpt lat="-6.102050570" lon="105.428414770">
  <ele>107.805054</ele>
</trkpt>
<trkpt lat="-6.102064650" lon="105.428429270">
  <ele>107.324341</ele>
</trkpt>
<trkpt lat="-6.102064070" lon="105.428461460">
  <ele>106.363037</ele>
</trkpt>
<trkpt lat="-6.102092560" lon="105.428514350">
  <ele>105.882446</ele>
</trkpt>
<trkpt lat="-6.102096670" lon="105.428536230">
  <ele>105.401733</ele>
</trkpt>
<trkpt lat="-6.102105810" lon="105.428553910">
  <ele>105.401733</ele>
</trkpt>
<trkpt lat="-6.102125000" lon="105.428598340">
  <ele>103.959717</ele>
</trkpt>
<trkpt lat="-6.102145120" lon="105.428654330">
  <ele>102.037109</ele>
</trkpt>
<trkpt lat="-6.102166910" lon="105.428717530">
  <ele>100.114502</ele>
</trkpt>
<trkpt lat="-6.102213180" lon="105.428824150">
  <ele>97.711182</ele>
</trkpt>
<trkpt lat="-6.102221730" lon="105.428850460">
  <ele>97.711182</ele>
</trkpt>
<trkpt lat="-6.102237320" lon="105.428866640">
  <ele>97.711182</ele>
</trkpt>
<trkpt lat="-6.102265400" lon="105.428997650">
  <ele>92.423950</ele>
</trkpt>
<trkpt lat="-6.102269670" lon="105.429017680">
  <ele>90.981934</ele>
</trkpt>
<trkpt lat="-6.102270510" lon="105.429045340">
  <ele>89.059326</ele>
</trkpt>
<trkpt lat="-6.102269000" lon="105.429144590">
  <ele>85.213989</ele>
</trkpt>
<trkpt lat="-6.102318790" lon="105.429288170">
  <ele>81.849365</ele>
</trkpt>
<trkpt lat="-6.102313930" lon="105.429436110">
  <ele>77.523438</ele>
</trkpt>
<trkpt lat="-6.102350890" lon="105.429502410">
  <ele>76.081421</ele>
</trkpt>
<trkpt lat="-6.102333120" lon="105.429605170">
  <ele>72.236206</ele>
</trkpt>
<trkpt lat="-6.102344190" lon="105.429627630">
  <ele>71.274902</ele>
</trkpt>
<trkpt lat="-6.102375120" lon="105.429664350">
  <ele>70.313477</ele>
</trkpt>
<trkpt lat="-6.102372940" lon="105.429756050">
  <ele>67.910278</ele>
</trkpt>
<trkpt lat="-6.102306970" lon="105.429929300">
  <ele>62.142334</ele>
</trkpt>
<trkpt lat="-6.102317700" lon="105.429989900">
  <ele>61.661743</ele>
</trkpt>
<trkpt lat="-6.102301940" lon="105.430043800">
  <ele>59.739136</ele>
</trkpt>
<trkpt lat="-6.102272690" lon="105.430151080">
  <ele>55.893799</ele>
</trkpt>
<trkpt lat="-6.102271180" lon="105.430302290">
  <ele>53.009766</ele>
</trkpt>
<trkpt lat="-6.102264060" lon="105.430331710">
  <ele>52.048584</ele>
</trkpt>
<trkpt lat="-6.102238830" lon="105.430366670">
  <ele>50.606567</ele>
</trkpt>
<trkpt lat="-6.102235140" lon="105.430433470">
  <ele>49.645264</ele>
</trkpt>
<trkpt lat="-6.102188870" lon="105.430628940">
  <ele>51.087158</ele>
</trkpt>
<trkpt lat="-6.102172440" lon="105.430654250">
  <ele>50.606567</ele>
</trkpt>
<trkpt lat="-6.102172190" lon="105.430737150">
  <ele>49.645264</ele>
</trkpt>
<trkpt lat="-6.102191890" lon="105.430763380">
  <ele>48.203369</ele>
</trkpt>
<trkpt lat="-6.102224330" lon="105.430782660">
  <ele>46.761230</ele>
</trkpt>
<trkpt lat="-6.102233720" lon="105.430795070">
  <ele>46.280640</ele>
</trkpt>
<trkpt lat="-6.102247380" lon="105.430797410">
  <ele>44.838623</ele>
</trkpt>
<trkpt lat="-6.102293060" lon="105.430787610">
  <ele>41.954712</ele>
</trkpt>
<trkpt lat="-6.102382830" lon="105.430855000">
  <ele>38.109375</ele>
</trkpt>
<trkpt lat="-6.102399510" lon="105.430886930">
  <ele>37.148071</ele>
</trkpt>
<trkpt lat="-6.102402780" lon="105.430993720">
  <ele>37.148071</ele>
</trkpt>
<trkpt lat="-6.102403530" lon="105.431032610">
  <ele>37.148071</ele>
</trkpt>
<trkpt lat="-6.102442930" lon="105.431192200">
  <ele>36.667480</ele>
</trkpt>
<trkpt lat="-6.102474440" lon="105.431342320">
  <ele>38.590088</ele>
</trkpt>
<trkpt lat="-6.102487180" lon="105.431380210">
  <ele>38.590088</ele>
</trkpt>
<trkpt lat="-6.102513590" lon="105.431413400">
  <ele>38.109375</ele>
</trkpt>
<trkpt lat="-6.102537140" lon="105.431441900">
  <ele>37.628662</ele>
</trkpt>
<trkpt lat="-6.102576120" lon="105.431495880">
  <ele>35.225464</ele>
</trkpt>
<trkpt lat="-6.102602850" lon="105.431630660">
  <ele>31.380127</ele>
</trkpt>
<trkpt lat="-6.102564050" lon="105.431749600">
  <ele>32.341553</ele>
</trkpt>
<trkpt lat="-6.102486930" lon="105.431863670">
  <ele>34.264160</ele>
</trkpt>
<trkpt lat="-6.102479640" lon="105.431887810">
  <ele>34.264160</ele>
</trkpt>
<trkpt lat="-6.102472680" lon="105.431913710">
  <ele>33.783447</ele>
</trkpt>
<trkpt lat="-6.102478220" lon="105.431948920">
  <ele>33.302856</ele>
</trkpt>
<trkpt lat="-6.102466310" lon="105.432051010">
  <ele>30.899536</ele>
</trkpt>
<trkpt lat="-6.102467240" lon="105.432071040">
  <ele>29.938110</ele>
</trkpt>
<trkpt lat="-6.102487690" lon="105.432111020">
  <ele>28.496216</ele>
</trkpt>
<trkpt lat="-6.102518280" lon="105.432142370">
  <ele>27.534912</ele>
</trkpt>
<trkpt lat="-6.102603190" lon="105.432265840">
  <ele>27.054321</ele>
</trkpt>
<trkpt lat="-6.102657760" lon="105.432353430">
  <ele>24.170288</ele>
</trkpt>
<trkpt lat="-6.102657250" lon="105.432454430">
  <ele>20.805664</ele>
</trkpt>
<trkpt lat="-6.102644010" lon="105.432482260">
  <ele>20.324951</ele>
</trkpt>
<trkpt lat="-6.102563790" lon="105.432553420">
  <ele>18.402344</ele>
</trkpt>
<trkpt lat="-6.102560020" lon="105.432566080">
  <ele>18.402344</ele>
</trkpt>
<trkpt lat="-6.102519790" lon="105.432606730">
  <ele>18.883057</ele>
</trkpt>
<trkpt lat="-6.102455840" lon="105.432665490">
  <ele>17.441162</ele>
</trkpt>
<trkpt lat="-6.102431190" lon="105.432686860">
  <ele>15.999023</ele>
</trkpt>
<trkpt lat="-6.102385090" lon="105.432720310">
  <ele>14.557007</ele>
</trkpt>
<trkpt lat="-6.102361620" lon="105.432724660">
  <ele>15.037720</ele>
</trkpt>
<trkpt lat="-6.102278470" lon="105.432811250">
  <ele>16.960449</ele>
</trkpt>
<trkpt lat="-6.102226510" lon="105.432897080">
  <ele>15.518433</ele>
</trkpt>
<trkpt lat="-6.102147880" lon="105.432909990">
  <ele>12.634399</ele>
</trkpt>
<trkpt lat="-6.102051330" lon="105.432920210">
  <ele>9.269897</ele>
</trkpt>
<trkpt lat="-6.101990050" lon="105.432946030">
  <ele>7.827881</ele>
</trkpt>
<trkpt lat="-6.101835830" lon="105.433033540">
  <ele>4.463257</ele>
</trkpt>
<trkpt lat="-6.101831640" lon="105.433043930">
  <ele>4.463257</ele>
</trkpt>
<trkpt lat="-6.101822420" lon="105.433058520">
  <ele>4.943848</ele>
</trkpt>
<trkpt lat="-6.101808420" lon="105.433104110">
  <ele>4.943848</ele>
</trkpt>
<trkpt lat="-6.101799780" lon="105.433144090">
  <ele>4.943848</ele>
</trkpt>
<trkpt lat="-6.101801800" lon="105.433204030">
  <ele>5.424561</ele>
</trkpt>
<trkpt lat="-6.101772120" lon="105.433234200">
  <ele>5.424561</ele>
</trkpt>
<trkpt lat="-6.101776990" lon="105.433256660">
  <ele>5.424561</ele>
</trkpt>
<trkpt lat="-6.101770530" lon="105.433308800">
  <ele>5.905273</ele>
</trkpt>
<trkpt lat="-6.101757370" lon="105.433348530">
  <ele>6.385864</ele>
</trkpt>
<trkpt lat="-6.101693590" lon="105.433432520">
  <ele>10.231201</ele>
</trkpt>
<trkpt lat="-6.101684030" lon="105.433497310">
  <ele>12.153809</ele>
</trkpt>
<trkpt lat="-6.101695260" lon="105.433604090">
  <ele>16.479736</ele>
</trkpt>
</trkseg>
</trk>
</gpx>
