<?xml version="1.0" encoding="UTF-8"?>
<gpx
  version="1.0"
  creator="GPSBabel - http://www.gpsbabel.org"
  xmlns:xsi="http://www.w3.org/2001/XMLSchema-instance"
  xmlns="http://www.topografix.com/GPX/1/0"
  xsi:schemaLocation="http://www.topografix.com/GPX/1/0 http://www.topografix.com/GPX/1/0/gpx.xsd">
<time>2011-11-21T09:34:06Z</time>
<bounds minlat="-7.955399920" minlon="112.464989960" maxlat="-7.872903720" maxlon="112.518963720"/>
<wpt lat="-7.873207480" lon="112.518963720">
  <ele>955.000000</ele>
  <name>Hotel Sumber, Batu</name>
  <cmt>Hotel Sumber, Batu</cmt>
  <desc>Hotel Sumber, Batu</desc>
</wpt>
<wpt lat="-7.887087410" lon="112.497943500">
  <ele>1309.000000</ele>
  <name>Base Camp (Trailhead)</name>
  <cmt>Base Camp (Trailhead)</cmt>
  <desc>Base Camp (Trailhead)</desc>
</wpt>
<wpt lat="-7.896338770" lon="112.488739000">
  <ele>1573.000000</ele>
  <name>Pos 2</name>
  <cmt>Pos 2</cmt>
  <desc>Pos 2</desc>
</wpt>
<wpt lat="-7.908838610" lon="112.480171180">
  <ele>1981.000000</ele>
  <name>Pos 4</name>
  <cmt>Pos 4</cmt>
  <desc>Pos 4</desc>
</wpt>
<wpt lat="-7.940400500" lon="112.472297060">
  <ele>2463.000000</ele>
  <name>Pos 6</name>
  <cmt>Pos 6</cmt>
  <desc>Pos 6</desc>
</wpt>
<wpt lat="-7.950795070" lon="112.468372560">
  <ele>2678.000000</ele>
  <name>Camp</name>
  <cmt>Camp</cmt>
  <desc>Camp</desc>
</wpt>
<wpt lat="-7.955399920" lon="112.464989960">
  <ele>935.000000</ele>
  <name>Summit - not reached</name>
  <cmt>Summit - not reached</cmt>
  <desc>Summit - not reached</desc>
</wpt>
<wpt lat="-7.950615550" lon="112.468134219">
  <ele>0.000000</ele>
  <name>Spring</name>
  <cmt>Spring</cmt>
  <desc>Spring</desc>
</wpt>
<trk>
  <name>Tracks</name>
<trkseg>
<trkpt lat="-7.873202530" lon="112.518849640">
  <ele>939.345215</ele>
</trkpt>
<trkpt lat="-7.873010840" lon="112.517872650">
  <ele>939.825928</ele>
</trkpt>
<trkpt lat="-7.873002460" lon="112.517426560">
  <ele>945.593994</ele>
</trkpt>
<trkpt lat="-7.873547450" lon="112.517324470">
  <ele>948.477783</ele>
</trkpt>
<trkpt lat="-7.873509480" lon="112.516946870">
  <ele>949.439209</ele>
</trkpt>
<trkpt lat="-7.872903720" lon="112.514291140">
  <ele>949.919922</ele>
</trkpt>
<trkpt lat="-7.873156180" lon="112.510809220">
  <ele>957.610596</ele>
</trkpt>
<trkpt lat="-7.873193900" lon="112.509322690">
  <ele>965.301025</ele>
</trkpt>
<trkpt lat="-7.873544350" lon="112.507193520">
  <ele>978.759521</ele>
</trkpt>
<trkpt lat="-7.873618440" lon="112.505994900">
  <ele>986.930420</ele>
</trkpt>
<trkpt lat="-7.873893040" lon="112.504001190">
  <ele>1006.637695</ele>
</trkpt>
<trkpt lat="-7.875329190" lon="112.503791970">
  <ele>1016.250732</ele>
</trkpt>
<trkpt lat="-7.874933820" lon="112.503580750">
  <ele>1024.422119</ele>
</trkpt>
<trkpt lat="-7.874900620" lon="112.503439010">
  <ele>1030.670654</ele>
</trkpt>
<trkpt lat="-7.874936750" lon="112.503357040">
  <ele>1034.515869</ele>
</trkpt>
<trkpt lat="-7.875143870" lon="112.503202050">
  <ele>1043.167725</ele>
</trkpt>
<trkpt lat="-7.876031430" lon="112.502874990">
  <ele>1065.758789</ele>
</trkpt>
<trkpt lat="-7.877371110" lon="112.502500660">
  <ele>1095.559570</ele>
</trkpt>
<trkpt lat="-7.877878380" lon="112.502322290">
  <ele>1100.846924</ele>
</trkpt>
<trkpt lat="-7.878036630" lon="112.502188510">
  <ele>1103.730957</ele>
</trkpt>
<trkpt lat="-7.878632000" lon="112.502004280">
  <ele>1107.576172</ele>
</trkpt>
<trkpt lat="-7.880862670" lon="112.501642520">
  <ele>1136.896240</ele>
</trkpt>
<trkpt lat="-7.882538630" lon="112.501475210">
  <ele>1177.752197</ele>
</trkpt>
<trkpt lat="-7.883344130" lon="112.501174300">
  <ele>1185.442871</ele>
</trkpt>
<trkpt lat="-7.884565040" lon="112.501000300">
  <ele>1204.669189</ele>
</trkpt>
<trkpt lat="-7.884705520" lon="112.500928300">
  <ele>1212.840576</ele>
</trkpt>
<trkpt lat="-7.885214890" lon="112.500858140">
  <ele>1222.934326</ele>
</trkpt>
<trkpt lat="-7.885915870" lon="112.500661330">
  <ele>1235.431396</ele>
</trkpt>
<trkpt lat="-7.886331860" lon="112.500094970">
  <ele>1249.851318</ele>
</trkpt>
<trkpt lat="-7.886882220" lon="112.499628180">
  <ele>1254.657715</ele>
</trkpt>
<trkpt lat="-7.887337860" lon="112.499513850">
  <ele>1262.348389</ele>
</trkpt>
<trkpt lat="-7.887381530" lon="112.499578310">
  <ele>1282.536133</ele>
</trkpt>
<trkpt lat="-7.887087490" lon="112.497941910">
  <ele>1308.011230</ele>
</trkpt>
<trkpt lat="-7.887127310" lon="112.498499220">
  <ele>1308.972412</ele>
</trkpt>
<trkpt lat="-7.887325870" lon="112.499411090">
  <ele>1294.552490</ele>
</trkpt>
<trkpt lat="-7.887325200" lon="112.499657850">
  <ele>1292.149414</ele>
</trkpt>
<trkpt lat="-7.887357310" lon="112.499596080">
  <ele>1280.613525</ele>
</trkpt>
<trkpt lat="-7.887300390" lon="112.499623820">
  <ele>1285.419922</ele>
</trkpt>
<trkpt lat="-7.887377420" lon="112.499634800">
  <ele>1285.900635</ele>
</trkpt>
<trkpt lat="-7.886310830" lon="112.500004440">
  <ele>1291.668457</ele>
</trkpt>
<trkpt lat="-7.885799950" lon="112.500793010">
  <ele>1285.419922</ele>
</trkpt>
<trkpt lat="-7.885583020" lon="112.500912540">
  <ele>1284.939453</ele>
</trkpt>
<trkpt lat="-7.884768890" lon="112.501146730">
  <ele>1277.249023</ele>
</trkpt>
<trkpt lat="-7.884883300" lon="112.501180170">
  <ele>1269.558350</ele>
</trkpt>
<trkpt lat="-7.884826560" lon="112.501070620">
  <ele>1253.696533</ele>
</trkpt>
<trkpt lat="-7.885669110" lon="112.500812370">
  <ele>1253.696533</ele>
</trkpt>
<trkpt lat="-7.885869100" lon="112.500690840">
  <ele>1253.696533</ele>
</trkpt>
<trkpt lat="-7.886634790" lon="112.499905620">
  <ele>1253.696533</ele>
</trkpt>
<trkpt lat="-7.887268290" lon="112.499521230">
  <ele>1271.961426</ele>
</trkpt>
<trkpt lat="-7.887232920" lon="112.498825950">
  <ele>1274.845459</ele>
</trkpt>
<trkpt lat="-7.887129320" lon="112.498510370">
  <ele>1282.536133</ele>
</trkpt>
<trkpt lat="-7.887132500" lon="112.497916590">
  <ele>1288.303955</ele>
</trkpt>
<trkpt lat="-7.887850500" lon="112.497614680">
  <ele>1299.839844</ele>
</trkpt>
<trkpt lat="-7.888134480" lon="112.497423320">
  <ele>1323.392090</ele>
</trkpt>
<trkpt lat="-7.889089590" lon="112.497212260">
  <ele>1352.231445</ele>
</trkpt>
<trkpt lat="-7.889483540" lon="112.496657380">
  <ele>1363.767334</ele>
</trkpt>
<trkpt lat="-7.889999450" lon="112.495636800">
  <ele>1380.590576</ele>
</trkpt>
<trkpt lat="-7.890739740" lon="112.495256430">
  <ele>1388.281250</ele>
</trkpt>
<trkpt lat="-7.890777040" lon="112.495012520">
  <ele>1387.319580</ele>
</trkpt>
<trkpt lat="-7.891624450" lon="112.493990090">
  <ele>1397.894287</ele>
</trkpt>
<trkpt lat="-7.891593350" lon="112.493867720">
  <ele>1399.336182</ele>
</trkpt>
<trkpt lat="-7.890730270" lon="112.494139210">
  <ele>1408.949463</ele>
</trkpt>
<trkpt lat="-7.890210760" lon="112.493989760">
  <ele>1419.043213</ele>
</trkpt>
<trkpt lat="-7.890111850" lon="112.493807450">
  <ele>1419.523926</ele>
</trkpt>
<trkpt lat="-7.890146890" lon="112.493719020">
  <ele>1417.601074</ele>
</trkpt>
<trkpt lat="-7.889973300" lon="112.493573010">
  <ele>1416.159180</ele>
</trkpt>
<trkpt lat="-7.890641170" lon="112.493566810">
  <ele>1436.827637</ele>
</trkpt>
<trkpt lat="-7.890909220" lon="112.493547690">
  <ele>1446.440918</ele>
</trkpt>
<trkpt lat="-7.890938890" lon="112.493499000">
  <ele>1447.402100</ele>
</trkpt>
<trkpt lat="-7.890837890" lon="112.493320550">
  <ele>1449.805420</ele>
</trkpt>
<trkpt lat="-7.890502030" lon="112.493067910">
  <ele>1450.766602</ele>
</trkpt>
<trkpt lat="-7.890539240" lon="112.492887370">
  <ele>1450.766602</ele>
</trkpt>
<trkpt lat="-7.890678470" lon="112.492753340">
  <ele>1446.440918</ele>
</trkpt>
<trkpt lat="-7.891032520" lon="112.492623000">
  <ele>1463.263916</ele>
</trkpt>
<trkpt lat="-7.891289590" lon="112.492069130">
  <ele>1470.954590</ele>
</trkpt>
<trkpt lat="-7.891817740" lon="112.491467310">
  <ele>1482.009521</ele>
</trkpt>
<trkpt lat="-7.892238260" lon="112.491145530">
  <ele>1483.932129</ele>
</trkpt>
<trkpt lat="-7.892460460" lon="112.491141420">
  <ele>1487.777588</ele>
</trkpt>
<trkpt lat="-7.892843010" lon="112.490977130">
  <ele>1504.120117</ele>
</trkpt>
<trkpt lat="-7.893973310" lon="112.490893900">
  <ele>1516.136475</ele>
</trkpt>
<trkpt lat="-7.894397100" lon="112.490749140">
  <ele>1521.904297</ele>
</trkpt>
<trkpt lat="-7.894585100" lon="112.490460470">
  <ele>1522.865723</ele>
</trkpt>
<trkpt lat="-7.894856260" lon="112.490219740">
  <ele>1529.594727</ele>
</trkpt>
<trkpt lat="-7.894609500" lon="112.489907180">
  <ele>1532.959473</ele>
</trkpt>
<trkpt lat="-7.894898420" lon="112.489525970">
  <ele>1544.495117</ele>
</trkpt>
<trkpt lat="-7.895294380" lon="112.489221040">
  <ele>1555.550537</ele>
</trkpt>
<trkpt lat="-7.895376190" lon="112.489463190">
  <ele>1562.760254</ele>
</trkpt>
<trkpt lat="-7.895896200" lon="112.488922980">
  <ele>1571.412109</ele>
</trkpt>
<trkpt lat="-7.896341360" lon="112.488725080">
  <ele>1572.854248</ele>
</trkpt>
<trkpt lat="-7.896649740" lon="112.488924150">
  <ele>1576.699463</ele>
</trkpt>
<trkpt lat="-7.896864980" lon="112.489231690">
  <ele>1577.180176</ele>
</trkpt>
<trkpt lat="-7.897429420" lon="112.489495630">
  <ele>1581.986816</ele>
</trkpt>
<trkpt lat="-7.897598990" lon="112.489421030">
  <ele>1582.947998</ele>
</trkpt>
<trkpt lat="-7.897590350" lon="112.489006130">
  <ele>1596.887207</ele>
</trkpt>
<trkpt lat="-7.897649700" lon="112.488968240">
  <ele>1600.732422</ele>
</trkpt>
<trkpt lat="-7.897965190" lon="112.489101510">
  <ele>1612.749023</ele>
</trkpt>
<trkpt lat="-7.898169040" lon="112.489074610">
  <ele>1622.362061</ele>
</trkpt>
<trkpt lat="-7.898592490" lon="112.489155330">
  <ele>1636.781738</ele>
</trkpt>
<trkpt lat="-7.899108730" lon="112.488861880">
  <ele>1642.069092</ele>
</trkpt>
<trkpt lat="-7.899470660" lon="112.488730450">
  <ele>1648.798340</ele>
</trkpt>
<trkpt lat="-7.900012050" lon="112.488811920">
  <ele>1663.698730</ele>
</trkpt>
<trkpt lat="-7.900616890" lon="112.488796250">
  <ele>1670.908691</ele>
</trkpt>
<trkpt lat="-7.900977310" lon="112.488660210">
  <ele>1676.196045</ele>
</trkpt>
<trkpt lat="-7.901650630" lon="112.488581420">
  <ele>1682.925049</ele>
</trkpt>
<trkpt lat="-7.901993620" lon="112.488699850">
  <ele>1682.925049</ele>
</trkpt>
<trkpt lat="-7.902539950" lon="112.488747290">
  <ele>1684.847900</ele>
</trkpt>
<trkpt lat="-7.903733780" lon="112.488498350">
  <ele>1693.019043</ele>
</trkpt>
<trkpt lat="-7.904468040" lon="112.488673700">
  <ele>1700.229004</ele>
</trkpt>
<trkpt lat="-7.905119400" lon="112.488673280">
  <ele>1698.786865</ele>
</trkpt>
<trkpt lat="-7.905280580" lon="112.488665400">
  <ele>1699.267578</ele>
</trkpt>
<trkpt lat="-7.905389460" lon="112.488591390">
  <ele>1699.267578</ele>
</trkpt>
<trkpt lat="-7.905536140" lon="112.488343290">
  <ele>1701.670898</ele>
</trkpt>
<trkpt lat="-7.905733710" lon="112.488545210">
  <ele>1699.748291</ele>
</trkpt>
<trkpt lat="-7.905662800" lon="112.488173220">
  <ele>1698.786865</ele>
</trkpt>
<trkpt lat="-7.905508650" lon="112.487761750">
  <ele>1701.190186</ele>
</trkpt>
<trkpt lat="-7.905604290" lon="112.487390770">
  <ele>1699.267578</ele>
</trkpt>
<trkpt lat="-7.905243620" lon="112.486934540">
  <ele>1705.035400</ele>
</trkpt>
<trkpt lat="-7.905127610" lon="112.486557440">
  <ele>1704.074219</ele>
</trkpt>
<trkpt lat="-7.904905740" lon="112.486274470">
  <ele>1714.648682</ele>
</trkpt>
<trkpt lat="-7.904916890" lon="112.485810780">
  <ele>1732.433105</ele>
</trkpt>
<trkpt lat="-7.905225850" lon="112.485364190">
  <ele>1755.985107</ele>
</trkpt>
<trkpt lat="-7.905547630" lon="112.485193280">
  <ele>1773.289307</ele>
</trkpt>
<trkpt lat="-7.905895980" lon="112.484539240">
  <ele>1812.222412</ele>
</trkpt>
<trkpt lat="-7.906348100" lon="112.483883950">
  <ele>1846.829834</ele>
</trkpt>
<trkpt lat="-7.906402920" lon="112.483531490">
  <ele>1857.404541</ele>
</trkpt>
<trkpt lat="-7.906596120" lon="112.483516570">
  <ele>1867.498047</ele>
</trkpt>
<trkpt lat="-7.906689490" lon="112.483364020">
  <ele>1881.917969</ele>
</trkpt>
<trkpt lat="-7.907110350" lon="112.483196880">
  <ele>1904.028564</ele>
</trkpt>
<trkpt lat="-7.907472110" lon="112.482891030">
  <ele>1900.663818</ele>
</trkpt>
<trkpt lat="-7.907648640" lon="112.482876360">
  <ele>1906.912354</ele>
</trkpt>
<trkpt lat="-7.907935460" lon="112.482488280">
  <ele>1907.393066</ele>
</trkpt>
<trkpt lat="-7.908402500" lon="112.482106310">
  <ele>1934.790771</ele>
</trkpt>
<trkpt lat="-7.908968450" lon="112.481196040">
  <ele>1929.983887</ele>
</trkpt>
<trkpt lat="-7.908821770" lon="112.480938880">
  <ele>1952.574951</ele>
</trkpt>
<trkpt lat="-7.908714140" lon="112.480937120">
  <ele>1954.978271</ele>
</trkpt>
<trkpt lat="-7.908610960" lon="112.480852630">
  <ele>1960.746094</ele>
</trkpt>
<trkpt lat="-7.908821260" lon="112.480185680">
  <ele>1983.337158</ele>
</trkpt>
<trkpt lat="-7.908858400" lon="112.480153920">
  <ele>1990.546875</ele>
</trkpt>
<trkpt lat="-7.908876000" lon="112.480196830">
  <ele>1972.762695</ele>
</trkpt>
<trkpt lat="-7.908961910" lon="112.480023410">
  <ele>1979.972412</ele>
</trkpt>
<trkpt lat="-7.909102480" lon="112.480054590">
  <ele>1986.221191</ele>
</trkpt>
<trkpt lat="-7.909344970" lon="112.479917970">
  <ele>1992.469727</ele>
</trkpt>
<trkpt lat="-7.909899600" lon="112.479819980">
  <ele>1992.469727</ele>
</trkpt>
<trkpt lat="-7.910754970" lon="112.479952080">
  <ele>1999.679688</ele>
</trkpt>
<trkpt lat="-7.911113380" lon="112.479861300">
  <ele>2004.005615</ele>
</trkpt>
<trkpt lat="-7.911679660" lon="112.480102620">
  <ele>2004.486084</ele>
</trkpt>
<trkpt lat="-7.912175790" lon="112.480097510">
  <ele>2004.486084</ele>
</trkpt>
<trkpt lat="-7.912635700" lon="112.480195570">
  <ele>2010.253906</ele>
</trkpt>
<trkpt lat="-7.912925550" lon="112.480587510">
  <ele>2014.099365</ele>
</trkpt>
<trkpt lat="-7.913251690" lon="112.480664210">
  <ele>2013.138184</ele>
</trkpt>
<trkpt lat="-7.914275960" lon="112.481139540">
  <ele>2024.193115</ele>
</trkpt>
<trkpt lat="-7.914859840" lon="112.481297290">
  <ele>2025.154297</ele>
</trkpt>
<trkpt lat="-7.915078190" lon="112.481179860">
  <ele>2024.673828</ele>
</trkpt>
<trkpt lat="-7.915219000" lon="112.481179860">
  <ele>2020.347900</ele>
</trkpt>
<trkpt lat="-7.915300480" lon="112.481158570">
  <ele>2019.867188</ele>
</trkpt>
<trkpt lat="-7.915644550" lon="112.481591160">
  <ele>2025.154297</ele>
</trkpt>
<trkpt lat="-7.916054760" lon="112.481751510">
  <ele>2047.264893</ele>
</trkpt>
<trkpt lat="-7.916849530" lon="112.481810600">
  <ele>2045.822998</ele>
</trkpt>
<trkpt lat="-7.917225800" lon="112.481804820">
  <ele>2046.784180</ele>
</trkpt>
<trkpt lat="-7.917258820" lon="112.481753940">
  <ele>2056.397217</ele>
</trkpt>
<trkpt lat="-7.917229990" lon="112.481820910">
  <ele>2049.668213</ele>
</trkpt>
<trkpt lat="-7.917337280" lon="112.481887800">
  <ele>2053.994141</ele>
</trkpt>
<trkpt lat="-7.917879500" lon="112.481848230">
  <ele>2048.226074</ele>
</trkpt>
<trkpt lat="-7.918067590" lon="112.481889720">
  <ele>2055.916504</ele>
</trkpt>
<trkpt lat="-7.918717530" lon="112.481572130">
  <ele>2051.590820</ele>
</trkpt>
<trkpt lat="-7.918956330" lon="112.481537270">
  <ele>2053.032715</ele>
</trkpt>
<trkpt lat="-7.919308110" lon="112.481308360">
  <ele>2055.436035</ele>
</trkpt>
<trkpt lat="-7.920033570" lon="112.480962770">
  <ele>2065.530029</ele>
</trkpt>
<trkpt lat="-7.921043840" lon="112.480940390">
  <ele>2071.778320</ele>
</trkpt>
<trkpt lat="-7.921894690" lon="112.480607550">
  <ele>2079.949707</ele>
</trkpt>
<trkpt lat="-7.922480580" lon="112.480592460">
  <ele>2082.833496</ele>
</trkpt>
<trkpt lat="-7.923169320" lon="112.481156310">
  <ele>2105.424561</ele>
</trkpt>
<trkpt lat="-7.923259850" lon="112.481303830">
  <ele>2108.789307</ele>
</trkpt>
<trkpt lat="-7.923730990" lon="112.481551510">
  <ele>2111.192627</ele>
</trkpt>
<trkpt lat="-7.924346640" lon="112.481615050">
  <ele>2128.496338</ele>
</trkpt>
<trkpt lat="-7.924642270" lon="112.481720080">
  <ele>2129.938232</ele>
</trkpt>
<trkpt lat="-7.924950900" lon="112.481716890">
  <ele>2134.264160</ele>
</trkpt>
<trkpt lat="-7.925129350" lon="112.481785710">
  <ele>2137.147949</ele>
</trkpt>
<trkpt lat="-7.925358170" lon="112.481632740">
  <ele>2150.125977</ele>
</trkpt>
<trkpt lat="-7.925574260" lon="112.481683280">
  <ele>2140.512695</ele>
</trkpt>
<trkpt lat="-7.926311450" lon="112.481427380">
  <ele>2138.109375</ele>
</trkpt>
<trkpt lat="-7.926469190" lon="112.481419330">
  <ele>2141.474121</ele>
</trkpt>
<trkpt lat="-7.927639640" lon="112.480834190">
  <ele>2164.064941</ele>
</trkpt>
<trkpt lat="-7.928053540" lon="112.480713740">
  <ele>2174.158936</ele>
</trkpt>
<trkpt lat="-7.928530640" lon="112.480427670">
  <ele>2174.639648</ele>
</trkpt>
<trkpt lat="-7.929044700" lon="112.480270510">
  <ele>2173.678223</ele>
</trkpt>
<trkpt lat="-7.929805860" lon="112.479700790">
  <ele>2188.098145</ele>
</trkpt>
<trkpt lat="-7.929813070" lon="112.479751920">
  <ele>2181.849365</ele>
</trkpt>
<trkpt lat="-7.929865290" lon="112.479737170">
  <ele>2181.368652</ele>
</trkpt>
<trkpt lat="-7.930272150" lon="112.479416900">
  <ele>2197.230469</ele>
</trkpt>
<trkpt lat="-7.930477250" lon="112.479361320">
  <ele>2192.424072</ele>
</trkpt>
<trkpt lat="-7.931100110" lon="112.478970480">
  <ele>2210.208252</ele>
</trkpt>
<trkpt lat="-7.931167500" lon="112.479005600">
  <ele>2207.805176</ele>
</trkpt>
<trkpt lat="-7.931479480" lon="112.478971150">
  <ele>2204.440430</ele>
</trkpt>
<trkpt lat="-7.931607970" lon="112.478863190">
  <ele>2210.688965</ele>
</trkpt>
<trkpt lat="-7.932199480" lon="112.478644250">
  <ele>2212.130859</ele>
</trkpt>
<trkpt lat="-7.932307610" lon="112.478674010">
  <ele>2211.650391</ele>
</trkpt>
<trkpt lat="-7.932595190" lon="112.478582810">
  <ele>2218.860107</ele>
</trkpt>
<trkpt lat="-7.932767100" lon="112.478613740">
  <ele>2216.456787</ele>
</trkpt>
<trkpt lat="-7.932808680" lon="112.478505870">
  <ele>2217.417969</ele>
</trkpt>
<trkpt lat="-7.933160630" lon="112.478398080">
  <ele>2215.976074</ele>
</trkpt>
<trkpt lat="-7.933546030" lon="112.478055930">
  <ele>2229.434570</ele>
</trkpt>
<trkpt lat="-7.933835710" lon="112.477896170">
  <ele>2236.164063</ele>
</trkpt>
<trkpt lat="-7.934737100" lon="112.477457210">
  <ele>2247.699707</ele>
</trkpt>
<trkpt lat="-7.934884460" lon="112.477449240">
  <ele>2247.218994</ele>
</trkpt>
<trkpt lat="-7.935423080" lon="112.476965020">
  <ele>2277.500488</ele>
</trkpt>
<trkpt lat="-7.935678730" lon="112.476421290">
  <ele>2292.881592</ele>
</trkpt>
<trkpt lat="-7.935896400" lon="112.476093050">
  <ele>2303.456299</ele>
</trkpt>
<trkpt lat="-7.936182900" lon="112.474947410">
  <ele>2327.969727</ele>
</trkpt>
<trkpt lat="-7.936172840" lon="112.474675840">
  <ele>2340.947510</ele>
</trkpt>
<trkpt lat="-7.936464450" lon="112.474183990">
  <ele>2360.654541</ele>
</trkpt>
<trkpt lat="-7.936505010" lon="112.474014090">
  <ele>2364.019287</ele>
</trkpt>
<trkpt lat="-7.936595710" lon="112.473940660">
  <ele>2367.864502</ele>
</trkpt>
<trkpt lat="-7.936705090" lon="112.473863050">
  <ele>2378.919434</ele>
</trkpt>
<trkpt lat="-7.936672320" lon="112.473925910">
  <ele>2383.245605</ele>
</trkpt>
<trkpt lat="-7.936693860" lon="112.473767580">
  <ele>2376.516357</ele>
</trkpt>
<trkpt lat="-7.936896780" lon="112.473531790">
  <ele>2388.532959</ele>
</trkpt>
<trkpt lat="-7.936997700" lon="112.473620390">
  <ele>2390.936035</ele>
</trkpt>
<trkpt lat="-7.937452760" lon="112.473644030">
  <ele>2402.952637</ele>
</trkpt>
<trkpt lat="-7.937728270" lon="112.473528270">
  <ele>2409.201172</ele>
</trkpt>
<trkpt lat="-7.938431930" lon="112.473505060">
  <ele>2418.814453</ele>
</trkpt>
<trkpt lat="-7.938809450" lon="112.473360890">
  <ele>2426.024170</ele>
</trkpt>
<trkpt lat="-7.939052440" lon="112.473085040">
  <ele>2420.737061</ele>
</trkpt>
<trkpt lat="-7.939259810" lon="112.473026530">
  <ele>2428.908203</ele>
</trkpt>
<trkpt lat="-7.939437760" lon="112.472876920">
  <ele>2442.366699</ele>
</trkpt>
<trkpt lat="-7.939708240" lon="112.472565030">
  <ele>2448.615234</ele>
</trkpt>
<trkpt lat="-7.940339320" lon="112.472316920">
  <ele>2457.747803</ele>
</trkpt>
<trkpt lat="-7.940457420" lon="112.472322700">
  <ele>2469.764160</ele>
</trkpt>
<trkpt lat="-7.940540060" lon="112.472085750">
  <ele>2457.747803</ele>
</trkpt>
<trkpt lat="-7.940782470" lon="112.472248440">
  <ele>2463.515625</ele>
</trkpt>
<trkpt lat="-7.940907270" lon="112.472249190">
  <ele>2469.283691</ele>
</trkpt>
<trkpt lat="-7.940994280" lon="112.472151130">
  <ele>2467.360840</ele>
</trkpt>
<trkpt lat="-7.941109360" lon="112.472119530">
  <ele>2474.090088</ele>
</trkpt>
<trkpt lat="-7.941312790" lon="112.472193120">
  <ele>2483.222656</ele>
</trkpt>
<trkpt lat="-7.942124160" lon="112.471896570">
  <ele>2516.868896</ele>
</trkpt>
<trkpt lat="-7.942546350" lon="112.471644520">
  <ele>2538.017822</ele>
</trkpt>
<trkpt lat="-7.943009120" lon="112.471223500">
  <ele>2553.398926</ele>
</trkpt>
<trkpt lat="-7.944157520" lon="112.470722430">
  <ele>2582.718994</ele>
</trkpt>
<trkpt lat="-7.944324830" lon="112.470490000">
  <ele>2590.890381</ele>
</trkpt>
<trkpt lat="-7.944439410" lon="112.470470050">
  <ele>2592.332520</ele>
</trkpt>
<trkpt lat="-7.944612750" lon="112.470300400">
  <ele>2578.393311</ele>
</trkpt>
<trkpt lat="-7.944691450" lon="112.470061100">
  <ele>2623.575195</ele>
</trkpt>
<trkpt lat="-7.944726320" lon="112.469802430">
  <ele>2622.613770</ele>
</trkpt>
<trkpt lat="-7.944811820" lon="112.469740070">
  <ele>2621.652832</ele>
</trkpt>
<trkpt lat="-7.945516980" lon="112.469654410">
  <ele>2620.210449</ele>
</trkpt>
<trkpt lat="-7.945904730" lon="112.469800840">
  <ele>2634.630371</ele>
</trkpt>
<trkpt lat="-7.946248390" lon="112.469697160">
  <ele>2653.856934</ele>
</trkpt>
<trkpt lat="-7.946391470" lon="112.469609060">
  <ele>2653.375977</ele>
</trkpt>
<trkpt lat="-7.946391550" lon="112.469347880">
  <ele>2651.453613</ele>
</trkpt>
<trkpt lat="-7.946505970" lon="112.469209410">
  <ele>2660.105469</ele>
</trkpt>
<trkpt lat="-7.946789110" lon="112.469166830">
  <ele>2656.260254</ele>
</trkpt>
<trkpt lat="-7.947282130" lon="112.468911770">
  <ele>2665.873047</ele>
</trkpt>
<trkpt lat="-7.947444570" lon="112.468940190">
  <ele>2662.989258</ele>
</trkpt>
<trkpt lat="-7.947599970" lon="112.468855110">
  <ele>2663.950684</ele>
</trkpt>
<trkpt lat="-7.947670970" lon="112.468586140">
  <ele>2665.392578</ele>
</trkpt>
<trkpt lat="-7.947933070" lon="112.468725110">
  <ele>2666.834473</ele>
</trkpt>
<trkpt lat="-7.949231010" lon="112.468289080">
  <ele>2675.005371</ele>
</trkpt>
<trkpt lat="-7.949987980" lon="112.468295540">
  <ele>2677.409180</ele>
</trkpt>
<trkpt lat="-7.950253680" lon="112.468254300">
  <ele>2676.928711</ele>
</trkpt>
<trkpt lat="-7.950394080" lon="112.468178190">
  <ele>2676.928711</ele>
</trkpt>
<trkpt lat="-7.950651910" lon="112.468284970">
  <ele>2678.851074</ele>
</trkpt>
<trkpt lat="-7.950788200" lon="112.468376250">
  <ele>2672.121582</ele>
</trkpt>
<trkpt lat="-7.950810660" lon="112.468318080">
  <ele>2684.138184</ele>
</trkpt>
<trkpt lat="-7.950729940" lon="112.467966550">
  <ele>2683.657715</ele>
</trkpt>
<trkpt lat="-7.950876460" lon="112.467855990">
  <ele>2686.541504</ele>
</trkpt>
<trkpt lat="-7.951024820" lon="112.467843080">
  <ele>2689.906250</ele>
</trkpt>
<trkpt lat="-7.951529910" lon="112.467568150">
  <ele>2701.922363</ele>
</trkpt>
<trkpt lat="-7.953916660" lon="112.467387940">
  <ele>2712.978027</ele>
</trkpt>
<trkpt lat="-7.954077340" lon="112.467385260">
  <ele>2712.978027</ele>
</trkpt>
<trkpt lat="-7.954196860" lon="112.467466060">
  <ele>2716.823242</ele>
</trkpt>
<trkpt lat="-7.954442290" lon="112.467446450">
  <ele>2721.629883</ele>
</trkpt>
<trkpt lat="-7.954732220" lon="112.467646780">
  <ele>2721.148926</ele>
</trkpt>
<trkpt lat="-7.954895830" lon="112.468156560">
  <ele>2725.955566</ele>
</trkpt>
<trkpt lat="-7.955298000" lon="112.468600130">
  <ele>2723.071777</ele>
</trkpt>
<trkpt lat="-7.954983000" lon="112.468331410">
  <ele>2727.877930</ele>
</trkpt>
<trkpt lat="-7.954696430" lon="112.467658590">
  <ele>2724.994141</ele>
</trkpt>
<trkpt lat="-7.954506320" lon="112.467376960">
  <ele>2734.126465</ele>
</trkpt>
<trkpt lat="-7.954111030" lon="112.467343270">
  <ele>2738.452637</ele>
</trkpt>
<trkpt lat="-7.953945410" lon="112.467268000">
  <ele>2726.916992</ele>
</trkpt>
<trkpt lat="-7.953738540" lon="112.467418030">
  <ele>2717.303711</ele>
</trkpt>
<trkpt lat="-7.952632738" lon="112.467457603">
  <ele>2706.729004</ele>
</trkpt>
<trkpt lat="-7.951562261" lon="112.467601823">
  <ele>2706.729004</ele>
</trkpt>
<trkpt lat="-7.950981358" lon="112.467878390">
  <ele>2706.729004</ele>
</trkpt>
<trkpt lat="-7.950804906" lon="112.467956822">
  <ele>2706.729004</ele>
</trkpt>
<trkpt lat="-7.950764987" lon="112.468235712">
  <ele>2706.729004</ele>
</trkpt>
<trkpt lat="-7.950770734" lon="112.468338215">
  <ele>2706.729004</ele>
</trkpt>
<trkpt lat="-7.950537410" lon="112.468295620">
  <ele>2695.673828</ele>
</trkpt>
<trkpt lat="-7.950328450" lon="112.468101410">
  <ele>2674.043945</ele>
</trkpt>
<trkpt lat="-7.950231130" lon="112.468185980">
  <ele>2675.005371</ele>
</trkpt>
<trkpt lat="-7.949961410" lon="112.468257400">
  <ele>2672.602051</ele>
</trkpt>
<trkpt lat="-7.949299320" lon="112.468269550">
  <ele>2672.121582</ele>
</trkpt>
<trkpt lat="-7.947969030" lon="112.468733570">
  <ele>2672.121582</ele>
</trkpt>
<trkpt lat="-7.947906500" lon="112.468853430">
  <ele>2675.005371</ele>
</trkpt>
<trkpt lat="-7.947501230" lon="112.468861730">
  <ele>2674.524902</ele>
</trkpt>
<trkpt lat="-7.946808890" lon="112.469015620">
  <ele>2670.679688</ele>
</trkpt>
<trkpt lat="-7.946769490" lon="112.469106400">
  <ele>2670.199219</ele>
</trkpt>
<trkpt lat="-7.946710820" lon="112.469085860">
  <ele>2657.221191</ele>
</trkpt>
<trkpt lat="-7.946425500" lon="112.469214610">
  <ele>2650.492188</ele>
</trkpt>
<trkpt lat="-7.946299100" lon="112.469705620">
  <ele>2645.205078</ele>
</trkpt>
<trkpt lat="-7.945879920" lon="112.469735630">
  <ele>2638.956055</ele>
</trkpt>
<trkpt lat="-7.945115910" lon="112.469495150">
  <ele>2639.437012</ele>
</trkpt>
<trkpt lat="-7.944715000" lon="112.469535300">
  <ele>2637.033691</ele>
</trkpt>
<trkpt lat="-7.944617360" lon="112.469583160">
  <ele>2628.381836</ele>
</trkpt>
<trkpt lat="-7.944576700" lon="112.470136700">
  <ele>2602.906738</ele>
</trkpt>
<trkpt lat="-7.944457010" lon="112.470367210">
  <ele>2589.448486</ele>
</trkpt>
<trkpt lat="-7.944334300" lon="112.470460920">
  <ele>2584.161133</ele>
</trkpt>
<trkpt lat="-7.944342340" lon="112.470581360">
  <ele>2583.199707</ele>
</trkpt>
<trkpt lat="-7.944217790" lon="112.470706420">
  <ele>2579.354492</ele>
</trkpt>
<trkpt lat="-7.943163600" lon="112.471119150">
  <ele>2548.592285</ele>
</trkpt>
<trkpt lat="-7.942815160" lon="112.471363140">
  <ele>2540.421143</ele>
</trkpt>
<trkpt lat="-7.942762270" lon="112.471533460">
  <ele>2533.691895</ele>
</trkpt>
<trkpt lat="-7.942512990" lon="112.471717950">
  <ele>2526.962891</ele>
</trkpt>
<trkpt lat="-7.941340450" lon="112.472202420">
  <ele>2501.007080</ele>
</trkpt>
<trkpt lat="-7.941153030" lon="112.472192700">
  <ele>2488.990479</ele>
</trkpt>
<trkpt lat="-7.939941180" lon="112.472481540">
  <ele>2462.073730</ele>
</trkpt>
<trkpt lat="-7.939403810" lon="112.472769120">
  <ele>2449.095947</ele>
</trkpt>
<trkpt lat="-7.938871390" lon="112.473295760">
  <ele>2439.001953</ele>
</trkpt>
<trkpt lat="-7.938796120" lon="112.473436240">
  <ele>2435.637451</ele>
</trkpt>
<trkpt lat="-7.938477190" lon="112.473609240">
  <ele>2433.234131</ele>
</trkpt>
<trkpt lat="-7.938372590" lon="112.473552830">
  <ele>2428.427734</ele>
</trkpt>
<trkpt lat="-7.937565320" lon="112.473580490">
  <ele>2419.295166</ele>
</trkpt>
<trkpt lat="-7.937675550" lon="112.473594070">
  <ele>2419.295166</ele>
</trkpt>
<trkpt lat="-7.937414450" lon="112.473806550">
  <ele>2417.853027</ele>
</trkpt>
<trkpt lat="-7.937251670" lon="112.473791470">
  <ele>2414.488525</ele>
</trkpt>
<trkpt lat="-7.936888320" lon="112.473634640">
  <ele>2404.875244</ele>
</trkpt>
<trkpt lat="-7.936651190" lon="112.473921550">
  <ele>2400.549316</ele>
</trkpt>
<trkpt lat="-7.936453470" lon="112.474127410">
  <ele>2374.113037</ele>
</trkpt>
<trkpt lat="-7.936496130" lon="112.474028670">
  <ele>2368.345215</ele>
</trkpt>
<trkpt lat="-7.936189690" lon="112.474495960">
  <ele>2349.118896</ele>
</trkpt>
<trkpt lat="-7.935882660" lon="112.476015440">
  <ele>2309.704590</ele>
</trkpt>
<trkpt lat="-7.935443950" lon="112.476818170">
  <ele>2285.671875</ele>
</trkpt>
<trkpt lat="-7.935333310" lon="112.476994860">
  <ele>2276.058594</ele>
</trkpt>
<trkpt lat="-7.935189470" lon="112.477057310">
  <ele>2270.290771</ele>
</trkpt>
<trkpt lat="-7.934766770" lon="112.477486710">
  <ele>2250.583496</ele>
</trkpt>
<trkpt lat="-7.934836260" lon="112.477410180">
  <ele>2254.909668</ele>
</trkpt>
<trkpt lat="-7.934711120" lon="112.477429970">
  <ele>2256.351563</ele>
</trkpt>
<trkpt lat="-7.934546580" lon="112.477558290">
  <ele>2250.103027</ele>
</trkpt>
<trkpt lat="-7.933561290" lon="112.477975040">
  <ele>2234.241211</ele>
</trkpt>
<trkpt lat="-7.933402030" lon="112.478170510">
  <ele>2235.683105</ele>
</trkpt>
<trkpt lat="-7.933076730" lon="112.478396820">
  <ele>2233.279785</ele>
</trkpt>
<trkpt lat="-7.932713800" lon="112.478475020">
  <ele>2233.760498</ele>
</trkpt>
<trkpt lat="-7.931670840" lon="112.478764530">
  <ele>2220.782959</ele>
</trkpt>
<trkpt lat="-7.931234560" lon="112.479007690">
  <ele>2209.727539</ele>
</trkpt>
<trkpt lat="-7.930991980" lon="112.479010370">
  <ele>2209.727539</ele>
</trkpt>
<trkpt lat="-7.930102580" lon="112.479570790">
  <ele>2201.556396</ele>
</trkpt>
<trkpt lat="-7.929642410" lon="112.479733400">
  <ele>2199.633789</ele>
</trkpt>
<trkpt lat="-7.928968680" lon="112.480290790">
  <ele>2199.633789</ele>
</trkpt>
<trkpt lat="-7.928295360" lon="112.480502180">
  <ele>2191.462646</ele>
</trkpt>
<trkpt lat="-7.928008360" lon="112.480709640">
  <ele>2190.501221</ele>
</trkpt>
<trkpt lat="-7.927549700" lon="112.480859920">
  <ele>2187.136475</ele>
</trkpt>
<trkpt lat="-7.927458930" lon="112.480953050">
  <ele>2184.733398</ele>
</trkpt>
<trkpt lat="-7.927437970" lon="112.480895550">
  <ele>2164.064941</ele>
</trkpt>
<trkpt lat="-7.926667680" lon="112.481170390">
  <ele>2166.468262</ele>
</trkpt>
<trkpt lat="-7.923755550" lon="112.481482950">
  <ele>2138.109375</ele>
</trkpt>
<trkpt lat="-7.923355230" lon="112.480822960">
  <ele>2138.109375</ele>
</trkpt>
<trkpt lat="-7.922758440" lon="112.480877690">
  <ele>2102.059814</ele>
</trkpt>
<trkpt lat="-7.922859780" lon="112.480989510">
  <ele>2102.059814</ele>
</trkpt>
<trkpt lat="-7.921949170" lon="112.480887420">
  <ele>2099.656738</ele>
</trkpt>
<trkpt lat="-7.921749930" lon="112.480918350">
  <ele>2099.176025</ele>
</trkpt>
<trkpt lat="-7.921135620" lon="112.480750290">
  <ele>2099.176025</ele>
</trkpt>
<trkpt lat="-7.921147100" lon="112.480895970">
  <ele>2061.684814</ele>
</trkpt>
<trkpt lat="-7.920806550" lon="112.480999650">
  <ele>2063.126709</ele>
</trkpt>
<trkpt lat="-7.920392400" lon="112.480884150">
  <ele>2061.204102</ele>
</trkpt>
<trkpt lat="-7.919797620" lon="112.481094450">
  <ele>2059.761719</ele>
</trkpt>
<trkpt lat="-7.919711280" lon="112.481204170">
  <ele>2058.800537</ele>
</trkpt>
<trkpt lat="-7.919502490" lon="112.481211290">
  <ele>2053.994141</ele>
</trkpt>
<trkpt lat="-7.918667990" lon="112.481632820">
  <ele>2052.071289</ele>
</trkpt>
<trkpt lat="-7.917240970" lon="112.481737260">
  <ele>2049.187500</ele>
</trkpt>
<trkpt lat="-7.916918270" lon="112.481790820">
  <ele>2045.342285</ele>
</trkpt>
<trkpt lat="-7.916722380" lon="112.481903550">
  <ele>2052.552002</ele>
</trkpt>
<trkpt lat="-7.916484590" lon="112.481688310">
  <ele>2044.861572</ele>
</trkpt>
<trkpt lat="-7.911157130" lon="112.480204790">
  <ele>2030.922607</ele>
</trkpt>
<trkpt lat="-7.910946160" lon="112.480078730">
  <ele>2027.557617</ele>
</trkpt>
<trkpt lat="-7.911050600" lon="112.479724850">
  <ele>2027.557617</ele>
</trkpt>
<trkpt lat="-7.910909530" lon="112.479390580">
  <ele>2028.519287</ele>
</trkpt>
<trkpt lat="-7.909643530" lon="112.479912600">
  <ele>2019.386719</ele>
</trkpt>
<trkpt lat="-7.909426100" lon="112.479803390">
  <ele>1998.718262</ele>
</trkpt>
<trkpt lat="-7.908906840" lon="112.479998010">
  <ele>1979.010986</ele>
</trkpt>
<trkpt lat="-7.908595200" lon="112.480868390">
  <ele>1965.552979</ele>
</trkpt>
<trkpt lat="-7.908666870" lon="112.480947770">
  <ele>1964.110840</ele>
</trkpt>
<trkpt lat="-7.909059060" lon="112.481081210">
  <ele>1954.497559</ele>
</trkpt>
<trkpt lat="-7.908608870" lon="112.481822840">
  <ele>1947.287598</ele>
</trkpt>
<trkpt lat="-7.908551530" lon="112.482053670">
  <ele>1944.403564</ele>
</trkpt>
<trkpt lat="-7.908321200" lon="112.482306720">
  <ele>1942.481201</ele>
</trkpt>
<trkpt lat="-7.906611290" lon="112.483267790">
  <ele>1847.791260</ele>
</trkpt>
<trkpt lat="-7.906650020" lon="112.483481950">
  <ele>1890.089355</ele>
</trkpt>
<trkpt lat="-7.906387080" lon="112.483656460">
  <ele>1884.321533</ele>
</trkpt>
<trkpt lat="-7.906310550" lon="112.483875230">
  <ele>1879.995361</ele>
</trkpt>
<trkpt lat="-7.906386410" lon="112.483877910">
  <ele>1876.630859</ele>
</trkpt>
<trkpt lat="-7.906251120" lon="112.484123840">
  <ele>1876.630859</ele>
</trkpt>
<trkpt lat="-7.906172250" lon="112.484162980">
  <ele>1870.863037</ele>
</trkpt>
<trkpt lat="-7.906125900" lon="112.484299350">
  <ele>1851.636475</ele>
</trkpt>
<trkpt lat="-7.905845690" lon="112.484575040">
  <ele>1810.299805</ele>
</trkpt>
<trkpt lat="-7.905798080" lon="112.484788190">
  <ele>1798.283203</ele>
</trkpt>
<trkpt lat="-7.905541090" lon="112.485212980">
  <ele>1782.421631</ele>
</trkpt>
<trkpt lat="-7.905060140" lon="112.485691920">
  <ele>1744.449463</ele>
</trkpt>
<trkpt lat="-7.905030380" lon="112.485602070">
  <ele>1741.565674</ele>
</trkpt>
<trkpt lat="-7.904928040" lon="112.485794270">
  <ele>1733.875000</ele>
</trkpt>
<trkpt lat="-7.904908760" lon="112.486243620">
  <ele>1717.532471</ele>
</trkpt>
<trkpt lat="-7.905329280" lon="112.486809150">
  <ele>1711.764893</ele>
</trkpt>
<trkpt lat="-7.905360040" lon="112.487085750">
  <ele>1701.670898</ele>
</trkpt>
<trkpt lat="-7.905609990" lon="112.487426730">
  <ele>1699.748291</ele>
</trkpt>
<trkpt lat="-7.905549050" lon="112.487693940">
  <ele>1693.019043</ele>
</trkpt>
<trkpt lat="-7.905574620" lon="112.487876330">
  <ele>1693.499756</ele>
</trkpt>
<trkpt lat="-7.905735550" lon="112.488066850">
  <ele>1695.422363</ele>
</trkpt>
<trkpt lat="-7.905719370" lon="112.488391990">
  <ele>1694.941650</ele>
</trkpt>
<trkpt lat="-7.905621640" lon="112.488498180">
  <ele>1695.422363</ele>
</trkpt>
<trkpt lat="-7.904905830" lon="112.488713180">
  <ele>1696.383789</ele>
</trkpt>
<trkpt lat="-7.903866130" lon="112.488508330">
  <ele>1701.190186</ele>
</trkpt>
<trkpt lat="-7.903223160" lon="112.488680740">
  <ele>1697.825684</ele>
</trkpt>
<trkpt lat="-7.902459740" lon="112.488769420">
  <ele>1690.135010</ele>
</trkpt>
<trkpt lat="-7.901933020" lon="112.488684430">
  <ele>1690.135010</ele>
</trkpt>
<trkpt lat="-7.900650670" lon="112.488996320">
  <ele>1679.560547</ele>
</trkpt>
<trkpt lat="-7.899517520" lon="112.488897330">
  <ele>1661.295654</ele>
</trkpt>
<trkpt lat="-7.898940840" lon="112.489081730">
  <ele>1650.240479</ele>
</trkpt>
<trkpt lat="-7.898802120" lon="112.489193800">
  <ele>1647.356445</ele>
</trkpt>
<trkpt lat="-7.898593750" lon="112.489210310">
  <ele>1645.433838</ele>
</trkpt>
<trkpt lat="-7.898334250" lon="112.489152730">
  <ele>1644.953125</ele>
</trkpt>
<trkpt lat="-7.898050600" lon="112.489180390">
  <ele>1640.146484</ele>
</trkpt>
<trkpt lat="-7.897832420" lon="112.489066480">
  <ele>1622.842773</ele>
</trkpt>
<trkpt lat="-7.897637460" lon="112.489129170">
  <ele>1612.749023</ele>
</trkpt>
<trkpt lat="-7.897579540" lon="112.489368230">
  <ele>1613.229736</ele>
</trkpt>
<trkpt lat="-7.897638050" lon="112.489386670">
  <ele>1601.213135</ele>
</trkpt>
<trkpt lat="-7.897465960" lon="112.489504520">
  <ele>1597.848633</ele>
</trkpt>
<trkpt lat="-7.897228840" lon="112.489513320">
  <ele>1597.848633</ele>
</trkpt>
<trkpt lat="-7.896874620" lon="112.489406110">
  <ele>1597.848633</ele>
</trkpt>
<trkpt lat="-7.896674460" lon="112.489235880">
  <ele>1598.329102</ele>
</trkpt>
<trkpt lat="-7.896352350" lon="112.488761880">
  <ele>1572.373535</ele>
</trkpt>
<trkpt lat="-7.895898970" lon="112.488916440">
  <ele>1561.799072</ele>
</trkpt>
<trkpt lat="-7.895378280" lon="112.489491110">
  <ele>1554.589111</ele>
</trkpt>
<trkpt lat="-7.895300160" lon="112.489205030">
  <ele>1545.456543</ele>
</trkpt>
<trkpt lat="-7.894938230" lon="112.489447270">
  <ele>1542.572754</ele>
</trkpt>
<trkpt lat="-7.894555520" lon="112.489917410">
  <ele>1539.208008</ele>
</trkpt>
<trkpt lat="-7.894596080" lon="112.490063920">
  <ele>1538.246826</ele>
</trkpt>
<trkpt lat="-7.894779230" lon="112.490233490">
  <ele>1531.517334</ele>
</trkpt>
<trkpt lat="-7.894346890" lon="112.490794320">
  <ele>1517.097900</ele>
</trkpt>
<trkpt lat="-7.894202050" lon="112.490907650">
  <ele>1515.655762</ele>
</trkpt>
<trkpt lat="-7.893601820" lon="112.491035220">
  <ele>1508.445801</ele>
</trkpt>
<trkpt lat="-7.893471650" lon="112.491162120">
  <ele>1507.003906</ele>
</trkpt>
<trkpt lat="-7.893169490" lon="112.491189530">
  <ele>1506.523193</ele>
</trkpt>
<trkpt lat="-7.892807550" lon="112.491376360">
  <ele>1505.081299</ele>
</trkpt>
<trkpt lat="-7.892108670" lon="112.491489350">
  <ele>1489.700195</ele>
</trkpt>
<trkpt lat="-7.891852020" lon="112.491588930">
  <ele>1483.932129</ele>
</trkpt>
<trkpt lat="-7.891073000" lon="112.492306420">
  <ele>1471.915771</ele>
</trkpt>
<trkpt lat="-7.891052220" lon="112.492520830">
  <ele>1465.667236</ele>
</trkpt>
<trkpt lat="-7.890940820" lon="112.492748230">
  <ele>1462.783203</ele>
</trkpt>
<trkpt lat="-7.890449310" lon="112.492971610">
  <ele>1444.518066</ele>
</trkpt>
<trkpt lat="-7.890444440" lon="112.493051740">
  <ele>1443.076172</ele>
</trkpt>
<trkpt lat="-7.890571510" lon="112.493197750">
  <ele>1439.711670</ele>
</trkpt>
<trkpt lat="-7.890990940" lon="112.493431020">
  <ele>1432.982178</ele>
</trkpt>
<trkpt lat="-7.890942750" lon="112.493594210">
  <ele>1433.462891</ele>
</trkpt>
<trkpt lat="-7.890833200" lon="112.493636540">
  <ele>1433.462891</ele>
</trkpt>
<trkpt lat="-7.890750470" lon="112.493572000">
  <ele>1427.214600</ele>
</trkpt>
<trkpt lat="-7.890204390" lon="112.493617850">
  <ele>1423.849854</ele>
</trkpt>
<trkpt lat="-7.889919070" lon="112.493593960">
  <ele>1416.639893</ele>
</trkpt>
<trkpt lat="-7.889920490" lon="112.493657670">
  <ele>1414.236572</ele>
</trkpt>
<trkpt lat="-7.890222070" lon="112.493911550">
  <ele>1412.794678</ele>
</trkpt>
<trkpt lat="-7.890909390" lon="112.494208690">
  <ele>1410.391357</ele>
</trkpt>
<trkpt lat="-7.891098150" lon="112.494203580">
  <ele>1406.546143</ele>
</trkpt>
<trkpt lat="-7.891187420" lon="112.494040890">
  <ele>1405.104248</ele>
</trkpt>
<trkpt lat="-7.891567450" lon="112.493904430">
  <ele>1408.949463</ele>
</trkpt>
<trkpt lat="-7.891228570" lon="112.494268620">
  <ele>1404.623535</ele>
</trkpt>
<trkpt lat="-7.891100830" lon="112.494559390">
  <ele>1395.010254</ele>
</trkpt>
<trkpt lat="-7.890670340" lon="112.495084600">
  <ele>1380.590576</ele>
</trkpt>
<trkpt lat="-7.890681230" lon="112.495394480">
  <ele>1380.590576</ele>
</trkpt>
<trkpt lat="-7.890499930" lon="112.495610400">
  <ele>1380.109863</ele>
</trkpt>
<trkpt lat="-7.890148480" lon="112.495681060">
  <ele>1379.629150</ele>
</trkpt>
<trkpt lat="-7.890078660" lon="112.495554410">
  <ele>1365.209473</ele>
</trkpt>
</trkseg>
</trk>
</gpx>
