<?xml version="1.0" encoding="UTF-8"?>
<gpx
  version="1.0"
  creator="GPSBabel - http://www.gpsbabel.org"
  xmlns:xsi="http://www.w3.org/2001/XMLSchema-instance"
  xmlns="http://www.topografix.com/GPX/1/0"
  xsi:schemaLocation="http://www.topografix.com/GPX/1/0 http://www.topografix.com/GPX/1/0/gpx.xsd">
<time>2011-11-21T08:21:57Z</time>
<bounds minlat="-6.922599080" minlon="108.359172360" maxlat="-6.880973201" maxlon="108.463336988"/>
<wpt lat="-6.920826300" lon="108.359172360">
  <ele>4184.000000</ele>
  <name>Cibuluh Start</name>
  <cmt>Cibuluh Start</cmt>
  <desc>Cibuluh Start</desc>
</wpt>
<wpt lat="-6.898757090" lon="108.403271230">
  <ele>9632.000000</ele>
  <name>Campsite</name>
  <cmt>Campsite</cmt>
  <desc>Campsite</desc>
</wpt>
<wpt lat="-6.896849280" lon="108.404580900">
  <ele>10052.000000</ele>
  <name>Crater Rim</name>
  <cmt>Crater Rim</cmt>
  <desc>Crater Rim</desc>
</wpt>
<wpt lat="-6.893025210" lon="108.407004620">
  <ele>10139.000000</ele>
  <name>Summit</name>
  <cmt>Summit</cmt>
  <desc>Summit</desc>
</wpt>
<wpt lat="-6.894196080" lon="108.411853210">
  <ele>10005.000000</ele>
  <name>Decent to Linggarjati</name>
  <cmt>Decent to Linggarjati</cmt>
  <desc>Decent to Linggarjati</desc>
</wpt>
<wpt lat="-6.881595060" lon="108.463336450">
  <ele>2173.000000</ele>
  <name>Finish near Linggarjati</name>
  <cmt>Finish near Linggarjati</cmt>
  <desc>Finish near Linggarjati</desc>
</wpt>
<trk>
  <name>Day 1: Cibuluh  to Camp near crater rim</name>
<trkseg>
<trkpt lat="-6.920768550" lon="108.359269840">
  <ele>4218.830000</ele>
</trkpt>
<trkpt lat="-6.920687580" lon="108.359513930">
  <ele>4218.830000</ele>
</trkpt>
<trkpt lat="-6.920630670" lon="108.359770330">
  <ele>4217.260000</ele>
</trkpt>
<trkpt lat="-6.920630590" lon="108.360019690">
  <ele>4218.830000</ele>
</trkpt>
<trkpt lat="-6.920758080" lon="108.360228060">
  <ele>4228.300000</ele>
</trkpt>
<trkpt lat="-6.920860920" lon="108.360294110">
  <ele>4229.870000</ele>
</trkpt>
<trkpt lat="-6.920899980" lon="108.360328980">
  <ele>4229.870000</ele>
</trkpt>
<trkpt lat="-6.920971400" lon="108.360459660">
  <ele>4237.760000</ele>
</trkpt>
<trkpt lat="-6.921031830" lon="108.360627710">
  <ele>4236.180000</ele>
</trkpt>
<trkpt lat="-6.921116820" lon="108.360834410">
  <ele>4236.180000</ele>
</trkpt>
<trkpt lat="-6.921206000" lon="108.360928960">
  <ele>4244.070000</ele>
</trkpt>
<trkpt lat="-6.921396780" lon="108.360909260">
  <ele>4245.640000</ele>
</trkpt>
<trkpt lat="-6.921618730" lon="108.360867520">
  <ele>4248.800000</ele>
</trkpt>
<trkpt lat="-6.921690400" lon="108.360721090">
  <ele>4247.220000</ele>
</trkpt>
<trkpt lat="-6.921676820" lon="108.360649170">
  <ele>4247.220000</ele>
</trkpt>
<trkpt lat="-6.921634660" lon="108.360406850">
  <ele>4262.990000</ele>
</trkpt>
<trkpt lat="-6.921623090" lon="108.360374330">
  <ele>4261.410000</ele>
</trkpt>
<trkpt lat="-6.921597100" lon="108.360104600">
  <ele>4256.680000</ele>
</trkpt>
<trkpt lat="-6.921515460" lon="108.359870160">
  <ele>4256.680000</ele>
</trkpt>
<trkpt lat="-6.921384163" lon="108.359688371">
  <ele>4275.600000</ele>
</trkpt>
<trkpt lat="-6.921341484" lon="108.359615041">
  <ele>4285.070000</ele>
</trkpt>
<trkpt lat="-6.921380629" lon="108.359569955">
  <ele>4277.180000</ele>
</trkpt>
<trkpt lat="-6.921505740" lon="108.359619540">
  <ele>4305.570000</ele>
</trkpt>
<trkpt lat="-6.921517730" lon="108.359628420">
  <ele>4305.570000</ele>
</trkpt>
<trkpt lat="-6.921601040" lon="108.359660440">
  <ele>4305.570000</ele>
</trkpt>
<trkpt lat="-6.921648490" lon="108.359712660">
  <ele>4316.610000</ele>
</trkpt>
<trkpt lat="-6.921786030" lon="108.359844510">
  <ele>4349.720000</ele>
</trkpt>
<trkpt lat="-6.921901120" lon="108.360002590">
  <ele>4363.920000</ele>
</trkpt>
<trkpt lat="-6.921966910" lon="108.360085660">
  <ele>4348.150000</ele>
</trkpt>
<trkpt lat="-6.922131335" lon="108.360014049">
  <ele>4354.450000</ele>
</trkpt>
<trkpt lat="-6.922276120" lon="108.360014410">
  <ele>4363.920000</ele>
</trkpt>
<trkpt lat="-6.922388360" lon="108.360019690">
  <ele>4370.220000</ele>
</trkpt>
<trkpt lat="-6.922462870" lon="108.360021110">
  <ele>4363.920000</ele>
</trkpt>
<trkpt lat="-6.922494550" lon="108.360059840">
  <ele>4370.220000</ele>
</trkpt>
<trkpt lat="-6.922497400" lon="108.360201910">
  <ele>4373.380000</ele>
</trkpt>
<trkpt lat="-6.922524140" lon="108.360352450">
  <ele>4382.840000</ele>
</trkpt>
<trkpt lat="-6.922541750" lon="108.360518500">
  <ele>4404.920000</ele>
</trkpt>
<trkpt lat="-6.922500420" lon="108.360629390">
  <ele>4404.920000</ele>
</trkpt>
<trkpt lat="-6.922511320" lon="108.360786210">
  <ele>4417.530000</ele>
</trkpt>
<trkpt lat="-6.922562780" lon="108.360876070">
  <ele>4417.530000</ele>
</trkpt>
<trkpt lat="-6.922561690" lon="108.361031640">
  <ele>4422.260000</ele>
</trkpt>
<trkpt lat="-6.922548950" lon="108.361129030">
  <ele>4428.570000</ele>
</trkpt>
<trkpt lat="-6.922541160" lon="108.361286870">
  <ele>4431.720000</ele>
</trkpt>
<trkpt lat="-6.922475440" lon="108.361411920">
  <ele>4442.760000</ele>
</trkpt>
<trkpt lat="-6.922468490" lon="108.361502950">
  <ele>4445.920000</ele>
</trkpt>
<trkpt lat="-6.922443170" lon="108.361553160">
  <ele>4450.650000</ele>
</trkpt>
<trkpt lat="-6.922452560" lon="108.361703950">
  <ele>4458.530000</ele>
</trkpt>
<trkpt lat="-6.922436380" lon="108.361798920">
  <ele>4460.110000</ele>
</trkpt>
<trkpt lat="-6.922385340" lon="108.361900170">
  <ele>4464.840000</ele>
</trkpt>
<trkpt lat="-6.922336640" lon="108.361994210">
  <ele>4472.730000</ele>
</trkpt>
<trkpt lat="-6.922298420" lon="108.362111730">
  <ele>4477.460000</ele>
</trkpt>
<trkpt lat="-6.922257430" lon="108.362240060">
  <ele>4479.030000</ele>
</trkpt>
<trkpt lat="-6.922232700" lon="108.362319100">
  <ele>4480.610000</ele>
</trkpt>
<trkpt lat="-6.922179230" lon="108.362427560">
  <ele>4485.340000</ele>
</trkpt>
<trkpt lat="-6.922145450" lon="108.362532920">
  <ele>4490.070000</ele>
</trkpt>
<trkpt lat="-6.922150810" lon="108.362644820">
  <ele>4494.800000</ele>
</trkpt>
<trkpt lat="-6.922180650" lon="108.362732490">
  <ele>4509.000000</ele>
</trkpt>
<trkpt lat="-6.922144020" lon="108.362837430">
  <ele>4518.460000</ele>
</trkpt>
<trkpt lat="-6.922119720" lon="108.362868780">
  <ele>4520.030000</ele>
</trkpt>
<trkpt lat="-6.922042520" lon="108.362952350">
  <ele>4524.770000</ele>
</trkpt>
<trkpt lat="-6.921979910" lon="108.363099200">
  <ele>4527.920000</ele>
</trkpt>
<trkpt lat="-6.921971860" lon="108.363188970">
  <ele>4524.770000</ele>
</trkpt>
<trkpt lat="-6.922000110" lon="108.363344290">
  <ele>4537.380000</ele>
</trkpt>
<trkpt lat="-6.922010580" lon="108.363487950">
  <ele>4540.540000</ele>
</trkpt>
<trkpt lat="-6.921998930" lon="108.363597590">
  <ele>4542.110000</ele>
</trkpt>
<trkpt lat="-6.921943860" lon="108.363620140">
  <ele>4546.840000</ele>
</trkpt>
<trkpt lat="-6.921763650" lon="108.363669760">
  <ele>4543.690000</ele>
</trkpt>
<trkpt lat="-6.921752760" lon="108.363785430">
  <ele>4550.000000</ele>
</trkpt>
<trkpt lat="-6.921798610" lon="108.363952060">
  <ele>4551.570000</ele>
</trkpt>
<trkpt lat="-6.921811090" lon="108.364068990">
  <ele>4557.880000</ele>
</trkpt>
<trkpt lat="-6.921811770" lon="108.364085000">
  <ele>4561.040000</ele>
</trkpt>
<trkpt lat="-6.921819390" lon="108.364101340">
  <ele>4561.040000</ele>
</trkpt>
<trkpt lat="-6.921845630" lon="108.364234030">
  <ele>4564.190000</ele>
</trkpt>
<trkpt lat="-6.921866830" lon="108.364343410">
  <ele>4576.810000</ele>
</trkpt>
<trkpt lat="-6.921914950" lon="108.364454720">
  <ele>4586.270000</ele>
</trkpt>
<trkpt lat="-6.922010670" lon="108.364545500">
  <ele>4589.420000</ele>
</trkpt>
<trkpt lat="-6.922119800" lon="108.364652870">
  <ele>4589.420000</ele>
</trkpt>
<trkpt lat="-6.922222900" lon="108.364782540">
  <ele>4594.150000</ele>
</trkpt>
<trkpt lat="-6.922229520" lon="108.364789910">
  <ele>4595.730000</ele>
</trkpt>
<trkpt lat="-6.922243600" lon="108.364813380">
  <ele>4597.310000</ele>
</trkpt>
<trkpt lat="-6.922253240" lon="108.364833250">
  <ele>4602.040000</ele>
</trkpt>
<trkpt lat="-6.922336390" lon="108.364941880">
  <ele>4609.920000</ele>
</trkpt>
<trkpt lat="-6.922387770" lon="108.365005830">
  <ele>4608.340000</ele>
</trkpt>
<trkpt lat="-6.922441160" lon="108.365140610">
  <ele>4617.810000</ele>
</trkpt>
<trkpt lat="-6.922530350" lon="108.365263070">
  <ele>4632.000000</ele>
</trkpt>
<trkpt lat="-6.922599080" lon="108.365378240">
  <ele>4638.310000</ele>
</trkpt>
<trkpt lat="-6.922595140" lon="108.365472870">
  <ele>4633.580000</ele>
</trkpt>
<trkpt lat="-6.922588010" lon="108.365635060">
  <ele>4638.310000</ele>
</trkpt>
<trkpt lat="-6.922582400" lon="108.365788950">
  <ele>4632.000000</ele>
</trkpt>
<trkpt lat="-6.922515840" lon="108.365850560">
  <ele>4643.040000</ele>
</trkpt>
<trkpt lat="-6.922525150" lon="108.365916440">
  <ele>4661.960000</ele>
</trkpt>
<trkpt lat="-6.922526570" lon="108.366000260">
  <ele>4669.850000</ele>
</trkpt>
<trkpt lat="-6.922504190" lon="108.366084750">
  <ele>4677.730000</ele>
</trkpt>
<trkpt lat="-6.922497990" lon="108.366198660">
  <ele>4684.040000</ele>
</trkpt>
<trkpt lat="-6.922470160" lon="108.366276280">
  <ele>4687.190000</ele>
</trkpt>
<trkpt lat="-6.922448200" lon="108.366380630">
  <ele>4699.810000</ele>
</trkpt>
<trkpt lat="-6.922444430" lon="108.366484650">
  <ele>4707.690000</ele>
</trkpt>
<trkpt lat="-6.922426240" lon="108.366584900">
  <ele>4714.000000</ele>
</trkpt>
<trkpt lat="-6.922404700" lon="108.366675930">
  <ele>4718.730000</ele>
</trkpt>
<trkpt lat="-6.922371420" lon="108.366730910">
  <ele>4725.040000</ele>
</trkpt>
<trkpt lat="-6.922361200" lon="108.366813640">
  <ele>4723.460000</ele>
</trkpt>
<trkpt lat="-6.922307640" lon="108.366902740">
  <ele>4734.500000</ele>
</trkpt>
<trkpt lat="-6.922298590" lon="108.367125450">
  <ele>4747.120000</ele>
</trkpt>
<trkpt lat="-6.922299260" lon="108.367296940">
  <ele>4755.000000</ele>
</trkpt>
<trkpt lat="-6.922328760" lon="108.367486620">
  <ele>4756.580000</ele>
</trkpt>
<trkpt lat="-6.922374950" lon="108.367672530">
  <ele>4766.040000</ele>
</trkpt>
<trkpt lat="-6.922335300" lon="108.367790550">
  <ele>4783.390000</ele>
</trkpt>
<trkpt lat="-6.922272520" lon="108.367967490">
  <ele>4788.120000</ele>
</trkpt>
<trkpt lat="-6.922248970" lon="108.368206800">
  <ele>4797.580000</ele>
</trkpt>
<trkpt lat="-6.922173280" lon="108.368394970">
  <ele>4810.200000</ele>
</trkpt>
<trkpt lat="-6.922031200" lon="108.368474430">
  <ele>4830.700000</ele>
</trkpt>
<trkpt lat="-6.921855940" lon="108.368640480">
  <ele>4829.120000</ele>
</trkpt>
<trkpt lat="-6.921810760" lon="108.368910790">
  <ele>4825.970000</ele>
</trkpt>
<trkpt lat="-6.921782340" lon="108.369058900">
  <ele>4822.810000</ele>
</trkpt>
<trkpt lat="-6.921791730" lon="108.369191340">
  <ele>4837.000000</ele>
</trkpt>
<trkpt lat="-6.921766750" lon="108.369426780">
  <ele>4843.310000</ele>
</trkpt>
<trkpt lat="-6.921758290" lon="108.369478500">
  <ele>4851.200000</ele>
</trkpt>
<trkpt lat="-6.921674800" lon="108.369590400">
  <ele>4866.970000</ele>
</trkpt>
<trkpt lat="-6.921578410" lon="108.369722580">
  <ele>4860.660000</ele>
</trkpt>
<trkpt lat="-6.921616970" lon="108.369892400">
  <ele>4866.970000</ele>
</trkpt>
<trkpt lat="-6.921553600" lon="108.370030360">
  <ele>4873.280000</ele>
</trkpt>
<trkpt lat="-6.921481430" lon="108.370140170">
  <ele>4878.010000</ele>
</trkpt>
<trkpt lat="-6.921433740" lon="108.370297830">
  <ele>4878.010000</ele>
</trkpt>
<trkpt lat="-6.921426780" lon="108.370363540">
  <ele>4878.010000</ele>
</trkpt>
<trkpt lat="-6.921388140" lon="108.370421460">
  <ele>4887.470000</ele>
</trkpt>
<trkpt lat="-6.921320590" lon="108.370434870">
  <ele>4892.200000</ele>
</trkpt>
<trkpt lat="-6.921304320" lon="108.370434960">
  <ele>4890.620000</ele>
</trkpt>
<trkpt lat="-6.921165440" lon="108.370408140">
  <ele>4895.350000</ele>
</trkpt>
<trkpt lat="-6.921064020" lon="108.370408970">
  <ele>4892.200000</ele>
</trkpt>
<trkpt lat="-6.921089410" lon="108.370727490">
  <ele>4909.550000</ele>
</trkpt>
<trkpt lat="-6.921094860" lon="108.370921860">
  <ele>4920.580000</ele>
</trkpt>
<trkpt lat="-6.921104080" lon="108.371016490">
  <ele>4920.580000</ele>
</trkpt>
<trkpt lat="-6.921091420" lon="108.371177760">
  <ele>4925.320000</ele>
</trkpt>
<trkpt lat="-6.921082370" lon="108.371277840">
  <ele>4934.780000</ele>
</trkpt>
<trkpt lat="-6.921156220" lon="108.371404830">
  <ele>4944.240000</ele>
</trkpt>
<trkpt lat="-6.921201230" lon="108.371476830">
  <ele>4953.700000</ele>
</trkpt>
<trkpt lat="-6.921209440" lon="108.371529640">
  <ele>4953.700000</ele>
</trkpt>
<trkpt lat="-6.921112550" lon="108.371605410">
  <ele>4960.010000</ele>
</trkpt>
<trkpt lat="-6.921052110" lon="108.371666510">
  <ele>4958.430000</ele>
</trkpt>
<trkpt lat="-6.920989840" lon="108.371773880">
  <ele>4956.850000</ele>
</trkpt>
<trkpt lat="-6.920897630" lon="108.371921740">
  <ele>4969.470000</ele>
</trkpt>
<trkpt lat="-6.920900740" lon="108.372041770">
  <ele>4971.050000</ele>
</trkpt>
<trkpt lat="-6.920869470" lon="108.372142100">
  <ele>4978.930000</ele>
</trkpt>
<trkpt lat="-6.920860590" lon="108.372195240">
  <ele>4991.550000</ele>
</trkpt>
<trkpt lat="-6.920877940" lon="108.372264310">
  <ele>4997.860000</ele>
</trkpt>
<trkpt lat="-6.920848600" lon="108.372250060">
  <ele>4988.390000</ele>
</trkpt>
<trkpt lat="-6.920860000" lon="108.372349720">
  <ele>4999.430000</ele>
</trkpt>
<trkpt lat="-6.920860340" lon="108.372440830">
  <ele>5015.200000</ele>
</trkpt>
<trkpt lat="-6.920806940" lon="108.372485760">
  <ele>5018.360000</ele>
</trkpt>
<trkpt lat="-6.920677950" lon="108.372524230">
  <ele>5035.700000</ele>
</trkpt>
<trkpt lat="-6.920544340" lon="108.372554410">
  <ele>5042.010000</ele>
</trkpt>
<trkpt lat="-6.920422300" lon="108.372568320">
  <ele>5043.590000</ele>
</trkpt>
<trkpt lat="-6.920408220" lon="108.372577120">
  <ele>5043.590000</ele>
</trkpt>
<trkpt lat="-6.920348620" lon="108.372694220">
  <ele>5048.320000</ele>
</trkpt>
<trkpt lat="-6.920341750" lon="108.372812490">
  <ele>5056.200000</ele>
</trkpt>
<trkpt lat="-6.920310060" lon="108.372914490">
  <ele>5065.660000</ele>
</trkpt>
<trkpt lat="-6.920258260" lon="108.373002750">
  <ele>5073.550000</ele>
</trkpt>
<trkpt lat="-6.920202190" lon="108.373128480">
  <ele>5086.170000</ele>
</trkpt>
<trkpt lat="-6.920152730" lon="108.373266780">
  <ele>5087.740000</ele>
</trkpt>
<trkpt lat="-6.920140160" lon="108.373383800">
  <ele>5089.320000</ele>
</trkpt>
<trkpt lat="-6.920142430" lon="108.373474150">
  <ele>5087.740000</ele>
</trkpt>
<trkpt lat="-6.920115180" lon="108.373569790">
  <ele>5095.630000</ele>
</trkpt>
<trkpt lat="-6.920071260" lon="108.373643970">
  <ele>5100.360000</ele>
</trkpt>
<trkpt lat="-6.920024490" lon="108.373761320">
  <ele>5103.510000</ele>
</trkpt>
<trkpt lat="-6.919982000" lon="108.373890900">
  <ele>5109.820000</ele>
</trkpt>
<trkpt lat="-6.919883340" lon="108.374011270">
  <ele>5116.130000</ele>
</trkpt>
<trkpt lat="-6.919811590" lon="108.374138330">
  <ele>5116.130000</ele>
</trkpt>
<trkpt lat="-6.919812510" lon="108.374172950">
  <ele>5116.130000</ele>
</trkpt>
<trkpt lat="-6.919746720" lon="108.374305970">
  <ele>5111.400000</ele>
</trkpt>
<trkpt lat="-6.919682510" lon="108.374392310">
  <ele>5111.400000</ele>
</trkpt>
<trkpt lat="-6.919530630" lon="108.374529850">
  <ele>5117.700000</ele>
</trkpt>
<trkpt lat="-6.919402640" lon="108.374561200">
  <ele>5120.860000</ele>
</trkpt>
<trkpt lat="-6.919312620" lon="108.374611160">
  <ele>5120.860000</ele>
</trkpt>
<trkpt lat="-6.919190740" lon="108.374711070">
  <ele>5136.630000</ele>
</trkpt>
<trkpt lat="-6.919016230" lon="108.374810730">
  <ele>5135.050000</ele>
</trkpt>
<trkpt lat="-6.918839040" lon="108.374906620">
  <ele>5135.050000</ele>
</trkpt>
<trkpt lat="-6.918771150" lon="108.375099240">
  <ele>5131.900000</ele>
</trkpt>
<trkpt lat="-6.918867127" lon="108.375207150">
  <ele>5131.900000</ele>
</trkpt>
<trkpt lat="-6.918670644" lon="108.375343024">
  <ele>5130.320000</ele>
</trkpt>
<trkpt lat="-6.918558971" lon="108.375298667">
  <ele>5130.320000</ele>
</trkpt>
<trkpt lat="-6.918447440" lon="108.375223710">
  <ele>5141.360000</ele>
</trkpt>
<trkpt lat="-6.918257420" lon="108.375188420">
  <ele>5150.820000</ele>
</trkpt>
<trkpt lat="-6.918133700" lon="108.375131760">
  <ele>5163.440000</ele>
</trkpt>
<trkpt lat="-6.917951900" lon="108.374960430">
  <ele>5155.550000</ele>
</trkpt>
<trkpt lat="-6.917812340" lon="108.374735960">
  <ele>5158.710000</ele>
</trkpt>
<trkpt lat="-6.917629780" lon="108.374519880">
  <ele>5169.740000</ele>
</trkpt>
<trkpt lat="-6.917505390" lon="108.374352410">
  <ele>5174.480000</ele>
</trkpt>
<trkpt lat="-6.917358210" lon="108.374216290">
  <ele>5168.170000</ele>
</trkpt>
<trkpt lat="-6.917233230" lon="108.374086280">
  <ele>5179.210000</ele>
</trkpt>
<trkpt lat="-6.917103230" lon="108.373927190">
  <ele>5169.740000</ele>
</trkpt>
<trkpt lat="-6.916960240" lon="108.373744720">
  <ele>5182.360000</ele>
</trkpt>
<trkpt lat="-6.916826130" lon="108.373624860">
  <ele>5183.940000</ele>
</trkpt>
<trkpt lat="-6.916632080" lon="108.373482370">
  <ele>5188.670000</ele>
</trkpt>
<trkpt lat="-6.916461760" lon="108.373442550">
  <ele>5190.250000</ele>
</trkpt>
<trkpt lat="-6.916281800" lon="108.373414140">
  <ele>5194.980000</ele>
</trkpt>
<trkpt lat="-6.916149290" lon="108.373393020">
  <ele>5198.130000</ele>
</trkpt>
<trkpt lat="-6.916005790" lon="108.373375410">
  <ele>5188.670000</ele>
</trkpt>
<trkpt lat="-6.915869670" lon="108.373377760">
  <ele>5187.090000</ele>
</trkpt>
<trkpt lat="-6.915708570" lon="108.373427630">
  <ele>5194.980000</ele>
</trkpt>
<trkpt lat="-6.915552580" lon="108.373501480">
  <ele>5193.400000</ele>
</trkpt>
<trkpt lat="-6.915402460" lon="108.373583030">
  <ele>5191.820000</ele>
</trkpt>
<trkpt lat="-6.915268520" lon="108.373674820">
  <ele>5193.400000</ele>
</trkpt>
<trkpt lat="-6.915120070" lon="108.373797190">
  <ele>5198.130000</ele>
</trkpt>
<trkpt lat="-6.915031220" lon="108.373918900">
  <ele>5199.710000</ele>
</trkpt>
<trkpt lat="-6.914974730" lon="108.373999280">
  <ele>5201.280000</ele>
</trkpt>
<trkpt lat="-6.914893430" lon="108.374127020">
  <ele>5202.860000</ele>
</trkpt>
<trkpt lat="-6.914814800" lon="108.374288620">
  <ele>5209.170000</ele>
</trkpt>
<trkpt lat="-6.914779260" lon="108.374435310">
  <ele>5210.750000</ele>
</trkpt>
<trkpt lat="-6.914784380" lon="108.374559270">
  <ele>5209.170000</ele>
</trkpt>
<trkpt lat="-6.914815390" lon="108.374683490">
  <ele>5204.440000</ele>
</trkpt>
<trkpt lat="-6.914866520" lon="108.374816600">
  <ele>5202.860000</ele>
</trkpt>
<trkpt lat="-6.914899460" lon="108.374981050">
  <ele>5217.050000</ele>
</trkpt>
<trkpt lat="-6.914964840" lon="108.375160260">
  <ele>5221.780000</ele>
</trkpt>
<trkpt lat="-6.915062820" lon="108.375314400">
  <ele>5228.090000</ele>
</trkpt>
<trkpt lat="-6.915137670" lon="108.375412050">
  <ele>5232.820000</ele>
</trkpt>
<trkpt lat="-6.915245970" lon="108.375500650">
  <ele>5217.050000</ele>
</trkpt>
<trkpt lat="-6.915296090" lon="108.375569800">
  <ele>5220.210000</ele>
</trkpt>
<trkpt lat="-6.915320400" lon="108.375775820">
  <ele>5217.050000</ele>
</trkpt>
<trkpt lat="-6.915324090" lon="108.375875900">
  <ele>5218.630000</ele>
</trkpt>
<trkpt lat="-6.915346800" lon="108.376078830">
  <ele>5217.050000</ele>
</trkpt>
<trkpt lat="-6.915361140" lon="108.376175980">
  <ele>5220.210000</ele>
</trkpt>
<trkpt lat="-6.915319310" lon="108.376224420">
  <ele>5224.940000</ele>
</trkpt>
<trkpt lat="-6.915087970" lon="108.376284940">
  <ele>5229.670000</ele>
</trkpt>
<trkpt lat="-6.915074220" lon="108.376287200">
  <ele>5229.670000</ele>
</trkpt>
<trkpt lat="-6.914880690" lon="108.376282760">
  <ele>5235.980000</ele>
</trkpt>
<trkpt lat="-6.914721600" lon="108.376218810">
  <ele>5234.400000</ele>
</trkpt>
<trkpt lat="-6.914571310" lon="108.376098360">
  <ele>5226.510000</ele>
</trkpt>
<trkpt lat="-6.914419180" lon="108.375996100">
  <ele>5232.820000</ele>
</trkpt>
<trkpt lat="-6.914252800" lon="108.375886880">
  <ele>5218.630000</ele>
</trkpt>
<trkpt lat="-6.914146850" lon="108.375899460">
  <ele>5207.590000</ele>
</trkpt>
<trkpt lat="-6.914138800" lon="108.375925440">
  <ele>5206.010000</ele>
</trkpt>
<trkpt lat="-6.914118600" lon="108.376009090">
  <ele>5201.280000</ele>
</trkpt>
<trkpt lat="-6.914197390" lon="108.376084700">
  <ele>5209.170000</ele>
</trkpt>
<trkpt lat="-6.914234690" lon="108.376110850">
  <ele>5217.050000</ele>
</trkpt>
<trkpt lat="-6.914338460" lon="108.376203130">
  <ele>5237.550000</ele>
</trkpt>
<trkpt lat="-6.914414400" lon="108.376277310">
  <ele>5253.320000</ele>
</trkpt>
<trkpt lat="-6.914529570" lon="108.376334230">
  <ele>5251.750000</ele>
</trkpt>
<trkpt lat="-6.914649180" lon="108.376471690">
  <ele>5253.320000</ele>
</trkpt>
<trkpt lat="-6.914750510" lon="108.376609910">
  <ele>5254.900000</ele>
</trkpt>
<trkpt lat="-6.914834250" lon="108.376755920">
  <ele>5264.360000</ele>
</trkpt>
<trkpt lat="-6.914815310" lon="108.376892960">
  <ele>5259.630000</ele>
</trkpt>
<trkpt lat="-6.914753530" lon="108.377009050">
  <ele>5272.250000</ele>
</trkpt>
<trkpt lat="-6.914660740" lon="108.377065210">
  <ele>5281.710000</ele>
</trkpt>
<trkpt lat="-6.914520430" lon="108.377165290">
  <ele>5303.790000</ele>
</trkpt>
<trkpt lat="-6.914438370" lon="108.377214830">
  <ele>5313.250000</ele>
</trkpt>
<trkpt lat="-6.914350780" lon="108.377376680">
  <ele>5321.130000</ele>
</trkpt>
<trkpt lat="-6.914265030" lon="108.377506180">
  <ele>5335.330000</ele>
</trkpt>
<trkpt lat="-6.914199910" lon="108.377571480">
  <ele>5332.170000</ele>
</trkpt>
<trkpt lat="-6.914165120" lon="108.377601650">
  <ele>5330.600000</ele>
</trkpt>
<trkpt lat="-6.914036120" lon="108.377639370">
  <ele>5324.290000</ele>
</trkpt>
<trkpt lat="-6.913903270" lon="108.377653030">
  <ele>5324.290000</ele>
</trkpt>
<trkpt lat="-6.913748290" lon="108.377679860">
  <ele>5324.290000</ele>
</trkpt>
<trkpt lat="-6.913646950" lon="108.377734510">
  <ele>5329.020000</ele>
</trkpt>
<trkpt lat="-6.913607890" lon="108.377823100">
  <ele>5338.480000</ele>
</trkpt>
<trkpt lat="-6.913639830" lon="108.377917820">
  <ele>5343.210000</ele>
</trkpt>
<trkpt lat="-6.913751480" lon="108.377969950">
  <ele>5340.060000</ele>
</trkpt>
<trkpt lat="-6.913828250" lon="108.378030470">
  <ele>5346.360000</ele>
</trkpt>
<trkpt lat="-6.913937810" lon="108.378121500">
  <ele>5347.940000</ele>
</trkpt>
<trkpt lat="-6.913974520" lon="108.378172290">
  <ele>5351.100000</ele>
</trkpt>
<trkpt lat="-6.914020450" lon="108.378275310">
  <ele>5358.980000</ele>
</trkpt>
<trkpt lat="-6.914062360" lon="108.378314620">
  <ele>5360.560000</ele>
</trkpt>
<trkpt lat="-6.914074680" lon="108.378335070">
  <ele>5354.250000</ele>
</trkpt>
<trkpt lat="-6.914086250" lon="108.378396930">
  <ele>5355.830000</ele>
</trkpt>
<trkpt lat="-6.914125480" lon="108.378476810">
  <ele>5362.130000</ele>
</trkpt>
<trkpt lat="-6.914087090" lon="108.378528020">
  <ele>5358.980000</ele>
</trkpt>
<trkpt lat="-6.914077700" lon="108.378563060">
  <ele>5366.870000</ele>
</trkpt>
<trkpt lat="-6.914048870" lon="108.378605890">
  <ele>5374.750000</ele>
</trkpt>
<trkpt lat="-6.913925150" lon="108.378815770">
  <ele>5377.900000</ele>
</trkpt>
<trkpt lat="-6.913836720" lon="108.378826000">
  <ele>5382.630000</ele>
</trkpt>
<trkpt lat="-6.913763130" lon="108.378835890">
  <ele>5388.940000</ele>
</trkpt>
<trkpt lat="-6.913747030" lon="108.378877300">
  <ele>5379.480000</ele>
</trkpt>
<trkpt lat="-6.913670090" lon="108.378924150">
  <ele>5377.900000</ele>
</trkpt>
<trkpt lat="-6.913563182" lon="108.378921890">
  <ele>5387.370000</ele>
</trkpt>
<trkpt lat="-6.913508243" lon="108.378924475">
  <ele>5387.370000</ele>
</trkpt>
<trkpt lat="-6.913359290" lon="108.378914760">
  <ele>5398.400000</ele>
</trkpt>
<trkpt lat="-6.913303380" lon="108.378833790">
  <ele>5401.560000</ele>
</trkpt>
<trkpt lat="-6.913187460" lon="108.378924070">
  <ele>5401.560000</ele>
</trkpt>
<trkpt lat="-6.913217970" lon="108.378957760">
  <ele>5401.560000</ele>
</trkpt>
<trkpt lat="-6.913330456" lon="108.379332841">
  <ele>5401.560000</ele>
</trkpt>
<trkpt lat="-6.913494845" lon="108.380329477">
  <ele>5401.560000</ele>
</trkpt>
<trkpt lat="-6.913373948" lon="108.383638134">
  <ele>5401.560000</ele>
</trkpt>
<trkpt lat="-6.913451609" lon="108.385391066">
  <ele>5401.560000</ele>
</trkpt>
<trkpt lat="-6.913398385" lon="108.386644358">
  <ele>5401.560000</ele>
</trkpt>
<trkpt lat="-6.913265307" lon="108.387712714">
  <ele>5401.560000</ele>
</trkpt>
<trkpt lat="-6.912953193" lon="108.388263322">
  <ele>5401.560000</ele>
</trkpt>
<trkpt lat="-6.912773372" lon="108.389442769">
  <ele>5401.560000</ele>
</trkpt>
<trkpt lat="-6.912499744" lon="108.390414641">
  <ele>5401.560000</ele>
</trkpt>
<trkpt lat="-6.912226286" lon="108.391256461">
  <ele>5401.560000</ele>
</trkpt>
<trkpt lat="-6.912223361" lon="108.391328104">
  <ele>5401.560000</ele>
</trkpt>
<trkpt lat="-6.912324649" lon="108.392561944">
  <ele>5401.560000</ele>
</trkpt>
<trkpt lat="-6.912350943" lon="108.393021252">
  <ele>5401.560000</ele>
</trkpt>
<trkpt lat="-6.912341970" lon="108.393244800">
  <ele>7103.100000</ele>
</trkpt>
<trkpt lat="-6.912341810" lon="108.393246810">
  <ele>7103.100000</ele>
</trkpt>
<trkpt lat="-6.912350690" lon="108.393564820">
  <ele>7103.100000</ele>
</trkpt>
<trkpt lat="-6.912170230" lon="108.393278410">
  <ele>7103.100000</ele>
</trkpt>
<trkpt lat="-6.912163020" lon="108.393364240">
  <ele>7092.070000</ele>
</trkpt>
<trkpt lat="-6.912136280" lon="108.393464820">
  <ele>7093.640000</ele>
</trkpt>
<trkpt lat="-6.912182550" lon="108.393596670">
  <ele>7106.260000</ele>
</trkpt>
<trkpt lat="-6.912157070" lon="108.393765230">
  <ele>7103.100000</ele>
</trkpt>
<trkpt lat="-6.912131090" lon="108.393820720">
  <ele>7110.990000</ele>
</trkpt>
<trkpt lat="-6.912118760" lon="108.393975530">
  <ele>7114.140000</ele>
</trkpt>
<trkpt lat="-6.912145250" lon="108.394186420">
  <ele>7112.570000</ele>
</trkpt>
<trkpt lat="-6.912114910" lon="108.394363780">
  <ele>7120.450000</ele>
</trkpt>
<trkpt lat="-6.911998820" lon="108.394511390">
  <ele>7137.800000</ele>
</trkpt>
<trkpt lat="-6.911900080" lon="108.394579370">
  <ele>7147.260000</ele>
</trkpt>
<trkpt lat="-6.911806620" lon="108.394644240">
  <ele>7172.490000</ele>
</trkpt>
<trkpt lat="-6.911727250" lon="108.394730990">
  <ele>7181.950000</ele>
</trkpt>
<trkpt lat="-6.911558350" lon="108.394983290">
  <ele>7186.680000</ele>
</trkpt>
<trkpt lat="-6.911366660" lon="108.395030560">
  <ele>7186.680000</ele>
</trkpt>
<trkpt lat="-6.911234890" lon="108.395072720">
  <ele>7207.180000</ele>
</trkpt>
<trkpt lat="-6.910956530" lon="108.395255530">
  <ele>7227.680000</ele>
</trkpt>
<trkpt lat="-6.910876650" lon="108.395314960">
  <ele>7230.840000</ele>
</trkpt>
<trkpt lat="-6.910783610" lon="108.395351090">
  <ele>7252.920000</ele>
</trkpt>
<trkpt lat="-6.910724850" lon="108.395458290">
  <ele>7273.420000</ele>
</trkpt>
<trkpt lat="-6.910670120" lon="108.395618810">
  <ele>7292.340000</ele>
</trkpt>
<trkpt lat="-6.910571300" lon="108.395693660">
  <ele>7328.610000</ele>
</trkpt>
<trkpt lat="-6.910459820" lon="108.395717710">
  <ele>7330.190000</ele>
</trkpt>
<trkpt lat="-6.910445150" lon="108.395873870">
  <ele>7328.610000</ele>
</trkpt>
<trkpt lat="-6.910353790" lon="108.396019630">
  <ele>7327.030000</ele>
</trkpt>
<trkpt lat="-6.910348420" lon="108.396226330">
  <ele>7368.040000</ele>
</trkpt>
<trkpt lat="-6.909975680" lon="108.396186850">
  <ele>7431.110000</ele>
</trkpt>
<trkpt lat="-6.909734530" lon="108.396231020">
  <ele>7427.960000</ele>
</trkpt>
<trkpt lat="-6.909539400" lon="108.396322800">
  <ele>7437.420000</ele>
</trkpt>
<trkpt lat="-6.909466560" lon="108.396396810">
  <ele>7437.420000</ele>
</trkpt>
<trkpt lat="-6.909408220" lon="108.396416340">
  <ele>7446.880000</ele>
</trkpt>
<trkpt lat="-6.909299340" lon="108.396346940">
  <ele>7467.380000</ele>
</trkpt>
<trkpt lat="-6.909120140" lon="108.396333030">
  <ele>7497.350000</ele>
</trkpt>
<trkpt lat="-6.909107650" lon="108.396312910">
  <ele>7519.420000</ele>
</trkpt>
<trkpt lat="-6.909128940" lon="108.396474770">
  <ele>7588.810000</ele>
</trkpt>
<trkpt lat="-6.909130620" lon="108.396534110">
  <ele>7591.960000</ele>
</trkpt>
<trkpt lat="-6.909081080" lon="108.396540400">
  <ele>7591.960000</ele>
</trkpt>
<trkpt lat="-6.909075880" lon="108.396549620">
  <ele>7595.120000</ele>
</trkpt>
<trkpt lat="-6.909040760" lon="108.396574930">
  <ele>7603.000000</ele>
</trkpt>
<trkpt lat="-6.908988210" lon="108.396610720">
  <ele>7604.580000</ele>
</trkpt>
<trkpt lat="-6.908874210" lon="108.396632090">
  <ele>7604.580000</ele>
</trkpt>
<trkpt lat="-6.908812610" lon="108.396644920">
  <ele>7617.200000</ele>
</trkpt>
<trkpt lat="-6.908744130" lon="108.396697140">
  <ele>7621.930000</ele>
</trkpt>
<trkpt lat="-6.908680680" lon="108.396728150">
  <ele>7631.390000</ele>
</trkpt>
<trkpt lat="-6.908599120" lon="108.396899730">
  <ele>7629.810000</ele>
</trkpt>
<trkpt lat="-6.908512620" lon="108.397005510">
  <ele>7650.310000</ele>
</trkpt>
<trkpt lat="-6.908408100" lon="108.397127210">
  <ele>7653.470000</ele>
</trkpt>
<trkpt lat="-6.908272480" lon="108.397161830">
  <ele>7656.620000</ele>
</trkpt>
<trkpt lat="-6.908117410" lon="108.397265430">
  <ele>7664.500000</ele>
</trkpt>
<trkpt lat="-6.908107020" lon="108.397336430">
  <ele>7694.470000</ele>
</trkpt>
<trkpt lat="-6.908098130" lon="108.397381940">
  <ele>7713.390000</ele>
</trkpt>
<trkpt lat="-6.907931250" lon="108.397462320">
  <ele>7762.280000</ele>
</trkpt>
<trkpt lat="-6.907852960" lon="108.397552510">
  <ele>7785.930000</ele>
</trkpt>
<trkpt lat="-6.907687000" lon="108.397631050">
  <ele>7787.510000</ele>
</trkpt>
<trkpt lat="-6.907567310" lon="108.397755770">
  <ele>7798.550000</ele>
</trkpt>
<trkpt lat="-6.907576440" lon="108.397839000">
  <ele>7803.280000</ele>
</trkpt>
<trkpt lat="-6.907532020" lon="108.397998510">
  <ele>7806.430000</ele>
</trkpt>
<trkpt lat="-6.907595390" lon="108.398087110">
  <ele>7812.740000</ele>
</trkpt>
<trkpt lat="-6.907488690" lon="108.398089290">
  <ele>7839.550000</ele>
</trkpt>
<trkpt lat="-6.907455330" lon="108.398195990">
  <ele>7858.470000</ele>
</trkpt>
<trkpt lat="-6.907327920" lon="108.398256840">
  <ele>7934.170000</ele>
</trkpt>
<trkpt lat="-6.907320040" lon="108.398258770">
  <ele>7949.940000</ele>
</trkpt>
<trkpt lat="-6.907255080" lon="108.398217610">
  <ele>7981.470000</ele>
</trkpt>
<trkpt lat="-6.907070340" lon="108.398271340">
  <ele>7984.630000</ele>
</trkpt>
<trkpt lat="-6.906980320" lon="108.398346030">
  <ele>8017.740000</ele>
</trkpt>
<trkpt lat="-6.906943440" lon="108.398431520">
  <ele>8017.740000</ele>
</trkpt>
<trkpt lat="-6.906914860" lon="108.398549540">
  <ele>8017.740000</ele>
</trkpt>
<trkpt lat="-6.906825010" lon="108.398595720">
  <ele>8022.480000</ele>
</trkpt>
<trkpt lat="-6.906668770" lon="108.398551970">
  <ele>8011.440000</ele>
</trkpt>
<trkpt lat="-6.906669440" lon="108.398570070">
  <ele>8033.510000</ele>
</trkpt>
<trkpt lat="-6.906684270" lon="108.398624980">
  <ele>8099.750000</ele>
</trkpt>
<trkpt lat="-6.906562320" lon="108.398701250">
  <ele>8167.560000</ele>
</trkpt>
<trkpt lat="-6.906562070" lon="108.398794370">
  <ele>8173.860000</ele>
</trkpt>
<trkpt lat="-6.906557790" lon="108.398929490">
  <ele>8191.210000</ele>
</trkpt>
<trkpt lat="-6.906473970" lon="108.398921440">
  <ele>8188.060000</ele>
</trkpt>
<trkpt lat="-6.906357300" lon="108.398741400">
  <ele>8189.630000</ele>
</trkpt>
<trkpt lat="-6.906169290" lon="108.398880790">
  <ele>8199.100000</ele>
</trkpt>
<trkpt lat="-6.905983040" lon="108.399211710">
  <ele>8199.100000</ele>
</trkpt>
<trkpt lat="-6.905820350" lon="108.399453270">
  <ele>8199.100000</ele>
</trkpt>
<trkpt lat="-6.905651040" lon="108.399526620">
  <ele>8206.980000</ele>
</trkpt>
<trkpt lat="-6.905550960" lon="108.399682860">
  <ele>8216.440000</ele>
</trkpt>
<trkpt lat="-6.905353400" lon="108.399839350">
  <ele>8230.640000</ele>
</trkpt>
<trkpt lat="-6.905130020" lon="108.399854850">
  <ele>8230.640000</ele>
</trkpt>
<trkpt lat="-6.904942100" lon="108.399760300">
  <ele>8273.210000</ele>
</trkpt>
<trkpt lat="-6.904931370" lon="108.399716380">
  <ele>8326.830000</ele>
</trkpt>
<trkpt lat="-6.904889040" lon="108.399703730">
  <ele>8388.330000</ele>
</trkpt>
<trkpt lat="-6.904786110" lon="108.399703890">
  <ele>8396.220000</ele>
</trkpt>
<trkpt lat="-6.904703880" lon="108.399729960">
  <ele>8389.910000</ele>
</trkpt>
<trkpt lat="-6.904575640" lon="108.399790480">
  <ele>8389.910000</ele>
</trkpt>
<trkpt lat="-6.904534400" lon="108.399846050">
  <ele>8394.640000</ele>
</trkpt>
<trkpt lat="-6.904482930" lon="108.399931380">
  <ele>8400.950000</ele>
</trkpt>
<trkpt lat="-6.904418140" lon="108.400019640">
  <ele>8407.260000</ele>
</trkpt>
<trkpt lat="-6.904323260" lon="108.400003460">
  <ele>8462.450000</ele>
</trkpt>
<trkpt lat="-6.904289150" lon="108.400031120">
  <ele>8465.600000</ele>
</trkpt>
<trkpt lat="-6.904239190" lon="108.400031210">
  <ele>8471.910000</ele>
</trkpt>
<trkpt lat="-6.904217650" lon="108.400030120">
  <ele>8482.950000</ele>
</trkpt>
<trkpt lat="-6.904138100" lon="108.400022660">
  <ele>8492.410000</ele>
</trkpt>
<trkpt lat="-6.904078760" lon="108.400012100">
  <ele>8498.720000</ele>
</trkpt>
<trkpt lat="-6.904020590" lon="108.400020060">
  <ele>8508.180000</ele>
</trkpt>
<trkpt lat="-6.903935850" lon="108.399996090">
  <ele>8511.330000</ele>
</trkpt>
<trkpt lat="-6.903874070" lon="108.400007910">
  <ele>8522.370000</ele>
</trkpt>
<trkpt lat="-6.903823530" lon="108.399989210">
  <ele>8536.570000</ele>
</trkpt>
<trkpt lat="-6.903764940" lon="108.399973290">
  <ele>8538.140000</ele>
</trkpt>
<trkpt lat="-6.903689760" lon="108.399972110">
  <ele>8550.760000</ele>
</trkpt>
<trkpt lat="-6.903663100" lon="108.399974210">
  <ele>8546.030000</ele>
</trkpt>
<trkpt lat="-6.903614900" lon="108.399950410">
  <ele>8564.950000</ele>
</trkpt>
<trkpt lat="-6.903550200" lon="108.399995670">
  <ele>8568.110000</ele>
</trkpt>
<trkpt lat="-6.903480290" lon="108.400040180">
  <ele>8568.110000</ele>
</trkpt>
<trkpt lat="-6.903419520" lon="108.400043440">
  <ele>8577.570000</ele>
</trkpt>
<trkpt lat="-6.903346350" lon="108.400067080">
  <ele>8587.030000</ele>
</trkpt>
<trkpt lat="-6.903296060" lon="108.400118800">
  <ele>8594.910000</ele>
</trkpt>
<trkpt lat="-6.903235710" lon="108.400151740">
  <ele>8598.070000</ele>
</trkpt>
<trkpt lat="-6.903186590" lon="108.400172440">
  <ele>8602.800000</ele>
</trkpt>
<trkpt lat="-6.903160350" lon="108.400177220">
  <ele>8612.260000</ele>
</trkpt>
<trkpt lat="-6.903106960" lon="108.400189120">
  <ele>8613.840000</ele>
</trkpt>
<trkpt lat="-6.903064380" lon="108.400185690">
  <ele>8621.720000</ele>
</trkpt>
<trkpt lat="-6.902996320" lon="108.400188790">
  <ele>8631.180000</ele>
</trkpt>
<trkpt lat="-6.902947450" lon="108.400188030">
  <ele>8640.650000</ele>
</trkpt>
<trkpt lat="-6.902913000" lon="108.400194070">
  <ele>8651.690000</ele>
</trkpt>
<trkpt lat="-6.902883080" lon="108.400189040">
  <ele>8667.450000</ele>
</trkpt>
<trkpt lat="-6.902848040" lon="108.400203620">
  <ele>8669.030000</ele>
</trkpt>
<trkpt lat="-6.902764640" lon="108.400263300">
  <ele>8675.340000</ele>
</trkpt>
<trkpt lat="-6.902743440" lon="108.400271850">
  <ele>8683.220000</ele>
</trkpt>
<trkpt lat="-6.902685690" lon="108.400310070">
  <ele>8681.650000</ele>
</trkpt>
<trkpt lat="-6.902650150" lon="108.400326500">
  <ele>8687.960000</ele>
</trkpt>
<trkpt lat="-6.902609830" lon="108.400323480">
  <ele>8692.690000</ele>
</trkpt>
<trkpt lat="-6.902575880" lon="108.400354750">
  <ele>8694.260000</ele>
</trkpt>
<trkpt lat="-6.902522070" lon="108.400351230">
  <ele>8697.420000</ele>
</trkpt>
<trkpt lat="-6.902490640" lon="108.400313010">
  <ele>8714.760000</ele>
</trkpt>
<trkpt lat="-6.902437580" lon="108.400348130">
  <ele>8716.340000</ele>
</trkpt>
<trkpt lat="-6.902356610" lon="108.400322140">
  <ele>8721.070000</ele>
</trkpt>
<trkpt lat="-6.902333480" lon="108.400326500">
  <ele>8732.110000</ele>
</trkpt>
<trkpt lat="-6.902307660" lon="108.400303620">
  <ele>8743.150000</ele>
</trkpt>
<trkpt lat="-6.902233900" lon="108.400330780">
  <ele>8746.300000</ele>
</trkpt>
<trkpt lat="-6.902214540" lon="108.400340920">
  <ele>8752.610000</ele>
</trkpt>
<trkpt lat="-6.902155780" lon="108.400336640">
  <ele>8766.800000</ele>
</trkpt>
<trkpt lat="-6.902084870" lon="108.400378470">
  <ele>8765.230000</ele>
</trkpt>
<trkpt lat="-6.902048580" lon="108.400385930">
  <ele>8776.260000</ele>
</trkpt>
<trkpt lat="-6.902023180" lon="108.400395570">
  <ele>8779.420000</ele>
</trkpt>
<trkpt lat="-6.901992250" lon="108.400380230">
  <ele>8795.190000</ele>
</trkpt>
<trkpt lat="-6.901968200" lon="108.400386350">
  <ele>8801.500000</ele>
</trkpt>
<trkpt lat="-6.901933910" lon="108.400404030">
  <ele>8812.540000</ele>
</trkpt>
<trkpt lat="-6.901867950" lon="108.400408310">
  <ele>8837.770000</ele>
</trkpt>
<trkpt lat="-6.901826630" lon="108.400469750">
  <ele>8834.610000</ele>
</trkpt>
<trkpt lat="-6.901805840" lon="108.400458940">
  <ele>8837.770000</ele>
</trkpt>
<trkpt lat="-6.901760580" lon="108.400468070">
  <ele>8837.770000</ele>
</trkpt>
<trkpt lat="-6.901722690" lon="108.400456000">
  <ele>8848.800000</ele>
</trkpt>
<trkpt lat="-6.901699980" lon="108.400449050">
  <ele>8853.540000</ele>
</trkpt>
<trkpt lat="-6.901682040" lon="108.400436300">
  <ele>8869.310000</ele>
</trkpt>
<trkpt lat="-6.901631240" lon="108.400483160">
  <ele>8872.460000</ele>
</trkpt>
<trkpt lat="-6.901601240" lon="108.400502270">
  <ele>8874.040000</ele>
</trkpt>
<trkpt lat="-6.901580780" lon="108.400502350">
  <ele>8880.340000</ele>
</trkpt>
<trkpt lat="-6.901580950" lon="108.400491960">
  <ele>8883.500000</ele>
</trkpt>
<trkpt lat="-6.901562010" lon="108.400534370">
  <ele>8870.880000</ele>
</trkpt>
<trkpt lat="-6.901553460" lon="108.400574440">
  <ele>8872.460000</ele>
</trkpt>
<trkpt lat="-6.901503750" lon="108.400567900">
  <ele>8877.190000</ele>
</trkpt>
<trkpt lat="-6.901451280" lon="108.400569330">
  <ele>8883.500000</ele>
</trkpt>
<trkpt lat="-6.901394620" lon="108.400618950">
  <ele>8889.810000</ele>
</trkpt>
<trkpt lat="-6.901363610" lon="108.400643920">
  <ele>8896.120000</ele>
</trkpt>
<trkpt lat="-6.901350620" lon="108.400612740">
  <ele>8916.620000</ele>
</trkpt>
<trkpt lat="-6.901320190" lon="108.400585840">
  <ele>8927.650000</ele>
</trkpt>
<trkpt lat="-6.901273420" lon="108.400603770">
  <ele>8945.000000</ele>
</trkpt>
<trkpt lat="-6.901238130" lon="108.400617610">
  <ele>8951.310000</ele>
</trkpt>
<trkpt lat="-6.901213150" lon="108.400627160">
  <ele>8956.040000</ele>
</trkpt>
<trkpt lat="-6.901177530" lon="108.400692040">
  <ele>8957.620000</ele>
</trkpt>
<trkpt lat="-6.901150040" lon="108.400800750">
  <ele>8946.580000</ele>
</trkpt>
<trkpt lat="-6.901131180" lon="108.400808130">
  <ele>8960.770000</ele>
</trkpt>
<trkpt lat="-6.901108800" lon="108.400829750">
  <ele>8965.500000</ele>
</trkpt>
<trkpt lat="-6.901082900" lon="108.400840140">
  <ele>8968.650000</ele>
</trkpt>
<trkpt lat="-6.901031940" lon="108.400863530">
  <ele>8971.810000</ele>
</trkpt>
<trkpt lat="-6.901021710" lon="108.400864700">
  <ele>8982.850000</ele>
</trkpt>
<trkpt lat="-6.900999750" lon="108.400892620">
  <ele>8995.460000</ele>
</trkpt>
<trkpt lat="-6.900984910" lon="108.400908040">
  <ele>9006.500000</ele>
</trkpt>
<trkpt lat="-6.900973100" lon="108.400921030">
  <ele>8992.310000</ele>
</trkpt>
<trkpt lat="-6.900925820" lon="108.400967130">
  <ele>9000.190000</ele>
</trkpt>
<trkpt lat="-6.900882740" lon="108.400987920">
  <ele>9001.770000</ele>
</trkpt>
<trkpt lat="-6.900865050" lon="108.400998140">
  <ele>9001.770000</ele>
</trkpt>
<trkpt lat="-6.900828090" lon="108.401003000">
  <ele>9008.080000</ele>
</trkpt>
<trkpt lat="-6.900780060" lon="108.401010210">
  <ele>9009.660000</ele>
</trkpt>
<trkpt lat="-6.900724070" lon="108.401021950">
  <ele>9028.580000</ele>
</trkpt>
<trkpt lat="-6.900671180" lon="108.401064190">
  <ele>9033.310000</ele>
</trkpt>
<trkpt lat="-6.900675290" lon="108.401051450">
  <ele>9049.080000</ele>
</trkpt>
<trkpt lat="-6.900646870" lon="108.401085820">
  <ele>9038.040000</ele>
</trkpt>
<trkpt lat="-6.900603870" lon="108.401122610">
  <ele>9049.080000</ele>
</trkpt>
<trkpt lat="-6.900582840" lon="108.401123370">
  <ele>9053.810000</ele>
</trkpt>
<trkpt lat="-6.900546710" lon="108.401099310">
  <ele>9064.850000</ele>
</trkpt>
<trkpt lat="-6.900516450" lon="108.401142900">
  <ele>9072.740000</ele>
</trkpt>
<trkpt lat="-6.900475380" lon="108.401183970">
  <ele>9083.770000</ele>
</trkpt>
<trkpt lat="-6.900468340" lon="108.401198220">
  <ele>9083.770000</ele>
</trkpt>
<trkpt lat="-6.900421150" lon="108.401247670">
  <ele>9090.080000</ele>
</trkpt>
<trkpt lat="-6.900368590" lon="108.401263350">
  <ele>9105.850000</ele>
</trkpt>
<trkpt lat="-6.900360550" lon="108.401280870">
  <ele>9109.010000</ele>
</trkpt>
<trkpt lat="-6.900350990" lon="108.401345660">
  <ele>9112.160000</ele>
</trkpt>
<trkpt lat="-6.900341020" lon="108.401393770">
  <ele>9118.470000</ele>
</trkpt>
<trkpt lat="-6.900335990" lon="108.401432410">
  <ele>9124.780000</ele>
</trkpt>
<trkpt lat="-6.900306650" lon="108.401434920">
  <ele>9124.780000</ele>
</trkpt>
<trkpt lat="-6.900273790" lon="108.401464430">
  <ele>9134.240000</ele>
</trkpt>
<trkpt lat="-6.900256110" lon="108.401472640">
  <ele>9134.240000</ele>
</trkpt>
<trkpt lat="-6.900253850" lon="108.401505840">
  <ele>9150.010000</ele>
</trkpt>
<trkpt lat="-6.900225260" lon="108.401519920">
  <ele>9148.430000</ele>
</trkpt>
<trkpt lat="-6.900160220" lon="108.401567780">
  <ele>9157.890000</ele>
</trkpt>
<trkpt lat="-6.900125100" lon="108.401581360">
  <ele>9167.350000</ele>
</trkpt>
<trkpt lat="-6.900088810" lon="108.401606250">
  <ele>9176.810000</ele>
</trkpt>
<trkpt lat="-6.900069020" lon="108.401646650">
  <ele>9183.120000</ele>
</trkpt>
<trkpt lat="-6.900039940" lon="108.401699460">
  <ele>9183.120000</ele>
</trkpt>
<trkpt lat="-6.900033990" lon="108.401743880">
  <ele>9194.160000</ele>
</trkpt>
<trkpt lat="-6.900019910" lon="108.401782190">
  <ele>9202.050000</ele>
</trkpt>
<trkpt lat="-6.900021920" lon="108.401780510">
  <ele>9209.930000</ele>
</trkpt>
<trkpt lat="-6.900004570" lon="108.401787470">
  <ele>9213.090000</ele>
</trkpt>
<trkpt lat="-6.899981940" lon="108.401858800">
  <ele>9227.280000</ele>
</trkpt>
<trkpt lat="-6.899978840" lon="108.401855700">
  <ele>9236.740000</ele>
</trkpt>
<trkpt lat="-6.899959310" lon="108.401847480">
  <ele>9244.630000</ele>
</trkpt>
<trkpt lat="-6.899931900" lon="108.401845390">
  <ele>9247.780000</ele>
</trkpt>
<trkpt lat="-6.899906670" lon="108.401860050">
  <ele>9252.510000</ele>
</trkpt>
<trkpt lat="-6.899902390" lon="108.401889480">
  <ele>9254.090000</ele>
</trkpt>
<trkpt lat="-6.899901550" lon="108.401883190">
  <ele>9263.550000</ele>
</trkpt>
<trkpt lat="-6.899871880" lon="108.401918980">
  <ele>9279.320000</ele>
</trkpt>
<trkpt lat="-6.899853440" lon="108.401926940">
  <ele>9284.050000</ele>
</trkpt>
<trkpt lat="-6.899839860" lon="108.401984020">
  <ele>9304.550000</ele>
</trkpt>
<trkpt lat="-6.899860990" lon="108.401976400">
  <ele>9312.430000</ele>
</trkpt>
<trkpt lat="-6.899850590" lon="108.402045880">
  <ele>9315.590000</ele>
</trkpt>
<trkpt lat="-6.899869540" lon="108.402103970">
  <ele>9318.740000</ele>
</trkpt>
<trkpt lat="-6.899866100" lon="108.402097770">
  <ele>9314.010000</ele>
</trkpt>
<trkpt lat="-6.899873060" lon="108.402111430">
  <ele>9315.590000</ele>
</trkpt>
<trkpt lat="-6.899861990" lon="108.402169770">
  <ele>9321.900000</ele>
</trkpt>
<trkpt lat="-6.899833070" lon="108.402188790">
  <ele>9329.780000</ele>
</trkpt>
<trkpt lat="-6.899819160" lon="108.402223490">
  <ele>9334.510000</ele>
</trkpt>
<trkpt lat="-6.899794850" lon="108.402206390">
  <ele>9325.050000</ele>
</trkpt>
<trkpt lat="-6.899749930" lon="108.402223160">
  <ele>9340.820000</ele>
</trkpt>
<trkpt lat="-6.899721930" lon="108.402251820">
  <ele>9348.700000</ele>
</trkpt>
<trkpt lat="-6.899702060" lon="108.402265820">
  <ele>9351.860000</ele>
</trkpt>
<trkpt lat="-6.899688230" lon="108.402267920">
  <ele>9358.170000</ele>
</trkpt>
<trkpt lat="-6.899670800" lon="108.402270180">
  <ele>9364.470000</ele>
</trkpt>
<trkpt lat="-6.899650940" lon="108.402266490">
  <ele>9366.050000</ele>
</trkpt>
<trkpt lat="-6.899618660" lon="108.402267580">
  <ele>9377.090000</ele>
</trkpt>
<trkpt lat="-6.899595530" lon="108.402273030">
  <ele>9381.820000</ele>
</trkpt>
<trkpt lat="-6.899575500" lon="108.402305050">
  <ele>9386.550000</ele>
</trkpt>
<trkpt lat="-6.899554040" lon="108.402312510">
  <ele>9388.130000</ele>
</trkpt>
<trkpt lat="-6.899521940" lon="108.402327680">
  <ele>9396.010000</ele>
</trkpt>
<trkpt lat="-6.899501570" lon="108.402329270">
  <ele>9400.740000</ele>
</trkpt>
<trkpt lat="-6.899484220" lon="108.402338910">
  <ele>9408.630000</ele>
</trkpt>
<trkpt lat="-6.899475080" lon="108.402322070">
  <ele>9408.630000</ele>
</trkpt>
<trkpt lat="-6.899440880" lon="108.402324750">
  <ele>9413.360000</ele>
</trkpt>
<trkpt lat="-6.899425800" lon="108.402358780">
  <ele>9422.820000</ele>
</trkpt>
<trkpt lat="-6.899386070" lon="108.402367160">
  <ele>9432.280000</ele>
</trkpt>
<trkpt lat="-6.899353960" lon="108.402368920">
  <ele>9438.590000</ele>
</trkpt>
<trkpt lat="-6.899311220" lon="108.402401780">
  <ele>9446.480000</ele>
</trkpt>
<trkpt lat="-6.899277350" lon="108.402426670">
  <ele>9454.360000</ele>
</trkpt>
<trkpt lat="-6.899259160" lon="108.402438070">
  <ele>9443.320000</ele>
</trkpt>
<trkpt lat="-6.899167720" lon="108.402465060">
  <ele>9435.440000</ele>
</trkpt>
<trkpt lat="-6.899129080" lon="108.402488700">
  <ele>9448.050000</ele>
</trkpt>
<trkpt lat="-6.899127990" lon="108.402484760">
  <ele>9454.360000</ele>
</trkpt>
<trkpt lat="-6.899105440" lon="108.402478390">
  <ele>9459.090000</ele>
</trkpt>
<trkpt lat="-6.899079460" lon="108.402464220">
  <ele>9470.130000</ele>
</trkpt>
<trkpt lat="-6.899084650" lon="108.402435050">
  <ele>9481.170000</ele>
</trkpt>
<trkpt lat="-6.899059680" lon="108.402456680">
  <ele>9492.210000</ele>
</trkpt>
<trkpt lat="-6.899022710" lon="108.402514260">
  <ele>9495.360000</ele>
</trkpt>
<trkpt lat="-6.898976280" lon="108.402536640">
  <ele>9501.670000</ele>
</trkpt>
<trkpt lat="-6.898940480" lon="108.402539160">
  <ele>9504.820000</ele>
</trkpt>
<trkpt lat="-6.898918520" lon="108.402542840">
  <ele>9515.860000</ele>
</trkpt>
<trkpt lat="-6.898885330" lon="108.402572100">
  <ele>9520.590000</ele>
</trkpt>
<trkpt lat="-6.898859520" lon="108.402581320">
  <ele>9526.900000</ele>
</trkpt>
<trkpt lat="-6.898859930" lon="108.402586680">
  <ele>9526.900000</ele>
</trkpt>
<trkpt lat="-6.898828590" lon="108.402593970">
  <ele>9530.050000</ele>
</trkpt>
<trkpt lat="-6.898795980" lon="108.402629680">
  <ele>9536.360000</ele>
</trkpt>
<trkpt lat="-6.898773020" lon="108.402653156">
  <ele>9536.360000</ele>
</trkpt>
<trkpt lat="-6.898764050" lon="108.402680480">
  <ele>9552.130000</ele>
</trkpt>
<trkpt lat="-6.898732610" lon="108.402714420">
  <ele>9555.290000</ele>
</trkpt>
<trkpt lat="-6.898728930" lon="108.402748620">
  <ele>9560.020000</ele>
</trkpt>
<trkpt lat="-6.898698420" lon="108.402764210">
  <ele>9572.630000</ele>
</trkpt>
<trkpt lat="-6.898684170" lon="108.402760940">
  <ele>9589.980000</ele>
</trkpt>
<trkpt lat="-6.898657680" lon="108.402788180">
  <ele>9601.020000</ele>
</trkpt>
<trkpt lat="-6.898629100" lon="108.402820450">
  <ele>9607.330000</ele>
</trkpt>
<trkpt lat="-6.898605380" lon="108.402847530">
  <ele>9602.600000</ele>
</trkpt>
<trkpt lat="-6.898577970" lon="108.402878790">
  <ele>9612.060000</ele>
</trkpt>
<trkpt lat="-6.898555500" lon="108.402888510">
  <ele>9621.520000</ele>
</trkpt>
<trkpt lat="-6.898538990" lon="108.402895640">
  <ele>9619.940000</ele>
</trkpt>
<trkpt lat="-6.898507310" lon="108.402912230">
  <ele>9626.250000</ele>
</trkpt>
<trkpt lat="-6.898477470" lon="108.402929670">
  <ele>9632.560000</ele>
</trkpt>
<trkpt lat="-6.898464390" lon="108.402970240">
  <ele>9638.870000</ele>
</trkpt>
<trkpt lat="-6.898438830" lon="108.403009380">
  <ele>9648.330000</ele>
</trkpt>
<trkpt lat="-6.898397090" lon="108.403022210">
  <ele>9654.640000</ele>
</trkpt>
<trkpt lat="-6.898412760" lon="108.403045760">
  <ele>9659.370000</ele>
</trkpt>
<trkpt lat="-6.898410660" lon="108.403063700">
  <ele>9665.670000</ele>
</trkpt>
<trkpt lat="-6.898379990" lon="108.403094960">
  <ele>9668.830000</ele>
</trkpt>
<trkpt lat="-6.898347720" lon="108.403113990">
  <ele>9676.710000</ele>
</trkpt>
<trkpt lat="-6.898315190" lon="108.403130160">
  <ele>9679.870000</ele>
</trkpt>
<trkpt lat="-6.898290470" lon="108.403174670">
  <ele>9683.020000</ele>
</trkpt>
<trkpt lat="-6.898280160" lon="108.403192270">
  <ele>9684.600000</ele>
</trkpt>
<trkpt lat="-6.898255350" lon="108.403205690">
  <ele>9684.600000</ele>
</trkpt>
<trkpt lat="-6.898202540" lon="108.403170820">
  <ele>9683.020000</ele>
</trkpt>
<trkpt lat="-6.898196840" lon="108.403108540">
  <ele>9667.250000</ele>
</trkpt>
<trkpt lat="-6.898174300" lon="108.403128740">
  <ele>9679.870000</ele>
</trkpt>
<trkpt lat="-6.898207740" lon="108.403209460">
  <ele>9697.210000</ele>
</trkpt>
<trkpt lat="-6.898262220" lon="108.403264190">
  <ele>9697.210000</ele>
</trkpt>
<trkpt lat="-6.898272200" lon="108.403244410">
  <ele>9689.330000</ele>
</trkpt>
<trkpt lat="-6.898311510" lon="108.403252200">
  <ele>9689.330000</ele>
</trkpt>
<trkpt lat="-6.898323160" lon="108.403238790">
  <ele>9681.440000</ele>
</trkpt>
<trkpt lat="-6.898355930" lon="108.403191860">
  <ele>9675.140000</ele>
</trkpt>
<trkpt lat="-6.898418120" lon="108.403173920">
  <ele>9673.560000</ele>
</trkpt>
<trkpt lat="-6.898448630" lon="108.403141400">
  <ele>9667.250000</ele>
</trkpt>
<trkpt lat="-6.898451400" lon="108.403140220">
  <ele>9660.940000</ele>
</trkpt>
<trkpt lat="-6.898492560" lon="108.403163860">
  <ele>9651.480000</ele>
</trkpt>
<trkpt lat="-6.898516860" lon="108.403150530">
  <ele>9648.330000</ele>
</trkpt>
<trkpt lat="-6.898541510" lon="108.403168970">
  <ele>9638.870000</ele>
</trkpt>
<trkpt lat="-6.898585430" lon="108.403181130">
  <ele>9635.710000</ele>
</trkpt>
<trkpt lat="-6.898656250" lon="108.403238880">
  <ele>9640.440000</ele>
</trkpt>
<trkpt lat="-6.898671430" lon="108.403305850">
  <ele>9624.670000</ele>
</trkpt>
<trkpt lat="-6.898673940" lon="108.403309370">
  <ele>9626.250000</ele>
</trkpt>
<trkpt lat="-6.898684170" lon="108.403315910">
  <ele>9626.250000</ele>
</trkpt>
<trkpt lat="-6.898702164" lon="108.403295917">
  <ele>9615.210000</ele>
</trkpt>
<trkpt lat="-6.898712250" lon="108.403295790">
  <ele>9608.900000</ele>
</trkpt>
<trkpt lat="-6.898734696" lon="108.403307307">
  <ele>9645.170000</ele>
</trkpt>
<trkpt lat="-6.898760020" lon="108.403268970">
  <ele>9629.400000</ele>
</trkpt>
<trkpt lat="-6.898756250" lon="108.403271650">
  <ele>9634.140000</ele>
</trkpt>
</trkseg>
</trk>
<trk>
  <name>Day 2: Camp and Around Crater</name>
<trkseg>
<trkpt lat="-6.898759893" lon="108.403270613">
  <ele>9638.870000</ele>
</trkpt>
<trkpt lat="-6.898733321" lon="108.403300828">
  <ele>9638.870000</ele>
</trkpt>
<trkpt lat="-6.898706906" lon="108.403298368">
  <ele>9638.870000</ele>
</trkpt>
<trkpt lat="-6.898686088" lon="108.403315315">
  <ele>9638.870000</ele>
</trkpt>
<trkpt lat="-6.898674115" lon="108.403308274">
  <ele>9638.870000</ele>
</trkpt>
<trkpt lat="-6.898658179" lon="108.403266013">
  <ele>9638.870000</ele>
</trkpt>
<trkpt lat="-6.898633553" lon="108.403211119">
  <ele>9638.870000</ele>
</trkpt>
<trkpt lat="-6.898554732" lon="108.403173553">
  <ele>9638.870000</ele>
</trkpt>
<trkpt lat="-6.898527454" lon="108.403165167">
  <ele>9638.870000</ele>
</trkpt>
<trkpt lat="-6.898511687" lon="108.403154767">
  <ele>9638.870000</ele>
</trkpt>
<trkpt lat="-6.898486849" lon="108.403160016">
  <ele>9638.870000</ele>
</trkpt>
<trkpt lat="-6.898450233" lon="108.403147000">
  <ele>9638.870000</ele>
</trkpt>
<trkpt lat="-6.898419935" lon="108.403174309">
  <ele>9638.870000</ele>
</trkpt>
<trkpt lat="-6.898352839" lon="108.403197263">
  <ele>9638.870000</ele>
</trkpt>
<trkpt lat="-6.898319663" lon="108.403247361">
  <ele>9638.870000</ele>
</trkpt>
<trkpt lat="-6.898273714" lon="108.403249578">
  <ele>9638.870000</ele>
</trkpt>
<trkpt lat="-6.898260119" lon="108.403271865">
  <ele>9638.870000</ele>
</trkpt>
<trkpt lat="-6.898216853" lon="108.403236504">
  <ele>9638.870000</ele>
</trkpt>
<trkpt lat="-6.898201450" lon="108.403231840">
  <ele>9648.330000</ele>
</trkpt>
<trkpt lat="-6.898131300" lon="108.403280030">
  <ele>9646.750000</ele>
</trkpt>
<trkpt lat="-6.898090060" lon="108.403263350">
  <ele>9651.480000</ele>
</trkpt>
<trkpt lat="-6.898035830" lon="108.403247180">
  <ele>9657.790000</ele>
</trkpt>
<trkpt lat="-6.897948820" lon="108.403254380">
  <ele>9657.790000</ele>
</trkpt>
<trkpt lat="-6.897948740" lon="108.403236200">
  <ele>9659.370000</ele>
</trkpt>
<trkpt lat="-6.897925350" lon="108.403295870">
  <ele>9659.370000</ele>
</trkpt>
<trkpt lat="-6.897894340" lon="108.403338960">
  <ele>9678.290000</ele>
</trkpt>
<trkpt lat="-6.897837930" lon="108.403396540">
  <ele>9695.640000</ele>
</trkpt>
<trkpt lat="-6.897789820" lon="108.403399220">
  <ele>9706.670000</ele>
</trkpt>
<trkpt lat="-6.897749500" lon="108.403425630">
  <ele>9728.750000</ele>
</trkpt>
<trkpt lat="-6.897691580" lon="108.403451950">
  <ele>9746.100000</ele>
</trkpt>
<trkpt lat="-6.897614550" lon="108.403478100">
  <ele>9747.680000</ele>
</trkpt>
<trkpt lat="-6.897588320" lon="108.403537440">
  <ele>9749.250000</ele>
</trkpt>
<trkpt lat="-6.897520340" lon="108.403526540">
  <ele>9757.140000</ele>
</trkpt>
<trkpt lat="-6.897504830" lon="108.403567530">
  <ele>9755.560000</ele>
</trkpt>
<trkpt lat="-6.897489660" lon="108.403591090">
  <ele>9779.220000</ele>
</trkpt>
<trkpt lat="-6.897492510" lon="108.403668450">
  <ele>9787.100000</ele>
</trkpt>
<trkpt lat="-6.897473320" lon="108.403701060">
  <ele>9787.100000</ele>
</trkpt>
<trkpt lat="-6.897423700" lon="108.403734580">
  <ele>9791.830000</ele>
</trkpt>
<trkpt lat="-6.897344490" lon="108.403868530">
  <ele>9801.290000</ele>
</trkpt>
<trkpt lat="-6.897293520" lon="108.403929880">
  <ele>9853.330000</ele>
</trkpt>
<trkpt lat="-6.897284470" lon="108.403941200">
  <ele>9869.100000</ele>
</trkpt>
<trkpt lat="-6.897240970" lon="108.403966510">
  <ele>9889.600000</ele>
</trkpt>
<trkpt lat="-6.897213390" lon="108.404015380">
  <ele>9888.030000</ele>
</trkpt>
<trkpt lat="-6.897080120" lon="108.404104730">
  <ele>9911.680000</ele>
</trkpt>
<trkpt lat="-6.897067630" lon="108.404092490">
  <ele>9910.100000</ele>
</trkpt>
<trkpt lat="-6.897016590" lon="108.404142110">
  <ele>9917.990000</ele>
</trkpt>
<trkpt lat="-6.897005350" lon="108.404138670">
  <ele>9925.870000</ele>
</trkpt>
<trkpt lat="-6.896946850" lon="108.404175720">
  <ele>9935.340000</ele>
</trkpt>
<trkpt lat="-6.896946260" lon="108.404236660">
  <ele>9941.640000</ele>
</trkpt>
<trkpt lat="-6.896937550" lon="108.404263730">
  <ele>9965.300000</ele>
</trkpt>
<trkpt lat="-6.896918770" lon="108.404271110">
  <ele>9973.180000</ele>
</trkpt>
<trkpt lat="-6.896911230" lon="108.404289210">
  <ele>9966.870000</ele>
</trkpt>
<trkpt lat="-6.896910890" lon="108.404289720">
  <ele>9960.570000</ele>
</trkpt>
<trkpt lat="-6.896878370" lon="108.404297090">
  <ele>9966.870000</ele>
</trkpt>
<trkpt lat="-6.896826570" lon="108.404279240">
  <ele>9984.220000</ele>
</trkpt>
<trkpt lat="-6.896818770" lon="108.404335060">
  <ele>9992.110000</ele>
</trkpt>
<trkpt lat="-6.896828250" lon="108.404359370">
  <ele>10009.450000</ele>
</trkpt>
<trkpt lat="-6.896798320" lon="108.404403460">
  <ele>10022.070000</ele>
</trkpt>
<trkpt lat="-6.896794470" lon="108.404419640">
  <ele>10029.950000</ele>
</trkpt>
<trkpt lat="-6.896835540" lon="108.404519630">
  <ele>10033.110000</ele>
</trkpt>
<trkpt lat="-6.896848030" lon="108.404580820">
  <ele>10053.610000</ele>
</trkpt>
<trkpt lat="-6.896930090" lon="108.404614770">
  <ele>10042.570000</ele>
</trkpt>
<trkpt lat="-6.897004010" lon="108.404636900">
  <ele>10039.420000</ele>
</trkpt>
<trkpt lat="-6.897044410" lon="108.404669840">
  <ele>10042.570000</ele>
</trkpt>
<trkpt lat="-6.897057660" lon="108.404678720">
  <ele>10047.300000</ele>
</trkpt>
<trkpt lat="-6.897120350" lon="108.404716770">
  <ele>10055.180000</ele>
</trkpt>
<trkpt lat="-6.897179610" lon="108.404780980">
  <ele>10059.920000</ele>
</trkpt>
<trkpt lat="-6.897266700" lon="108.404924650">
  <ele>10067.800000</ele>
</trkpt>
<trkpt lat="-6.897288330" lon="108.404950460">
  <ele>10070.950000</ele>
</trkpt>
<trkpt lat="-6.897350940" lon="108.405084570">
  <ele>10070.950000</ele>
</trkpt>
<trkpt lat="-6.897392350" lon="108.405108210">
  <ele>10064.650000</ele>
</trkpt>
<trkpt lat="-6.897473650" lon="108.405232930">
  <ele>10059.920000</ele>
</trkpt>
<trkpt lat="-6.897492680" lon="108.405277110">
  <ele>10063.070000</ele>
</trkpt>
<trkpt lat="-6.897503160" lon="108.405272750">
  <ele>10059.920000</ele>
</trkpt>
<trkpt lat="-6.897510700" lon="108.405282130">
  <ele>10059.920000</ele>
</trkpt>
<trkpt lat="-6.897592670" lon="108.405434770">
  <ele>10055.180000</ele>
</trkpt>
<trkpt lat="-6.897639870" lon="108.405561420">
  <ele>10058.340000</ele>
</trkpt>
<trkpt lat="-6.897662830" lon="108.405674830">
  <ele>10058.340000</ele>
</trkpt>
<trkpt lat="-6.897679340" lon="108.405823350">
  <ele>10055.180000</ele>
</trkpt>
<trkpt lat="-6.897683620" lon="108.405906330">
  <ele>10050.450000</ele>
</trkpt>
<trkpt lat="-6.897664340" lon="108.406079760">
  <ele>10037.840000</ele>
</trkpt>
<trkpt lat="-6.897654370" lon="108.406189480">
  <ele>10039.420000</ele>
</trkpt>
<trkpt lat="-6.897652520" lon="108.406247560">
  <ele>10034.680000</ele>
</trkpt>
<trkpt lat="-6.897647910" lon="108.406315200">
  <ele>10033.110000</ele>
</trkpt>
<trkpt lat="-6.897652020" lon="108.406448640">
  <ele>10033.110000</ele>
</trkpt>
<trkpt lat="-6.897649340" lon="108.406499860">
  <ele>10025.220000</ele>
</trkpt>
<trkpt lat="-6.897656380" lon="108.406572530">
  <ele>10015.760000</ele>
</trkpt>
<trkpt lat="-6.897661410" lon="108.406598180">
  <ele>10007.880000</ele>
</trkpt>
<trkpt lat="-6.897682360" lon="108.406687110">
  <ele>10004.720000</ele>
</trkpt>
<trkpt lat="-6.897677500" lon="108.406774700">
  <ele>10004.720000</ele>
</trkpt>
<trkpt lat="-6.897681360" lon="108.406848130">
  <ele>10004.720000</ele>
</trkpt>
<trkpt lat="-6.897694100" lon="108.406847290">
  <ele>10015.760000</ele>
</trkpt>
<trkpt lat="-6.897677840" lon="108.406750900">
  <ele>9993.680000</ele>
</trkpt>
<trkpt lat="-6.897646490" lon="108.406668500">
  <ele>9998.410000</ele>
</trkpt>
<trkpt lat="-6.897613630" lon="108.406583510">
  <ele>10022.070000</ele>
</trkpt>
<trkpt lat="-6.897640200" lon="108.406507400">
  <ele>9998.410000</ele>
</trkpt>
<trkpt lat="-6.897646990" lon="108.406467590">
  <ele>10022.070000</ele>
</trkpt>
<trkpt lat="-6.897671380" lon="108.406330040">
  <ele>10009.450000</ele>
</trkpt>
<trkpt lat="-6.897666020" lon="108.406222420">
  <ele>10003.140000</ele>
</trkpt>
<trkpt lat="-6.897713710" lon="108.406084280">
  <ele>9966.870000</ele>
</trkpt>
<trkpt lat="-6.897725360" lon="108.405975740">
  <ele>9976.340000</ele>
</trkpt>
<trkpt lat="-6.897734750" lon="108.405839700">
  <ele>9982.640000</ele>
</trkpt>
<trkpt lat="-6.897726200" lon="108.405819000">
  <ele>9993.680000</ele>
</trkpt>
<trkpt lat="-6.897692590" lon="108.405788900">
  <ele>10015.760000</ele>
</trkpt>
<trkpt lat="-6.897690160" lon="108.405718920">
  <ele>10006.300000</ele>
</trkpt>
<trkpt lat="-6.897657630" lon="108.405571650">
  <ele>10012.610000</ele>
</trkpt>
<trkpt lat="-6.897640120" lon="108.405523700">
  <ele>10025.220000</ele>
</trkpt>
<trkpt lat="-6.897622100" lon="108.405406270">
  <ele>9995.260000</ele>
</trkpt>
<trkpt lat="-6.897541290" lon="108.405299400">
  <ele>10011.030000</ele>
</trkpt>
<trkpt lat="-6.897467870" lon="108.405203600">
  <ele>10028.380000</ele>
</trkpt>
<trkpt lat="-6.897398550" lon="108.405079120">
  <ele>10042.570000</ele>
</trkpt>
<trkpt lat="-6.897440710" lon="108.405019950">
  <ele>10045.720000</ele>
</trkpt>
<trkpt lat="-6.897398300" lon="108.405030260">
  <ele>10053.610000</ele>
</trkpt>
<trkpt lat="-6.897340800" lon="108.404987510">
  <ele>10045.720000</ele>
</trkpt>
<trkpt lat="-6.897324200" lon="108.404994300">
  <ele>10039.420000</ele>
</trkpt>
<trkpt lat="-6.897245660" lon="108.404914080">
  <ele>10039.420000</ele>
</trkpt>
<trkpt lat="-6.897227480" lon="108.404858430">
  <ele>10036.260000</ele>
</trkpt>
<trkpt lat="-6.897202250" lon="108.404826070">
  <ele>10050.450000</ele>
</trkpt>
<trkpt lat="-6.897146760" lon="108.404757850">
  <ele>10058.340000</ele>
</trkpt>
<trkpt lat="-6.897080960" lon="108.404708560">
  <ele>10056.760000</ele>
</trkpt>
<trkpt lat="-6.897000240" lon="108.404618460">
  <ele>10056.760000</ele>
</trkpt>
<trkpt lat="-6.896993790" lon="108.404603540">
  <ele>10055.180000</ele>
</trkpt>
<trkpt lat="-6.896909210" lon="108.404598670">
  <ele>10063.070000</ele>
</trkpt>
<trkpt lat="-6.896828500" lon="108.404553750">
  <ele>10055.180000</ele>
</trkpt>
<trkpt lat="-6.896767480" lon="108.404507730">
  <ele>10055.180000</ele>
</trkpt>
<trkpt lat="-6.896725480" lon="108.404470180">
  <ele>10063.070000</ele>
</trkpt>
<trkpt lat="-6.896712160" lon="108.404435310">
  <ele>10067.800000</ele>
</trkpt>
<trkpt lat="-6.896684410" lon="108.404413010">
  <ele>10058.340000</ele>
</trkpt>
<trkpt lat="-6.896599420" lon="108.404363810">
  <ele>10066.220000</ele>
</trkpt>
<trkpt lat="-6.896579890" lon="108.404345290">
  <ele>10059.920000</ele>
</trkpt>
<trkpt lat="-6.896552480" lon="108.404324000">
  <ele>10058.340000</ele>
</trkpt>
<trkpt lat="-6.896472430" lon="108.404305310">
  <ele>10056.760000</ele>
</trkpt>
<trkpt lat="-6.896413930" lon="108.404288380">
  <ele>10058.340000</ele>
</trkpt>
<trkpt lat="-6.896398170" lon="108.404286780">
  <ele>10059.920000</ele>
</trkpt>
<trkpt lat="-6.896323990" lon="108.404272370">
  <ele>10059.920000</ele>
</trkpt>
<trkpt lat="-6.896235060" lon="108.404254760">
  <ele>10064.650000</ele>
</trkpt>
<trkpt lat="-6.896181670" lon="108.404254600">
  <ele>10066.220000</ele>
</trkpt>
<trkpt lat="-6.896051160" lon="108.404227860">
  <ele>10067.800000</ele>
</trkpt>
<trkpt lat="-6.895986370" lon="108.404224670">
  <ele>10069.380000</ele>
</trkpt>
<trkpt lat="-6.895913440" lon="108.404225760">
  <ele>10064.650000</ele>
</trkpt>
<trkpt lat="-6.895927780" lon="108.404225010">
  <ele>10061.490000</ele>
</trkpt>
<trkpt lat="-6.895908160" lon="108.404208240">
  <ele>10067.800000</ele>
</trkpt>
<trkpt lat="-6.895799870" lon="108.404223840">
  <ele>10077.260000</ele>
</trkpt>
<trkpt lat="-6.895791490" lon="108.404220480">
  <ele>10070.950000</ele>
</trkpt>
<trkpt lat="-6.895771460" lon="108.404207410">
  <ele>10061.490000</ele>
</trkpt>
<trkpt lat="-6.895804810" lon="108.404229790">
  <ele>10067.800000</ele>
</trkpt>
<trkpt lat="-6.895765920" lon="108.404189550">
  <ele>10066.220000</ele>
</trkpt>
<trkpt lat="-6.895699450" lon="108.404198690">
  <ele>10056.760000</ele>
</trkpt>
<trkpt lat="-6.895666430" lon="108.404185360">
  <ele>10058.340000</ele>
</trkpt>
<trkpt lat="-6.895633410" lon="108.404198350">
  <ele>10056.760000</ele>
</trkpt>
<trkpt lat="-6.895630050" lon="108.404199610">
  <ele>10056.760000</ele>
</trkpt>
<trkpt lat="-6.895525030" lon="108.404244960">
  <ele>10052.030000</ele>
</trkpt>
<trkpt lat="-6.895471470" lon="108.404278900">
  <ele>10048.880000</ele>
</trkpt>
<trkpt lat="-6.895386140" lon="108.404303630">
  <ele>10048.880000</ele>
</trkpt>
<trkpt lat="-6.895344980" lon="108.404328610">
  <ele>10055.180000</ele>
</trkpt>
<trkpt lat="-6.895312550" lon="108.404339090">
  <ele>10056.760000</ele>
</trkpt>
<trkpt lat="-6.895309030" lon="108.404287290">
  <ele>10039.420000</ele>
</trkpt>
<trkpt lat="-6.895272900" lon="108.404307820">
  <ele>10037.840000</ele>
</trkpt>
<trkpt lat="-6.895204750" lon="108.404367920">
  <ele>10033.110000</ele>
</trkpt>
<trkpt lat="-6.895097550" lon="108.404389460">
  <ele>10031.530000</ele>
</trkpt>
<trkpt lat="-6.895051450" lon="108.404431620">
  <ele>10028.380000</ele>
</trkpt>
<trkpt lat="-6.894918680" lon="108.404525670">
  <ele>10026.800000</ele>
</trkpt>
<trkpt lat="-6.894836200" lon="108.404578050">
  <ele>10020.490000</ele>
</trkpt>
<trkpt lat="-6.894773670" lon="108.404605880">
  <ele>10020.490000</ele>
</trkpt>
<trkpt lat="-6.894752220" lon="108.404635810">
  <ele>10020.490000</ele>
</trkpt>
<trkpt lat="-6.894763700" lon="108.404677720">
  <ele>10020.490000</ele>
</trkpt>
<trkpt lat="-6.894759260" lon="108.404689950">
  <ele>10020.490000</ele>
</trkpt>
<trkpt lat="-6.894710980" lon="108.404718540">
  <ele>10028.380000</ele>
</trkpt>
<trkpt lat="-6.894664710" lon="108.404735470">
  <ele>10034.680000</ele>
</trkpt>
<trkpt lat="-6.894599750" lon="108.404750050">
  <ele>10036.260000</ele>
</trkpt>
<trkpt lat="-6.894551640" lon="108.404771170">
  <ele>10048.880000</ele>
</trkpt>
<trkpt lat="-6.894511740" lon="108.404807470">
  <ele>10056.760000</ele>
</trkpt>
<trkpt lat="-6.894490110" lon="108.404842420">
  <ele>10066.220000</ele>
</trkpt>
<trkpt lat="-6.894488350" lon="108.404851140">
  <ele>10056.760000</ele>
</trkpt>
<trkpt lat="-6.894450800" lon="108.404984410">
  <ele>10061.490000</ele>
</trkpt>
<trkpt lat="-6.894418360" lon="108.404960860">
  <ele>10078.840000</ele>
</trkpt>
<trkpt lat="-6.894383240" lon="108.404950800">
  <ele>10085.150000</ele>
</trkpt>
<trkpt lat="-6.894375950" lon="108.404916180">
  <ele>10086.720000</ele>
</trkpt>
<trkpt lat="-6.894307720" lon="108.404968990">
  <ele>10097.760000</ele>
</trkpt>
<trkpt lat="-6.894283830" lon="108.404979040">
  <ele>10096.190000</ele>
</trkpt>
<trkpt lat="-6.894272940" lon="108.404988680">
  <ele>10096.190000</ele>
</trkpt>
<trkpt lat="-6.894229100" lon="108.405008050">
  <ele>10099.340000</ele>
</trkpt>
<trkpt lat="-6.894219040" lon="108.405006450">
  <ele>10099.340000</ele>
</trkpt>
<trkpt lat="-6.894183500" lon="108.404960600">
  <ele>10097.760000</ele>
</trkpt>
<trkpt lat="-6.894144190" lon="108.404968150">
  <ele>10091.460000</ele>
</trkpt>
<trkpt lat="-6.894145870" lon="108.404983240">
  <ele>10086.720000</ele>
</trkpt>
<trkpt lat="-6.894116620" lon="108.404992290">
  <ele>10086.720000</ele>
</trkpt>
<trkpt lat="-6.894092560" lon="108.405009640">
  <ele>10091.460000</ele>
</trkpt>
<trkpt lat="-6.894050480" lon="108.404995980">
  <ele>10093.030000</ele>
</trkpt>
<trkpt lat="-6.894038830" lon="108.405016850">
  <ele>10093.030000</ele>
</trkpt>
<trkpt lat="-6.894041850" lon="108.405035200">
  <ele>10080.420000</ele>
</trkpt>
<trkpt lat="-6.894033800" lon="108.405053640">
  <ele>10078.840000</ele>
</trkpt>
<trkpt lat="-6.894000860" lon="108.405092620">
  <ele>10075.690000</ele>
</trkpt>
<trkpt lat="-6.893957530" lon="108.405110310">
  <ele>10070.950000</ele>
</trkpt>
<trkpt lat="-6.893922240" lon="108.405112070">
  <ele>10066.220000</ele>
</trkpt>
<trkpt lat="-6.893862390" lon="108.405118440">
  <ele>10059.920000</ele>
</trkpt>
<trkpt lat="-6.893845960" lon="108.405121290">
  <ele>10063.070000</ele>
</trkpt>
<trkpt lat="-6.893784440" lon="108.405128070">
  <ele>10063.070000</ele>
</trkpt>
<trkpt lat="-6.893700450" lon="108.405138970">
  <ele>10070.950000</ele>
</trkpt>
<trkpt lat="-6.893578410" lon="108.405179870">
  <ele>10072.530000</ele>
</trkpt>
<trkpt lat="-6.893575060" lon="108.405191270">
  <ele>10072.530000</ele>
</trkpt>
<trkpt lat="-6.893599280" lon="108.405312730">
  <ele>10070.950000</ele>
</trkpt>
<trkpt lat="-6.893626610" lon="108.405408620">
  <ele>10066.220000</ele>
</trkpt>
<trkpt lat="-6.893663910" lon="108.405468040">
  <ele>10063.070000</ele>
</trkpt>
<trkpt lat="-6.893662650" lon="108.405578430">
  <ele>10058.340000</ele>
</trkpt>
<trkpt lat="-6.893696100" lon="108.405611880">
  <ele>10059.920000</ele>
</trkpt>
<trkpt lat="-6.893692830" lon="108.405669550">
  <ele>10063.070000</ele>
</trkpt>
<trkpt lat="-6.893684530" lon="108.405702150">
  <ele>10063.070000</ele>
</trkpt>
<trkpt lat="-6.893660470" lon="108.405769040">
  <ele>10063.070000</ele>
</trkpt>
<trkpt lat="-6.893609340" lon="108.405837270">
  <ele>10066.220000</ele>
</trkpt>
<trkpt lat="-6.893535920" lon="108.405903570">
  <ele>10070.950000</ele>
</trkpt>
<trkpt lat="-6.893493420" lon="108.405969450">
  <ele>10069.380000</ele>
</trkpt>
<trkpt lat="-6.893457970" lon="108.406017810">
  <ele>10077.260000</ele>
</trkpt>
<trkpt lat="-6.893436760" lon="108.406122340">
  <ele>10080.420000</ele>
</trkpt>
<trkpt lat="-6.893411030" lon="108.406164830">
  <ele>10083.570000</ele>
</trkpt>
<trkpt lat="-6.893395440" lon="108.406185790">
  <ele>10086.720000</ele>
</trkpt>
<trkpt lat="-6.893381440" lon="108.406213950">
  <ele>10091.460000</ele>
</trkpt>
<trkpt lat="-6.893319250" lon="108.406267760">
  <ele>10102.490000</ele>
</trkpt>
<trkpt lat="-6.893292760" lon="108.406337750">
  <ele>10108.800000</ele>
</trkpt>
<trkpt lat="-6.893263840" lon="108.406403550">
  <ele>10115.110000</ele>
</trkpt>
<trkpt lat="-6.893221010" lon="108.406457610">
  <ele>10118.260000</ele>
</trkpt>
<trkpt lat="-6.893186060" lon="108.406542190">
  <ele>10121.420000</ele>
</trkpt>
<trkpt lat="-6.893158150" lon="108.406598180">
  <ele>10121.420000</ele>
</trkpt>
<trkpt lat="-6.893137780" lon="108.406654420">
  <ele>10129.300000</ele>
</trkpt>
<trkpt lat="-6.893091760" lon="108.406770010">
  <ele>10137.190000</ele>
</trkpt>
<trkpt lat="-6.893026880" lon="108.406843010">
  <ele>10137.190000</ele>
</trkpt>
<trkpt lat="-6.892997970" lon="108.406926660">
  <ele>10135.610000</ele>
</trkpt>
<trkpt lat="-6.893005590" lon="108.406966730">
  <ele>10132.460000</ele>
</trkpt>
<trkpt lat="-6.893019260" lon="108.406983070">
  <ele>10145.070000</ele>
</trkpt>
<trkpt lat="-6.893025960" lon="108.407006120">
  <ele>10137.190000</ele>
</trkpt>
<trkpt lat="-6.893004670" lon="108.406984410">
  <ele>10134.030000</ele>
</trkpt>
<trkpt lat="-6.893001660" lon="108.406975030">
  <ele>10134.030000</ele>
</trkpt>
<trkpt lat="-6.893000900" lon="108.406989190">
  <ele>10129.300000</ele>
</trkpt>
<trkpt lat="-6.892995030" lon="108.407066050">
  <ele>10132.460000</ele>
</trkpt>
<trkpt lat="-6.892972820" lon="108.407133450">
  <ele>10126.150000</ele>
</trkpt>
<trkpt lat="-6.892958070" lon="108.407166970">
  <ele>10118.260000</ele>
</trkpt>
<trkpt lat="-6.892947170" lon="108.407200580">
  <ele>10116.690000</ele>
</trkpt>
<trkpt lat="-6.892917920" lon="108.407249120">
  <ele>10118.260000</ele>
</trkpt>
<trkpt lat="-6.892901580" lon="108.407266470">
  <ele>10110.380000</ele>
</trkpt>
<trkpt lat="-6.892860340" lon="108.407330250">
  <ele>10121.420000</ele>
</trkpt>
<trkpt lat="-6.892842320" lon="108.407352970">
  <ele>10116.690000</ele>
</trkpt>
<trkpt lat="-6.892814150" lon="108.407383810">
  <ele>10097.760000</ele>
</trkpt>
<trkpt lat="-6.892755310" lon="108.407434860">
  <ele>10081.990000</ele>
</trkpt>
<trkpt lat="-6.892829830" lon="108.407369900">
  <ele>10085.150000</ele>
</trkpt>
<trkpt lat="-6.892899310" lon="108.407288430">
  <ele>10119.840000</ele>
</trkpt>
<trkpt lat="-6.892977850" lon="108.407143250">
  <ele>10127.730000</ele>
</trkpt>
<trkpt lat="-6.893010040" lon="108.407021550">
  <ele>10121.420000</ele>
</trkpt>
<trkpt lat="-6.893005590" lon="108.406957840">
  <ele>10124.570000</ele>
</trkpt>
<trkpt lat="-6.892989920" lon="108.406938310">
  <ele>10127.730000</ele>
</trkpt>
<trkpt lat="-6.892996960" lon="108.406899000">
  <ele>10126.150000</ele>
</trkpt>
<trkpt lat="-6.893005760" lon="108.406855750">
  <ele>10126.150000</ele>
</trkpt>
<trkpt lat="-6.893005090" lon="108.406862630">
  <ele>10121.420000</ele>
</trkpt>
</trkseg>
</trk>
<trk>
  <name>Day 2: Crater to Lingajati</name>
<trkseg>
<trkpt lat="-6.897693015" lon="108.406889812">
  <ele>10037.840000</ele>
</trkpt>
<trkpt lat="-6.897600588" lon="108.407030371">
  <ele>10037.840000</ele>
</trkpt>
<trkpt lat="-6.897552501" lon="108.407168189">
  <ele>10037.840000</ele>
</trkpt>
<trkpt lat="-6.897503535" lon="108.407385259">
  <ele>10037.840000</ele>
</trkpt>
<trkpt lat="-6.897471764" lon="108.407492038">
  <ele>10037.840000</ele>
</trkpt>
<trkpt lat="-6.897487547" lon="108.407539205">
  <ele>10037.840000</ele>
</trkpt>
<trkpt lat="-6.897437026" lon="108.407638041">
  <ele>10037.840000</ele>
</trkpt>
<trkpt lat="-6.897403366" lon="108.407710900">
  <ele>10037.840000</ele>
</trkpt>
<trkpt lat="-6.897344275" lon="108.407844746">
  <ele>10037.840000</ele>
</trkpt>
<trkpt lat="-6.897301165" lon="108.407920401">
  <ele>10037.840000</ele>
</trkpt>
<trkpt lat="-6.897233488" lon="108.408055828">
  <ele>10037.840000</ele>
</trkpt>
<trkpt lat="-6.897191641" lon="108.408152850">
  <ele>10037.840000</ele>
</trkpt>
<trkpt lat="-6.897152637" lon="108.408282274">
  <ele>10037.840000</ele>
</trkpt>
<trkpt lat="-6.897147666" lon="108.408367175">
  <ele>10037.840000</ele>
</trkpt>
<trkpt lat="-6.897172002" lon="108.408468398">
  <ele>10037.840000</ele>
</trkpt>
<trkpt lat="-6.897179550" lon="108.408528984">
  <ele>10037.840000</ele>
</trkpt>
<trkpt lat="-6.897182591" lon="108.408539092">
  <ele>10037.840000</ele>
</trkpt>
<trkpt lat="-6.897174690" lon="108.408692685">
  <ele>10037.840000</ele>
</trkpt>
<trkpt lat="-6.897224483" lon="108.408752684">
  <ele>10037.840000</ele>
</trkpt>
<trkpt lat="-6.897224855" lon="108.408763385">
  <ele>10037.840000</ele>
</trkpt>
<trkpt lat="-6.897244249" lon="108.408874307">
  <ele>10037.840000</ele>
</trkpt>
<trkpt lat="-6.897231393" lon="108.409000272">
  <ele>10037.840000</ele>
</trkpt>
<trkpt lat="-6.897306926" lon="108.409179808">
  <ele>10037.840000</ele>
</trkpt>
<trkpt lat="-6.897328986" lon="108.409329328">
  <ele>10037.840000</ele>
</trkpt>
<trkpt lat="-6.897328865" lon="108.409345495">
  <ele>10037.840000</ele>
</trkpt>
<trkpt lat="-6.897322744" lon="108.409544050">
  <ele>10037.840000</ele>
</trkpt>
<trkpt lat="-6.897347432" lon="108.409628213">
  <ele>10037.840000</ele>
</trkpt>
<trkpt lat="-6.897347300" lon="108.409646153">
  <ele>10037.840000</ele>
</trkpt>
<trkpt lat="-6.897291911" lon="108.409875444">
  <ele>10037.840000</ele>
</trkpt>
<trkpt lat="-6.897236999" lon="108.410086113">
  <ele>10037.840000</ele>
</trkpt>
<trkpt lat="-6.897174396" lon="108.410246547">
  <ele>10037.840000</ele>
</trkpt>
<trkpt lat="-6.897141297" lon="108.410381854">
  <ele>10037.840000</ele>
</trkpt>
<trkpt lat="-6.897101500" lon="108.410548400">
  <ele>10037.840000</ele>
</trkpt>
<trkpt lat="-6.896922880" lon="108.410540020">
  <ele>10037.840000</ele>
</trkpt>
<trkpt lat="-6.896931930" lon="108.410649230">
  <ele>10034.680000</ele>
</trkpt>
<trkpt lat="-6.896939220" lon="108.410799610">
  <ele>10056.760000</ele>
</trkpt>
<trkpt lat="-6.896917430" lon="108.410877050">
  <ele>10058.340000</ele>
</trkpt>
<trkpt lat="-6.896856490" lon="108.410927260">
  <ele>10056.760000</ele>
</trkpt>
<trkpt lat="-6.896724810" lon="108.410948550">
  <ele>10052.030000</ele>
</trkpt>
<trkpt lat="-6.896692790" lon="108.411036900">
  <ele>10055.180000</ele>
</trkpt>
<trkpt lat="-6.896678630" lon="108.411068330">
  <ele>10053.610000</ele>
</trkpt>
<trkpt lat="-6.896584500" lon="108.411182660">
  <ele>10056.760000</ele>
</trkpt>
<trkpt lat="-6.896517190" lon="108.411217950">
  <ele>10058.340000</ele>
</trkpt>
<trkpt lat="-6.896469250" lon="108.411295650">
  <ele>10055.180000</ele>
</trkpt>
<trkpt lat="-6.896416110" lon="108.411317020">
  <ele>10055.180000</ele>
</trkpt>
<trkpt lat="-6.896337990" lon="108.411365220">
  <ele>10058.340000</ele>
</trkpt>
<trkpt lat="-6.896322230" lon="108.411372260">
  <ele>10055.180000</ele>
</trkpt>
<trkpt lat="-6.896274790" lon="108.411325650">
  <ele>10055.180000</ele>
</trkpt>
<trkpt lat="-6.896257940" lon="108.411371080">
  <ele>10056.760000</ele>
</trkpt>
<trkpt lat="-6.896243520" lon="108.411412320">
  <ele>10056.760000</ele>
</trkpt>
<trkpt lat="-6.896101370" lon="108.411454820">
  <ele>10055.180000</ele>
</trkpt>
<trkpt lat="-6.895991400" lon="108.411511650">
  <ele>10052.030000</ele>
</trkpt>
<trkpt lat="-6.895936580" lon="108.411554230">
  <ele>10048.880000</ele>
</trkpt>
<trkpt lat="-6.895845130" lon="108.411668980">
  <ele>10045.720000</ele>
</trkpt>
<trkpt lat="-6.895795010" lon="108.411708200">
  <ele>10048.880000</ele>
</trkpt>
<trkpt lat="-6.895694090" lon="108.411680210">
  <ele>10040.990000</ele>
</trkpt>
<trkpt lat="-6.895589570" lon="108.411729660">
  <ele>10047.300000</ele>
</trkpt>
<trkpt lat="-6.895533490" lon="108.411772910">
  <ele>10055.180000</ele>
</trkpt>
<trkpt lat="-6.895477840" lon="108.411773500">
  <ele>10047.300000</ele>
</trkpt>
<trkpt lat="-6.895431320" lon="108.411796130">
  <ele>10040.990000</ele>
</trkpt>
<trkpt lat="-6.895295870" lon="108.411816000">
  <ele>10029.950000</ele>
</trkpt>
<trkpt lat="-6.895289330" lon="108.411820440">
  <ele>10029.950000</ele>
</trkpt>
<trkpt lat="-6.895272650" lon="108.411876090">
  <ele>10028.380000</ele>
</trkpt>
<trkpt lat="-6.895220090" lon="108.411858740">
  <ele>10025.220000</ele>
</trkpt>
<trkpt lat="-6.895109030" lon="108.411889670">
  <ele>10031.530000</ele>
</trkpt>
<trkpt lat="-6.894979530" lon="108.411876850">
  <ele>10028.380000</ele>
</trkpt>
<trkpt lat="-6.894918600" lon="108.411852620">
  <ele>10025.220000</ele>
</trkpt>
<trkpt lat="-6.894886070" lon="108.411833430">
  <ele>10028.380000</ele>
</trkpt>
<trkpt lat="-6.894791360" lon="108.411839630">
  <ele>10034.680000</ele>
</trkpt>
<trkpt lat="-6.894749370" lon="108.411828820">
  <ele>10028.380000</ele>
</trkpt>
<trkpt lat="-6.894671038" lon="108.411860840">
  <ele>10028.380000</ele>
</trkpt>
<trkpt lat="-6.894557154" lon="108.411877456">
  <ele>10028.380000</ele>
</trkpt>
<trkpt lat="-6.894421585" lon="108.411896812">
  <ele>10028.380000</ele>
</trkpt>
<trkpt lat="-6.894284258" lon="108.411897597">
  <ele>10028.380000</ele>
</trkpt>
<trkpt lat="-6.894208499" lon="108.411881718">
  <ele>10028.380000</ele>
</trkpt>
<trkpt lat="-6.894102847" lon="108.411890268">
  <ele>10028.380000</ele>
</trkpt>
<trkpt lat="-6.894056894" lon="108.411948648">
  <ele>10028.380000</ele>
</trkpt>
<trkpt lat="-6.894041889" lon="108.412083784">
  <ele>10028.380000</ele>
</trkpt>
<trkpt lat="-6.894002603" lon="108.412201690">
  <ele>10028.380000</ele>
</trkpt>
<trkpt lat="-6.894012710" lon="108.412254279">
  <ele>10028.380000</ele>
</trkpt>
<trkpt lat="-6.893975738" lon="108.412322172">
  <ele>10028.380000</ele>
</trkpt>
<trkpt lat="-6.893931289" lon="108.412445002">
  <ele>10028.380000</ele>
</trkpt>
<trkpt lat="-6.893819304" lon="108.412601457">
  <ele>10028.380000</ele>
</trkpt>
<trkpt lat="-6.893747458" lon="108.412720284">
  <ele>10028.380000</ele>
</trkpt>
<trkpt lat="-6.893732547" lon="108.412848442">
  <ele>10028.380000</ele>
</trkpt>
<trkpt lat="-6.893689209" lon="108.412986929">
  <ele>10028.380000</ele>
</trkpt>
<trkpt lat="-6.893605133" lon="108.413153032">
  <ele>10028.380000</ele>
</trkpt>
<trkpt lat="-6.893553278" lon="108.413344800">
  <ele>10028.380000</ele>
</trkpt>
<trkpt lat="-6.893546237" lon="108.413450558">
  <ele>10028.380000</ele>
</trkpt>
<trkpt lat="-6.893540187" lon="108.413472905">
  <ele>10028.380000</ele>
</trkpt>
<trkpt lat="-6.893479837" lon="108.413651621">
  <ele>10028.380000</ele>
</trkpt>
<trkpt lat="-6.893459736" lon="108.413737247">
  <ele>10028.380000</ele>
</trkpt>
<trkpt lat="-6.893409203" lon="108.413907352">
  <ele>10028.380000</ele>
</trkpt>
<trkpt lat="-6.893385478" lon="108.414034647">
  <ele>10028.380000</ele>
</trkpt>
<trkpt lat="-6.893380893" lon="108.414053288">
  <ele>10028.380000</ele>
</trkpt>
<trkpt lat="-6.893333821" lon="108.414244679">
  <ele>10028.380000</ele>
</trkpt>
<trkpt lat="-6.893328988" lon="108.414264332">
  <ele>10028.380000</ele>
</trkpt>
<trkpt lat="-6.893263114" lon="108.414511090">
  <ele>10028.380000</ele>
</trkpt>
<trkpt lat="-6.893258299" lon="108.414535310">
  <ele>10028.380000</ele>
</trkpt>
<trkpt lat="-6.893209316" lon="108.414759557">
  <ele>10028.380000</ele>
</trkpt>
<trkpt lat="-6.893141675" lon="108.415053102">
  <ele>10028.380000</ele>
</trkpt>
<trkpt lat="-6.893066551" lon="108.415252571">
  <ele>10028.380000</ele>
</trkpt>
<trkpt lat="-6.892950797" lon="108.415447139">
  <ele>10028.380000</ele>
</trkpt>
<trkpt lat="-6.892886688" lon="108.415591927">
  <ele>10028.380000</ele>
</trkpt>
<trkpt lat="-6.892852745" lon="108.415694969">
  <ele>10028.380000</ele>
</trkpt>
<trkpt lat="-6.892833347" lon="108.415722383">
  <ele>10028.380000</ele>
</trkpt>
<trkpt lat="-6.892820909" lon="108.415773587">
  <ele>10028.380000</ele>
</trkpt>
<trkpt lat="-6.892824213" lon="108.415835859">
  <ele>10028.380000</ele>
</trkpt>
<trkpt lat="-6.892810431" lon="108.415940869">
  <ele>10028.380000</ele>
</trkpt>
<trkpt lat="-6.892751520" lon="108.416102525">
  <ele>10028.380000</ele>
</trkpt>
<trkpt lat="-6.892701420" lon="108.416187315">
  <ele>10028.380000</ele>
</trkpt>
<trkpt lat="-6.892697891" lon="108.416207952">
  <ele>10028.380000</ele>
</trkpt>
<trkpt lat="-6.892657959" lon="108.416316512">
  <ele>10028.380000</ele>
</trkpt>
<trkpt lat="-6.892654158" lon="108.416338246">
  <ele>10028.380000</ele>
</trkpt>
<trkpt lat="-6.892598770" lon="108.416442763">
  <ele>10028.380000</ele>
</trkpt>
<trkpt lat="-6.892499630" lon="108.416504782">
  <ele>10028.380000</ele>
</trkpt>
<trkpt lat="-6.892488816" lon="108.416538529">
  <ele>10028.380000</ele>
</trkpt>
<trkpt lat="-6.892380098" lon="108.416733152">
  <ele>10028.380000</ele>
</trkpt>
<trkpt lat="-6.892381269" lon="108.416748278">
  <ele>10028.380000</ele>
</trkpt>
<trkpt lat="-6.892403067" lon="108.416901082">
  <ele>10028.380000</ele>
</trkpt>
<trkpt lat="-6.892400126" lon="108.416920103">
  <ele>10028.380000</ele>
</trkpt>
<trkpt lat="-6.892352480" lon="108.417069730">
  <ele>10028.380000</ele>
</trkpt>
<trkpt lat="-6.892343010" lon="108.417099469">
  <ele>10028.380000</ele>
</trkpt>
<trkpt lat="-6.892292375" lon="108.417206716">
  <ele>10028.380000</ele>
</trkpt>
<trkpt lat="-6.892258696" lon="108.417448179">
  <ele>10028.380000</ele>
</trkpt>
<trkpt lat="-6.892172012" lon="108.417747721">
  <ele>10028.380000</ele>
</trkpt>
<trkpt lat="-6.892003370" lon="108.418048992">
  <ele>10028.380000</ele>
</trkpt>
<trkpt lat="-6.891846952" lon="108.418353030">
  <ele>10028.380000</ele>
</trkpt>
<trkpt lat="-6.891589891" lon="108.418811800">
  <ele>10028.380000</ele>
</trkpt>
<trkpt lat="-6.891563165" lon="108.418896086">
  <ele>10028.380000</ele>
</trkpt>
<trkpt lat="-6.891143984" lon="108.419626811">
  <ele>10028.380000</ele>
</trkpt>
<trkpt lat="-6.890976505" lon="108.419818058">
  <ele>10028.380000</ele>
</trkpt>
<trkpt lat="-6.890688000" lon="108.420372633">
  <ele>10028.380000</ele>
</trkpt>
<trkpt lat="-6.890543468" lon="108.420734825">
  <ele>10028.380000</ele>
</trkpt>
<trkpt lat="-6.890590842" lon="108.420976081">
  <ele>10028.380000</ele>
</trkpt>
<trkpt lat="-6.890377689" lon="108.421494693">
  <ele>10028.380000</ele>
</trkpt>
<trkpt lat="-6.890061443" lon="108.422241262">
  <ele>10028.380000</ele>
</trkpt>
<trkpt lat="-6.890095162" lon="108.422522981">
  <ele>10028.380000</ele>
</trkpt>
<trkpt lat="-6.889823435" lon="108.423245200">
  <ele>10028.380000</ele>
</trkpt>
<trkpt lat="-6.889606084" lon="108.424051141">
  <ele>10028.380000</ele>
</trkpt>
<trkpt lat="-6.889645818" lon="108.424551040">
  <ele>10028.380000</ele>
</trkpt>
<trkpt lat="-6.889478296" lon="108.425435904">
  <ele>10028.380000</ele>
</trkpt>
<trkpt lat="-6.889203897" lon="108.426190833">
  <ele>10028.380000</ele>
</trkpt>
<trkpt lat="-6.889173487" lon="108.426781393">
  <ele>10028.380000</ele>
</trkpt>
<trkpt lat="-6.889153933" lon="108.426865130">
  <ele>10028.380000</ele>
</trkpt>
<trkpt lat="-6.889062341" lon="108.427781572">
  <ele>10028.380000</ele>
</trkpt>
<trkpt lat="-6.889038053" lon="108.427851496">
  <ele>10028.380000</ele>
</trkpt>
<trkpt lat="-6.888707762" lon="108.429071520">
  <ele>10028.380000</ele>
</trkpt>
<trkpt lat="-6.888645457" lon="108.430472132">
  <ele>10028.380000</ele>
</trkpt>
<trkpt lat="-6.888275093" lon="108.431969364">
  <ele>10028.380000</ele>
</trkpt>
<trkpt lat="-6.887853789" lon="108.433189049">
  <ele>10028.380000</ele>
</trkpt>
<trkpt lat="-6.887338332" lon="108.433357055">
  <ele>10028.380000</ele>
</trkpt>
<trkpt lat="-6.886780899" lon="108.433406725">
  <ele>10028.380000</ele>
</trkpt>
<trkpt lat="-6.885869216" lon="108.433894629">
  <ele>10028.380000</ele>
</trkpt>
<trkpt lat="-6.884702417" lon="108.434064112">
  <ele>10028.380000</ele>
</trkpt>
<trkpt lat="-6.882599738" lon="108.434040530">
  <ele>10028.380000</ele>
</trkpt>
<trkpt lat="-6.880973201" lon="108.434303019">
  <ele>10028.380000</ele>
</trkpt>
<trkpt lat="-6.881725021" lon="108.436450797">
  <ele>10028.380000</ele>
</trkpt>
<trkpt lat="-6.882787758" lon="108.438840427">
  <ele>10028.380000</ele>
</trkpt>
<trkpt lat="-6.883557034" lon="108.441915636">
  <ele>10028.380000</ele>
</trkpt>
<trkpt lat="-6.883866605" lon="108.442765832">
  <ele>10028.380000</ele>
</trkpt>
<trkpt lat="-6.884796521" lon="108.443612747">
  <ele>10028.380000</ele>
</trkpt>
<trkpt lat="-6.886553119" lon="108.444567426">
  <ele>10028.380000</ele>
</trkpt>
<trkpt lat="-6.886805694" lon="108.445745747">
  <ele>10028.380000</ele>
</trkpt>
<trkpt lat="-6.887001508" lon="108.448738349">
  <ele>10028.380000</ele>
</trkpt>
<trkpt lat="-6.887366734" lon="108.449875344">
  <ele>10028.380000</ele>
</trkpt>
<trkpt lat="-6.887928909" lon="108.452184650">
  <ele>10028.380000</ele>
</trkpt>
<trkpt lat="-6.887654263" lon="108.452371795">
  <ele>10028.380000</ele>
</trkpt>
<trkpt lat="-6.887491670" lon="108.452631553">
  <ele>10028.380000</ele>
</trkpt>
<trkpt lat="-6.887402322" lon="108.452989906">
  <ele>10028.380000</ele>
</trkpt>
<trkpt lat="-6.887122243" lon="108.453342988">
  <ele>10028.380000</ele>
</trkpt>
<trkpt lat="-6.886806026" lon="108.453690994">
  <ele>10028.380000</ele>
</trkpt>
<trkpt lat="-6.886351628" lon="108.454191719">
  <ele>10028.380000</ele>
</trkpt>
<trkpt lat="-6.885876652" lon="108.454926206">
  <ele>10028.380000</ele>
</trkpt>
<trkpt lat="-6.885613127" lon="108.455293669">
  <ele>10028.380000</ele>
</trkpt>
<trkpt lat="-6.884736100" lon="108.455952020">
  <ele>10028.380000</ele>
</trkpt>
<trkpt lat="-6.884052316" lon="108.456191163">
  <ele>10028.380000</ele>
</trkpt>
<trkpt lat="-6.884031341" lon="108.456267317">
  <ele>10028.380000</ele>
</trkpt>
<trkpt lat="-6.883807739" lon="108.456799245">
  <ele>10028.380000</ele>
</trkpt>
<trkpt lat="-6.883606488" lon="108.456970812">
  <ele>10028.380000</ele>
</trkpt>
<trkpt lat="-6.883290296" lon="108.457895956">
  <ele>10028.380000</ele>
</trkpt>
<trkpt lat="-6.883060667" lon="108.458820240">
  <ele>10028.380000</ele>
</trkpt>
<trkpt lat="-6.882686295" lon="108.459529260">
  <ele>10028.380000</ele>
</trkpt>
<trkpt lat="-6.882265376" lon="108.460729134">
  <ele>10028.380000</ele>
</trkpt>
<trkpt lat="-6.881782985" lon="108.461620062">
  <ele>10028.380000</ele>
</trkpt>
<trkpt lat="-6.881258698" lon="108.462127368">
  <ele>10028.380000</ele>
</trkpt>
<trkpt lat="-6.881560634" lon="108.463336988">
  <ele>10028.380000</ele>
</trkpt>
</trkseg>
</trk>
</gpx>
