<?xml version="1.0" encoding="UTF-8" standalone="no"?>
<gpx xmlns="http://www.topografix.com/GPX/1/1" creator="GlobalMotion" version="1.1" xmlns:xsi="http://www.w3.org/2001/XMLSchema-instance" xsi:schemaLocation="http://www.topografix.com/GPX/1/1 http://www.topografix.com/GPX/1/1/gpx.xsd"><wpt lat="-6.94278722" lon="108.43897345"><ele>1098.41</ele><name>mesjid</name></wpt><wpt lat="-6.9421379" lon="108.43706192"><ele>1123.49</ele><name>batas desa</name></wpt><wpt lat="-6.9396557" lon="108.43316457"><ele>1197.52</ele><name>batas hutan</name></wpt><wpt lat="-6.93423537" lon="108.40976644"><ele>1611.56</ele><name>cigowong</name></wpt><wpt lat="-6.9325859" lon="108.40744005"><ele>1697.3</ele><name>kuta</name></wpt><wpt lat="-6.92600809" lon="108.40301831"><ele>1851.92</ele><name>pangguyangan badak</name></wpt><wpt lat="-6.9202267" lon="108.40050614"><ele>2058.71</ele><name>arban</name></wpt><wpt lat="-6.91686605" lon="108.39979448"><ele>2182.41</ele><name>tanjakan asoy</name></wpt><wpt lat="-6.90805098" lon="108.40025425"><ele>2439.96</ele><name>pasangrahan</name></wpt><wpt lat="-6.9038335" lon="108.40046562"><ele>2594.97</ele><name>sanghyang ropoh</name></wpt><wpt lat="-6.89976385" lon="108.40219784"><ele>2840.76</ele><name>percabangan</name></wpt><wpt lat="-6.89855699" lon="108.40310147"><ele>2934.39</ele><name>goa wallet</name></wpt><wpt lat="-6.8974313" lon="108.40502337"><ele>3054.18</ele><name>triangulasi</name></wpt><wpt lat="-6.89421755" lon="108.41192046"><ele>3077.11</ele><name>puncak ciremai</name></wpt><wpt lat="-6.89319762" lon="108.41529811"><ele>2824.9</ele><name>pengasinan</name></wpt><wpt lat="-6.89089829" lon="108.42096182"><ele>2471.9</ele><name>sangga buana bawah</name></wpt><wpt lat="-6.88983652" lon="108.42335592"><ele>2327.2</ele><name>batu lingga</name></wpt><wpt lat="-6.88924915" lon="108.4281704"><ele>2080.62</ele><name>bapa tere</name></wpt><wpt lat="-6.88493295" lon="108.4320535"><ele>1778.02</ele><name>tanjakan seruni</name></wpt><wpt lat="-6.8840187" lon="108.43398224"><ele>1685.83</ele><name>tanjakan binbin</name></wpt><wpt lat="-6.88350748" lon="108.43529449"><ele>1630.87</ele><name>pangalap</name></wpt><wpt lat="-6.88285094" lon="108.43920308"><ele>1431.22</ele><name>kuburan kuda</name></wpt><wpt lat="-6.886557" lon="108.44461804"><ele>1179.39</ele><name>condang amis</name></wpt><wpt lat="-6.88675541" lon="108.44706724"><ele>1111.68</ele><name>leuweung datar</name></wpt><wpt lat="-6.88379707" lon="108.4571362"><ele>801.79</ele><name>pos cibunar</name></wpt><wpt lat="-6.88483925" lon="108.45849492"><ele>783.1</ele><name>shelter 1</name></wpt><wpt lat="-6.88110345" lon="108.46794163"><ele>663.33</ele><name>pos linggarjati</name></wpt><trk>
<name><![CDATA[Ciremai linggarjati-palutungan]]></name>
<desc><![CDATA[<h1>OruxMaps</h1><br /><hr align="center" width="480" style="height: 2px; width: 517px"/><h2>Name: Ciremai linggarjati-palutungan</h2><br /><p>Start time: 08/31/2013 06:24</p><p>Finish time: 09/01/2013 14:36</p><p>Distance: 18.7 km (32:11)</p><p>Moving time: 19:59</p><p>Average speed: 0.6 km/h</p><p>Avg. Speed Mov.: 0.9 km/h</p><p>Max. Speed: 11 km/h</p><p>Minimum altitude: 656 m</p><p>Maximum altitude: 3119 m</p><p>Ascent speed: 237.1 m/h</p><p>Descent speed: -395.8 m/h</p><p>Elevation gain: 2425 m</p><p>Elevation loss: -2026 m</p><p>Ascent time: 10:13</p><p>Descent time: 05:07</p><hr align="center" width="480" style="height: 2px; width: 517px"/>]]></desc>
<type>Undefined</type>
<trkseg>
<trkpt lat="-6.88110086" lon="108.46793401">
<ele>663.53</ele>
<time>2013-08-30T23:24:49Z</time>
</trkpt>
<trkpt lat="-6.88120427" lon="108.46650867">
<ele>657.79</ele>
<time>2013-08-30T23:32:19Z</time>
</trkpt>
<trkpt lat="-6.8812845" lon="108.46609657">
<ele>656.14</ele>
<time>2013-08-30T23:33:01Z</time>
</trkpt>
<trkpt lat="-6.88128562" lon="108.46587289">
<ele>656.59</ele>
<time>2013-08-30T23:33:44Z</time>
</trkpt>
<trkpt lat="-6.88131613" lon="108.46551924">
<ele>658.95</ele>
<time>2013-08-30T23:34:25Z</time>
</trkpt>
<trkpt lat="-6.88136163" lon="108.4650472">
<ele>663.68</ele>
<time>2013-08-30T23:35:06Z</time>
</trkpt>
<trkpt lat="-6.88144945" lon="108.46488885">
<ele>675.18</ele>
<time>2013-08-30T23:35:57Z</time>
</trkpt>
<trkpt lat="-6.88144281" lon="108.46469703">
<ele>676.23</ele>
<time>2013-08-30T23:36:13Z</time>
</trkpt>
<trkpt lat="-6.88143805" lon="108.46449102">
<ele>669.76</ele>
<time>2013-08-30T23:36:35Z</time>
</trkpt>
<trkpt lat="-6.88144303" lon="108.4642979">
<ele>673.62</ele>
<time>2013-08-30T23:37:12Z</time>
</trkpt>
<trkpt lat="-6.88145493" lon="108.46411731">
<ele>672.44</ele>
<time>2013-08-30T23:37:24Z</time>
</trkpt>
<trkpt lat="-6.88142916" lon="108.46393464">
<ele>672.30</ele>
<time>2013-08-30T23:37:36Z</time>
</trkpt>
<trkpt lat="-6.88149789" lon="108.46376463">
<ele>667.40</ele>
<time>2013-08-30T23:37:53Z</time>
</trkpt>
<trkpt lat="-6.88148987" lon="108.46358351">
<ele>663.36</ele>
<time>2013-08-30T23:38:19Z</time>
</trkpt>
<trkpt lat="-6.88155034" lon="108.46340796">
<ele>663.54</ele>
<time>2013-08-30T23:39:05Z</time>
</trkpt>
<trkpt lat="-6.88159561" lon="108.46322997">
<ele>668.77</ele>
<time>2013-08-30T23:40:24Z</time>
</trkpt>
<trkpt lat="-6.88178729" lon="108.46319706">
<ele>673.90</ele>
<time>2013-08-30T23:40:50Z</time>
</trkpt>
<trkpt lat="-6.88190413" lon="108.46305817">
<ele>685.09</ele>
<time>2013-08-30T23:41:31Z</time>
</trkpt>
<trkpt lat="-6.88209979" lon="108.46302439">
<ele>686.09</ele>
<time>2013-08-30T23:42:00Z</time>
</trkpt>
<trkpt lat="-6.88233301" lon="108.46307449">
<ele>691.47</ele>
<time>2013-08-30T23:43:02Z</time>
</trkpt>
<trkpt lat="-6.882523" lon="108.46308588">
<ele>692.07</ele>
<time>2013-08-30T23:43:09Z</time>
</trkpt>
<trkpt lat="-6.88246592" lon="108.46290609">
<ele>694.94</ele>
<time>2013-08-30T23:43:46Z</time>
</trkpt>
<trkpt lat="-6.88258644" lon="108.46276651">
<ele>711.41</ele>
<time>2013-08-30T23:44:57Z</time>
</trkpt>
<trkpt lat="-6.8826642" lon="108.46260009">
<ele>719.90</ele>
<time>2013-08-30T23:46:13Z</time>
</trkpt>
<trkpt lat="-6.88273366" lon="108.46243058">
<ele>724.95</ele>
<time>2013-08-30T23:46:31Z</time>
</trkpt>
<trkpt lat="-6.88280999" lon="108.46225786">
<ele>731.78</ele>
<time>2013-08-30T23:46:56Z</time>
</trkpt>
<trkpt lat="-6.88287963" lon="108.46208808">
<ele>737.52</ele>
<time>2013-08-30T23:47:18Z</time>
</trkpt>
<trkpt lat="-6.88298248" lon="108.46192062">
<ele>739.73</ele>
<time>2013-08-30T23:47:53Z</time>
</trkpt>
<trkpt lat="-6.88300792" lon="108.46173782">
<ele>739.84</ele>
<time>2013-08-30T23:48:09Z</time>
</trkpt>
<trkpt lat="-6.88307993" lon="108.46154716">
<ele>740.56</ele>
<time>2013-08-30T23:48:25Z</time>
</trkpt>
<trkpt lat="-6.8831946" lon="108.46139947">
<ele>747.43</ele>
<time>2013-08-30T23:48:52Z</time>
</trkpt>
<trkpt lat="-6.88331333" lon="108.46125293">
<ele>748.60</ele>
<time>2013-08-30T23:49:10Z</time>
</trkpt>
<trkpt lat="-6.88347949" lon="108.46115442">
<ele>752.98</ele>
<time>2013-08-30T23:49:48Z</time>
</trkpt>
<trkpt lat="-6.88355535" lon="108.46096966">
<ele>753.24</ele>
<time>2013-08-30T23:50:30Z</time>
</trkpt>
<trkpt lat="-6.88351129" lon="108.46078259">
<ele>754.47</ele>
<time>2013-08-30T23:50:37Z</time>
</trkpt>
<trkpt lat="-6.88361353" lon="108.46062906">
<ele>753.70</ele>
<time>2013-08-30T23:50:48Z</time>
</trkpt>
<trkpt lat="-6.88364517" lon="108.46042854">
<ele>761.05</ele>
<time>2013-08-30T23:51:12Z</time>
</trkpt>
<trkpt lat="-6.88376734" lon="108.46028559">
<ele>765.27</ele>
<time>2013-08-30T23:51:38Z</time>
</trkpt>
<trkpt lat="-6.8838343" lon="108.4601157">
<ele>761.95</ele>
<time>2013-08-30T23:51:52Z</time>
</trkpt>
<trkpt lat="-6.88396264" lon="108.45998052">
<ele>757.76</ele>
<time>2013-08-30T23:52:13Z</time>
</trkpt>
<trkpt lat="-6.88407887" lon="108.45983481">
<ele>760.82</ele>
<time>2013-08-30T23:52:37Z</time>
</trkpt>
<trkpt lat="-6.88414344" lon="108.45966339">
<ele>764.03</ele>
<time>2013-08-30T23:53:07Z</time>
</trkpt>
<trkpt lat="-6.88423662" lon="108.45950471">
<ele>762.32</ele>
<time>2013-08-30T23:53:23Z</time>
</trkpt>
<trkpt lat="-6.88437133" lon="108.45938376">
<ele>766.50</ele>
<time>2013-08-30T23:53:50Z</time>
</trkpt>
<trkpt lat="-6.884409" lon="108.45919752">
<ele>766.03</ele>
<time>2013-08-30T23:55:12Z</time>
</trkpt>
<trkpt lat="-6.88452521" lon="108.4590206">
<ele>769.97</ele>
<time>2013-08-30T23:55:55Z</time>
</trkpt>
<trkpt lat="-6.8846597" lon="108.4588781">
<ele>774.70</ele>
<time>2013-08-30T23:56:11Z</time>
</trkpt>
<trkpt lat="-6.8846957" lon="108.45870047">
<ele>778.86</ele>
<time>2013-08-30T23:56:26Z</time>
</trkpt>
<trkpt lat="-6.88477449" lon="108.45853663">
<ele>781.70</ele>
<time>2013-08-30T23:56:56Z</time>
</trkpt>
<trkpt lat="-6.8849652" lon="108.45850942">
<ele>784.15</ele>
<time>2013-08-30T23:58:28Z</time>
</trkpt>
<trkpt lat="-6.88508585" lon="108.45833789">
<ele>785.38</ele>
<time>2013-08-30T23:58:40Z</time>
</trkpt>
<trkpt lat="-6.88512943" lon="108.45814089">
<ele>789.68</ele>
<time>2013-08-30T23:59:00Z</time>
</trkpt>
<trkpt lat="-6.88527749" lon="108.45801548">
<ele>796.47</ele>
<time>2013-08-30T23:59:24Z</time>
</trkpt>
<trkpt lat="-6.88522611" lon="108.45782576">
<ele>800.78</ele>
<time>2013-08-30T23:59:48Z</time>
</trkpt>
<trkpt lat="-6.88525378" lon="108.45764526">
<ele>800.15</ele>
<time>2013-08-31T00:00:03Z</time>
</trkpt>
<trkpt lat="-6.88548202" lon="108.45760951">
<ele>805.39</ele>
<time>2013-08-31T00:02:08Z</time>
</trkpt>
<trkpt lat="-6.88566721" lon="108.45766253">
<ele>805.28</ele>
<time>2013-08-31T00:02:14Z</time>
</trkpt>
<trkpt lat="-6.88586154" lon="108.45767876">
<ele>803.75</ele>
<time>2013-08-31T00:02:40Z</time>
</trkpt>
<trkpt lat="-6.88571167" lon="108.45778663">
<ele>804.40</ele>
<time>2013-08-31T00:04:08Z</time>
</trkpt>
<trkpt lat="-6.88552173" lon="108.45776571">
<ele>804.80</ele>
<time>2013-08-31T00:04:20Z</time>
</trkpt>
<trkpt lat="-6.88532295" lon="108.45768991">
<ele>804.48</ele>
<time>2013-08-31T00:04:31Z</time>
</trkpt>
<trkpt lat="-6.88514389" lon="108.45762416">
<ele>805.27</ele>
<time>2013-08-31T00:04:58Z</time>
</trkpt>
<trkpt lat="-6.88495974" lon="108.45755266">
<ele>802.70</ele>
<time>2013-08-31T00:05:14Z</time>
</trkpt>
<trkpt lat="-6.88479221" lon="108.45745079">
<ele>800.27</ele>
<time>2013-08-31T00:05:46Z</time>
</trkpt>
<trkpt lat="-6.88466003" lon="108.45731656">
<ele>791.81</ele>
<time>2013-08-31T00:05:58Z</time>
</trkpt>
<trkpt lat="-6.88454257" lon="108.45716748">
<ele>796.41</ele>
<time>2013-08-31T00:06:12Z</time>
</trkpt>
<trkpt lat="-6.88436113" lon="108.45717863">
<ele>798.89</ele>
<time>2013-08-31T00:06:57Z</time>
</trkpt>
<trkpt lat="-6.88418007" lon="108.45713524">
<ele>801.72</ele>
<time>2013-08-31T00:07:12Z</time>
</trkpt>
<trkpt lat="-6.88399219" lon="108.45706418">
<ele>801.21</ele>
<time>2013-08-31T00:07:40Z</time>
</trkpt>
<trkpt lat="-6.88381616" lon="108.45712732">
<ele>799.53</ele>
<time>2013-08-31T00:08:44Z</time>
</trkpt>
<trkpt lat="-6.88363318" lon="108.45714648">
<ele>804.80</ele>
<time>2013-08-31T00:10:18Z</time>
</trkpt>
<trkpt lat="-6.8836568" lon="108.45692994">
<ele>808.00</ele>
<time>2013-08-31T00:12:08Z</time>
</trkpt>
<trkpt lat="-6.88382439" lon="108.4568493">
<ele>806.40</ele>
<time>2013-08-31T00:12:24Z</time>
</trkpt>
<trkpt lat="-6.88392022" lon="108.45667184">
<ele>806.05</ele>
<time>2013-08-31T00:12:35Z</time>
</trkpt>
<trkpt lat="-6.8839345" lon="108.4564459">
<ele>812.73</ele>
<time>2013-08-31T00:13:07Z</time>
</trkpt>
<trkpt lat="-6.88389576" lon="108.45625367">
<ele>812.39</ele>
<time>2013-08-31T00:13:31Z</time>
</trkpt>
<trkpt lat="-6.8840712" lon="108.45618002">
<ele>819.80</ele>
<time>2013-08-31T00:14:00Z</time>
</trkpt>
<trkpt lat="-6.88411279" lon="108.45598753">
<ele>821.62</ele>
<time>2013-08-31T00:14:27Z</time>
</trkpt>
<trkpt lat="-6.88421146" lon="108.45583179">
<ele>823.66</ele>
<time>2013-08-31T00:15:00Z</time>
</trkpt>
<trkpt lat="-6.8842842" lon="108.45566321">
<ele>828.77</ele>
<time>2013-08-31T00:15:24Z</time>
</trkpt>
<trkpt lat="-6.88435914" lon="108.45546336">
<ele>832.13</ele>
<time>2013-08-31T00:15:43Z</time>
</trkpt>
<trkpt lat="-6.88453845" lon="108.45543862">
<ele>841.05</ele>
<time>2013-08-31T00:16:02Z</time>
</trkpt>
<trkpt lat="-6.88473196" lon="108.45550392">
<ele>844.38</ele>
<time>2013-08-31T00:16:18Z</time>
</trkpt>
<trkpt lat="-6.88491091" lon="108.45559699">
<ele>852.75</ele>
<time>2013-08-31T00:16:56Z</time>
</trkpt>
<trkpt lat="-6.88502569" lon="108.45573782">
<ele>854.06</ele>
<time>2013-08-31T00:17:24Z</time>
</trkpt>
<trkpt lat="-6.88521093" lon="108.45569529">
<ele>854.78</ele>
<time>2013-08-31T00:17:49Z</time>
</trkpt>
<trkpt lat="-6.8852075" lon="108.45547961">
<ele>865.98</ele>
<time>2013-08-31T00:19:02Z</time>
</trkpt>
<trkpt lat="-6.88527023" lon="108.45526695">
<ele>878.09</ele>
<time>2013-08-31T00:19:44Z</time>
</trkpt>
<trkpt lat="-6.88543401" lon="108.4551725">
<ele>875.88</ele>
<time>2013-08-31T00:19:58Z</time>
</trkpt>
<trkpt lat="-6.88561633" lon="108.45515292">
<ele>871.09</ele>
<time>2013-08-31T00:20:32Z</time>
</trkpt>
<trkpt lat="-6.88578182" lon="108.45507195">
<ele>878.38</ele>
<time>2013-08-31T00:21:02Z</time>
</trkpt>
<trkpt lat="-6.8859031" lon="108.45490297">
<ele>880.78</ele>
<time>2013-08-31T00:21:38Z</time>
</trkpt>
<trkpt lat="-6.8859029" lon="108.45471978">
<ele>884.86</ele>
<time>2013-08-31T00:21:46Z</time>
</trkpt>
<trkpt lat="-6.8860376" lon="108.45459173">
<ele>896.25</ele>
<time>2013-08-31T00:22:37Z</time>
</trkpt>
<trkpt lat="-6.88617192" lon="108.45446172">
<ele>913.14</ele>
<time>2013-08-31T00:23:17Z</time>
</trkpt>
<trkpt lat="-6.88630386" lon="108.45433477">
<ele>915.65</ele>
<time>2013-08-31T00:23:47Z</time>
</trkpt>
<trkpt lat="-6.88645647" lon="108.45447332">
<ele>914.46</ele>
<time>2013-08-31T00:24:30Z</time>
</trkpt>
<trkpt lat="-6.88663546" lon="108.45451884">
<ele>920.37</ele>
<time>2013-08-31T00:24:50Z</time>
</trkpt>
<trkpt lat="-6.88681475" lon="108.45448347">
<ele>936.12</ele>
<time>2013-08-31T00:27:16Z</time>
</trkpt>
<trkpt lat="-6.88673742" lon="108.454313">
<ele>941.56</ele>
<time>2013-08-31T00:27:51Z</time>
</trkpt>
<trkpt lat="-6.88674554" lon="108.45412307">
<ele>942.12</ele>
<time>2013-08-31T00:28:20Z</time>
</trkpt>
<trkpt lat="-6.88667739" lon="108.45395396">
<ele>947.70</ele>
<time>2013-08-31T00:28:59Z</time>
</trkpt>
<trkpt lat="-6.88651859" lon="108.45385685">
<ele>949.61</ele>
<time>2013-08-31T00:29:16Z</time>
</trkpt>
<trkpt lat="-6.88637323" lon="108.453749">
<ele>942.43</ele>
<time>2013-08-31T00:29:54Z</time>
</trkpt>
<trkpt lat="-6.88639765" lon="108.45356774">
<ele>952.98</ele>
<time>2013-08-31T00:31:33Z</time>
</trkpt>
<trkpt lat="-6.88626912" lon="108.45342585">
<ele>960.07</ele>
<time>2013-08-31T00:32:42Z</time>
</trkpt>
<trkpt lat="-6.88606363" lon="108.45342779">
<ele>963.65</ele>
<time>2013-08-31T00:33:11Z</time>
</trkpt>
<trkpt lat="-6.88588618" lon="108.45336749">
<ele>982.70</ele>
<time>2013-08-31T00:34:35Z</time>
</trkpt>
<trkpt lat="-6.88578159" lon="108.45321483">
<ele>987.48</ele>
<time>2013-08-31T00:34:43Z</time>
</trkpt>
<trkpt lat="-6.88590321" lon="108.45307057">
<ele>991.04</ele>
<time>2013-08-31T00:35:35Z</time>
</trkpt>
<trkpt lat="-6.88609093" lon="108.45303694">
<ele>994.59</ele>
<time>2013-08-31T00:35:50Z</time>
</trkpt>
<trkpt lat="-6.88608652" lon="108.45285566">
<ele>994.23</ele>
<time>2013-08-31T00:36:19Z</time>
</trkpt>
<trkpt lat="-6.88602949" lon="108.45268191">
<ele>996.87</ele>
<time>2013-08-31T00:36:33Z</time>
</trkpt>
<trkpt lat="-6.88603111" lon="108.45248403">
<ele>1000.01</ele>
<time>2013-08-31T00:36:49Z</time>
</trkpt>
<trkpt lat="-6.88605171" lon="108.45228695">
<ele>1000.42</ele>
<time>2013-08-31T00:37:22Z</time>
</trkpt>
<trkpt lat="-6.88594311" lon="108.45213733">
<ele>1009.15</ele>
<time>2013-08-31T00:38:13Z</time>
</trkpt>
<trkpt lat="-6.88597136" lon="108.45194864">
<ele>1012.87</ele>
<time>2013-08-31T00:38:29Z</time>
</trkpt>
<trkpt lat="-6.88597278" lon="108.45175168">
<ele>1016.21</ele>
<time>2013-08-31T00:39:04Z</time>
</trkpt>
<trkpt lat="-6.88600124" lon="108.4515621">
<ele>1014.82</ele>
<time>2013-08-31T00:39:27Z</time>
</trkpt>
<trkpt lat="-6.88599752" lon="108.45137833">
<ele>1015.18</ele>
<time>2013-08-31T00:40:05Z</time>
</trkpt>
<trkpt lat="-6.8860142" lon="108.45118445">
<ele>1012.88</ele>
<time>2013-08-31T00:40:28Z</time>
</trkpt>
<trkpt lat="-6.88602178" lon="108.45097649">
<ele>1016.81</ele>
<time>2013-08-31T00:41:43Z</time>
</trkpt>
<trkpt lat="-6.88595479" lon="108.45080627">
<ele>1021.88</ele>
<time>2013-08-31T00:42:21Z</time>
</trkpt>
<trkpt lat="-6.88595913" lon="108.45062116">
<ele>1023.70</ele>
<time>2013-08-31T00:42:51Z</time>
</trkpt>
<trkpt lat="-6.88598577" lon="108.45043346">
<ele>1028.38</ele>
<time>2013-08-31T00:43:19Z</time>
</trkpt>
<trkpt lat="-6.88596429" lon="108.4502495">
<ele>1028.47</ele>
<time>2013-08-31T00:43:39Z</time>
</trkpt>
<trkpt lat="-6.885929" lon="108.45005533">
<ele>1024.57</ele>
<time>2013-08-31T00:44:01Z</time>
</trkpt>
<trkpt lat="-6.88596106" lon="108.44987019">
<ele>1023.38</ele>
<time>2013-08-31T00:44:36Z</time>
</trkpt>
<trkpt lat="-6.88597288" lon="108.44965675">
<ele>1028.46</ele>
<time>2013-08-31T00:45:48Z</time>
</trkpt>
<trkpt lat="-6.88617656" lon="108.44961222">
<ele>1031.62</ele>
<time>2013-08-31T00:45:58Z</time>
</trkpt>
<trkpt lat="-6.88635479" lon="108.44954964">
<ele>1034.93</ele>
<time>2013-08-31T00:46:17Z</time>
</trkpt>
<trkpt lat="-6.88651569" lon="108.44945553">
<ele>1036.75</ele>
<time>2013-08-31T00:46:51Z</time>
</trkpt>
<trkpt lat="-6.88661361" lon="108.44928903">
<ele>1037.27</ele>
<time>2013-08-31T00:48:19Z</time>
</trkpt>
<trkpt lat="-6.88676527" lon="108.44918942">
<ele>1044.68</ele>
<time>2013-08-31T00:49:08Z</time>
</trkpt>
<trkpt lat="-6.88694344" lon="108.44909774">
<ele>1050.35</ele>
<time>2013-08-31T00:49:36Z</time>
</trkpt>
<trkpt lat="-6.88704383" lon="108.44893479">
<ele>1056.21</ele>
<time>2013-08-31T00:51:08Z</time>
</trkpt>
<trkpt lat="-6.88701948" lon="108.44874351">
<ele>1064.66</ele>
<time>2013-08-31T00:51:28Z</time>
</trkpt>
<trkpt lat="-6.88692613" lon="108.4484971">
<ele>1077.50</ele>
<time>2013-08-31T00:52:47Z</time>
</trkpt>
<trkpt lat="-6.88684604" lon="108.44833386">
<ele>1082.32</ele>
<time>2013-08-31T00:53:01Z</time>
</trkpt>
<trkpt lat="-6.88680961" lon="108.44813398">
<ele>1087.25</ele>
<time>2013-08-31T00:53:54Z</time>
</trkpt>
<trkpt lat="-6.88678071" lon="108.44795281">
<ele>1086.10</ele>
<time>2013-08-31T00:54:40Z</time>
</trkpt>
<trkpt lat="-6.88678241" lon="108.44776819">
<ele>1091.27</ele>
<time>2013-08-31T00:55:08Z</time>
</trkpt>
<trkpt lat="-6.88679214" lon="108.447584">
<ele>1098.90</ele>
<time>2013-08-31T00:55:37Z</time>
</trkpt>
<trkpt lat="-6.8867157" lon="108.44733472">
<ele>1100.28</ele>
<time>2013-08-31T00:56:25Z</time>
</trkpt>
<trkpt lat="-6.88672676" lon="108.44714754">
<ele>1101.88</ele>
<time>2013-08-31T00:57:00Z</time>
</trkpt>
<trkpt lat="-6.88678744" lon="108.4469526">
<ele>1128.51</ele>
<time>2013-08-31T01:00:49Z</time>
</trkpt>
<trkpt lat="-6.88677673" lon="108.44676892">
<ele>1124.89</ele>
<time>2013-08-31T01:01:37Z</time>
</trkpt>
<trkpt lat="-6.88673167" lon="108.44659228">
<ele>1124.89</ele>
<time>2013-08-31T01:02:01Z</time>
</trkpt>
<trkpt lat="-6.88668847" lon="108.44641612">
<ele>1125.83</ele>
<time>2013-08-31T01:02:11Z</time>
</trkpt>
<trkpt lat="-6.88672489" lon="108.44623625">
<ele>1125.13</ele>
<time>2013-08-31T01:02:31Z</time>
</trkpt>
<trkpt lat="-6.88668942" lon="108.44604476">
<ele>1131.02</ele>
<time>2013-08-31T01:03:09Z</time>
</trkpt>
<trkpt lat="-6.8866505" lon="108.44585065">
<ele>1128.13</ele>
<time>2013-08-31T01:03:57Z</time>
</trkpt>
<trkpt lat="-6.88665528" lon="108.44566406">
<ele>1135.10</ele>
<time>2013-08-31T01:04:50Z</time>
</trkpt>
<trkpt lat="-6.88660898" lon="108.44545185">
<ele>1139.63</ele>
<time>2013-08-31T01:05:49Z</time>
</trkpt>
<trkpt lat="-6.88655943" lon="108.44524152">
<ele>1145.82</ele>
<time>2013-08-31T01:07:31Z</time>
</trkpt>
<trkpt lat="-6.88662171" lon="108.4450674">
<ele>1147.38</ele>
<time>2013-08-31T01:07:44Z</time>
</trkpt>
<trkpt lat="-6.88663689" lon="108.44488492">
<ele>1151.25</ele>
<time>2013-08-31T01:08:28Z</time>
</trkpt>
<trkpt lat="-6.8866791" lon="108.44465597">
<ele>1159.40</ele>
<time>2013-08-31T01:08:44Z</time>
</trkpt>
<trkpt lat="-6.88651021" lon="108.44458713">
<ele>1182.42</ele>
<time>2013-08-31T01:11:44Z</time>
</trkpt>
<trkpt lat="-6.8863183" lon="108.44462349">
<ele>1179.85</ele>
<time>2013-08-31T01:12:08Z</time>
</trkpt>
<trkpt lat="-6.88617207" lon="108.44451121">
<ele>1183.01</ele>
<time>2013-08-31T01:12:26Z</time>
</trkpt>
<trkpt lat="-6.88606159" lon="108.44466121">
<ele>1190.09</ele>
<time>2013-08-31T01:13:03Z</time>
</trkpt>
<trkpt lat="-6.88591089" lon="108.4447948">
<ele>1191.53</ele>
<time>2013-08-31T01:14:02Z</time>
</trkpt>
<trkpt lat="-6.88573573" lon="108.444845">
<ele>1188.75</ele>
<time>2013-08-31T01:14:29Z</time>
</trkpt>
<trkpt lat="-6.88555632" lon="108.44481185">
<ele>1193.19</ele>
<time>2013-08-31T01:14:52Z</time>
</trkpt>
<trkpt lat="-6.8853439" lon="108.44477404">
<ele>1193.47</ele>
<time>2013-08-31T01:15:40Z</time>
</trkpt>
<trkpt lat="-6.88516001" lon="108.44485008">
<ele>1193.97</ele>
<time>2013-08-31T01:15:54Z</time>
</trkpt>
<trkpt lat="-6.88496088" lon="108.44479652">
<ele>1197.99</ele>
<time>2013-08-31T01:16:43Z</time>
</trkpt>
<trkpt lat="-6.88477734" lon="108.4447869">
<ele>1197.02</ele>
<time>2013-08-31T01:17:00Z</time>
</trkpt>
<trkpt lat="-6.8845949" lon="108.44477158">
<ele>1205.86</ele>
<time>2013-08-31T01:17:23Z</time>
</trkpt>
<trkpt lat="-6.88441192" lon="108.44477252">
<ele>1208.78</ele>
<time>2013-08-31T01:17:52Z</time>
</trkpt>
<trkpt lat="-6.88433738" lon="108.44460716">
<ele>1214.02</ele>
<time>2013-08-31T01:19:41Z</time>
</trkpt>
<trkpt lat="-6.88421216" lon="108.44442724">
<ele>1220.62</ele>
<time>2013-08-31T01:20:34Z</time>
</trkpt>
<trkpt lat="-6.88407758" lon="108.44430528">
<ele>1225.43</ele>
<time>2013-08-31T01:20:44Z</time>
</trkpt>
<trkpt lat="-6.88400088" lon="108.44413585">
<ele>1239.62</ele>
<time>2013-08-31T01:22:31Z</time>
</trkpt>
<trkpt lat="-6.88392008" lon="108.44394311">
<ele>1238.91</ele>
<time>2013-08-31T01:22:41Z</time>
</trkpt>
<trkpt lat="-6.88406719" lon="108.44379179">
<ele>1241.78</ele>
<time>2013-08-31T01:30:48Z</time>
</trkpt>
<trkpt lat="-6.88420896" lon="108.44367295">
<ele>1254.49</ele>
<time>2013-08-31T01:31:49Z</time>
</trkpt>
<trkpt lat="-6.88424146" lon="108.44347456">
<ele>1256.81</ele>
<time>2013-08-31T01:32:59Z</time>
</trkpt>
<trkpt lat="-6.88406016" lon="108.4434617">
<ele>1279.68</ele>
<time>2013-08-31T01:34:06Z</time>
</trkpt>
<trkpt lat="-6.88402283" lon="108.44326412">
<ele>1280.23</ele>
<time>2013-08-31T01:34:18Z</time>
</trkpt>
<trkpt lat="-6.88397092" lon="108.44307898">
<ele>1284.78</ele>
<time>2013-08-31T01:35:20Z</time>
</trkpt>
<trkpt lat="-6.88385506" lon="108.44291387">
<ele>1297.57</ele>
<time>2013-08-31T01:38:53Z</time>
</trkpt>
<trkpt lat="-6.88384517" lon="108.4427215">
<ele>1297.37</ele>
<time>2013-08-31T01:39:04Z</time>
</trkpt>
<trkpt lat="-6.88385603" lon="108.44253541">
<ele>1304.74</ele>
<time>2013-08-31T01:39:16Z</time>
</trkpt>
<trkpt lat="-6.88400386" lon="108.44241109">
<ele>1309.81</ele>
<time>2013-08-31T01:41:12Z</time>
</trkpt>
<trkpt lat="-6.88393812" lon="108.44224144">
<ele>1312.12</ele>
<time>2013-08-31T01:42:25Z</time>
</trkpt>
<trkpt lat="-6.88377649" lon="108.44214106">
<ele>1328.29</ele>
<time>2013-08-31T01:43:15Z</time>
</trkpt>
<trkpt lat="-6.88364586" lon="108.44199349">
<ele>1333.99</ele>
<time>2013-08-31T01:44:00Z</time>
</trkpt>
<trkpt lat="-6.88362138" lon="108.44177874">
<ele>1344.28</ele>
<time>2013-08-31T01:44:47Z</time>
</trkpt>
<trkpt lat="-6.88344412" lon="108.44165445">
<ele>1349.59</ele>
<time>2013-08-31T01:45:57Z</time>
</trkpt>
<trkpt lat="-6.8832864" lon="108.44175162">
<ele>1351.86</ele>
<time>2013-08-31T01:46:05Z</time>
</trkpt>
<trkpt lat="-6.88311637" lon="108.44168971">
<ele>1359.84</ele>
<time>2013-08-31T01:47:21Z</time>
</trkpt>
<trkpt lat="-6.88307669" lon="108.44150707">
<ele>1359.56</ele>
<time>2013-08-31T01:47:34Z</time>
</trkpt>
<trkpt lat="-6.88319652" lon="108.4413698">
<ele>1356.94</ele>
<time>2013-08-31T01:48:34Z</time>
</trkpt>
<trkpt lat="-6.88316261" lon="108.44118241">
<ele>1356.48</ele>
<time>2013-08-31T01:48:49Z</time>
</trkpt>
<trkpt lat="-6.88318075" lon="108.44099757">
<ele>1361.10</ele>
<time>2013-08-31T01:49:09Z</time>
</trkpt>
<trkpt lat="-6.88318858" lon="108.44080984">
<ele>1362.22</ele>
<time>2013-08-31T01:49:35Z</time>
</trkpt>
<trkpt lat="-6.88315147" lon="108.44061631">
<ele>1368.67</ele>
<time>2013-08-31T01:50:23Z</time>
</trkpt>
<trkpt lat="-6.88297518" lon="108.4405618">
<ele>1383.17</ele>
<time>2013-08-31T01:52:09Z</time>
</trkpt>
<trkpt lat="-6.88287477" lon="108.44039237">
<ele>1382.84</ele>
<time>2013-08-31T01:53:13Z</time>
</trkpt>
<trkpt lat="-6.88273834" lon="108.44026074">
<ele>1391.50</ele>
<time>2013-08-31T01:53:43Z</time>
</trkpt>
<trkpt lat="-6.88266633" lon="108.44009105">
<ele>1401.18</ele>
<time>2013-08-31T01:54:20Z</time>
</trkpt>
<trkpt lat="-6.88271755" lon="108.43991189">
<ele>1400.67</ele>
<time>2013-08-31T01:54:40Z</time>
</trkpt>
<trkpt lat="-6.8828213" lon="108.43974722">
<ele>1400.19</ele>
<time>2013-08-31T01:55:46Z</time>
</trkpt>
<trkpt lat="-6.88272406" lon="108.43953284">
<ele>1405.71</ele>
<time>2013-08-31T01:56:29Z</time>
</trkpt>
<trkpt lat="-6.88270815" lon="108.43933553">
<ele>1406.23</ele>
<time>2013-08-31T01:56:39Z</time>
</trkpt>
<trkpt lat="-6.88271901" lon="108.4391547">
<ele>1425.26</ele>
<time>2013-08-31T01:57:57Z</time>
</trkpt>
<trkpt lat="-6.88290692" lon="108.43914614">
<ele>1437.00</ele>
<time>2013-08-31T02:01:00Z</time>
</trkpt>
<trkpt lat="-6.88288284" lon="108.43895815">
<ele>1434.95</ele>
<time>2013-08-31T02:01:12Z</time>
</trkpt>
<trkpt lat="-6.88297896" lon="108.43879706">
<ele>1438.22</ele>
<time>2013-08-31T02:18:11Z</time>
</trkpt>
<trkpt lat="-6.88299224" lon="108.43858297">
<ele>1459.43</ele>
<time>2013-08-31T02:20:34Z</time>
</trkpt>
<trkpt lat="-6.8830501" lon="108.43840276">
<ele>1458.56</ele>
<time>2013-08-31T02:20:49Z</time>
</trkpt>
<trkpt lat="-6.88313732" lon="108.43823937">
<ele>1458.86</ele>
<time>2013-08-31T02:21:16Z</time>
</trkpt>
<trkpt lat="-6.88320004" lon="108.43806061">
<ele>1471.11</ele>
<time>2013-08-31T02:22:08Z</time>
</trkpt>
<trkpt lat="-6.88306741" lon="108.43792499">
<ele>1473.34</ele>
<time>2013-08-31T02:23:17Z</time>
</trkpt>
<trkpt lat="-6.88303875" lon="108.43772549">
<ele>1496.69</ele>
<time>2013-08-31T02:24:44Z</time>
</trkpt>
<trkpt lat="-6.88289444" lon="108.43759495">
<ele>1499.29</ele>
<time>2013-08-31T02:25:54Z</time>
</trkpt>
<trkpt lat="-6.88295701" lon="108.43741222">
<ele>1513.96</ele>
<time>2013-08-31T02:26:56Z</time>
</trkpt>
<trkpt lat="-6.88305952" lon="108.43723505">
<ele>1533.25</ele>
<time>2013-08-31T02:28:14Z</time>
</trkpt>
<trkpt lat="-6.88306334" lon="108.43698524">
<ele>1545.46</ele>
<time>2013-08-31T02:30:54Z</time>
</trkpt>
<trkpt lat="-6.8830202" lon="108.43679933">
<ele>1548.53</ele>
<time>2013-08-31T02:31:18Z</time>
</trkpt>
<trkpt lat="-6.88291109" lon="108.4366479">
<ele>1561.86</ele>
<time>2013-08-31T02:33:48Z</time>
</trkpt>
<trkpt lat="-6.88293727" lon="108.43645533">
<ele>1563.73</ele>
<time>2013-08-31T02:34:01Z</time>
</trkpt>
<trkpt lat="-6.88289979" lon="108.43627146">
<ele>1576.15</ele>
<time>2013-08-31T02:36:21Z</time>
</trkpt>
<trkpt lat="-6.8830227" lon="108.43612311">
<ele>1574.76</ele>
<time>2013-08-31T02:39:58Z</time>
</trkpt>
<trkpt lat="-6.88315307" lon="108.4359897">
<ele>1598.77</ele>
<time>2013-08-31T02:42:29Z</time>
</trkpt>
<trkpt lat="-6.88323793" lon="108.43578461">
<ele>1602.24</ele>
<time>2013-08-31T02:42:58Z</time>
</trkpt>
<trkpt lat="-6.883367" lon="108.43564582">
<ele>1613.66</ele>
<time>2013-08-31T02:44:57Z</time>
</trkpt>
<trkpt lat="-6.88347182" lon="108.43548915">
<ele>1620.60</ele>
<time>2013-08-31T02:45:22Z</time>
</trkpt>
<trkpt lat="-6.88354416" lon="108.43531993">
<ele>1630.34</ele>
<time>2013-08-31T02:46:06Z</time>
</trkpt>
<trkpt lat="-6.88358069" lon="108.43513599">
<ele>1645.73</ele>
<time>2013-08-31T02:52:58Z</time>
</trkpt>
<trkpt lat="-6.8835605" lon="108.43493595">
<ele>1653.37</ele>
<time>2013-08-31T02:53:24Z</time>
</trkpt>
<trkpt lat="-6.88361085" lon="108.43475873">
<ele>1670.11</ele>
<time>2013-08-31T02:54:30Z</time>
</trkpt>
<trkpt lat="-6.88374711" lon="108.43461206">
<ele>1668.01</ele>
<time>2013-08-31T02:55:38Z</time>
</trkpt>
<trkpt lat="-6.88376243" lon="108.43442665">
<ele>1669.63</ele>
<time>2013-08-31T02:57:04Z</time>
</trkpt>
<trkpt lat="-6.88385743" lon="108.43427228">
<ele>1672.30</ele>
<time>2013-08-31T02:57:52Z</time>
</trkpt>
<trkpt lat="-6.88395621" lon="108.43411575">
<ele>1677.68</ele>
<time>2013-08-31T02:58:30Z</time>
</trkpt>
<trkpt lat="-6.88400318" lon="108.43393348">
<ele>1683.83</ele>
<time>2013-08-31T02:59:01Z</time>
</trkpt>
<trkpt lat="-6.88397683" lon="108.4337494">
<ele>1690.61</ele>
<time>2013-08-31T03:00:32Z</time>
</trkpt>
<trkpt lat="-6.88397596" lon="108.43356072">
<ele>1694.06</ele>
<time>2013-08-31T03:01:05Z</time>
</trkpt>
<trkpt lat="-6.88392649" lon="108.43337589">
<ele>1709.82</ele>
<time>2013-08-31T03:02:19Z</time>
</trkpt>
<trkpt lat="-6.88390968" lon="108.43318446">
<ele>1703.21</ele>
<time>2013-08-31T03:04:38Z</time>
</trkpt>
<trkpt lat="-6.88401479" lon="108.43303466">
<ele>1704.75</ele>
<time>2013-08-31T03:06:22Z</time>
</trkpt>
<trkpt lat="-6.88406078" lon="108.43285173">
<ele>1711.42</ele>
<time>2013-08-31T03:06:37Z</time>
</trkpt>
<trkpt lat="-6.88416871" lon="108.43270533">
<ele>1723.75</ele>
<time>2013-08-31T03:08:49Z</time>
</trkpt>
<trkpt lat="-6.88430441" lon="108.4325371">
<ele>1737.56</ele>
<time>2013-08-31T03:09:51Z</time>
</trkpt>
<trkpt lat="-6.88443699" lon="108.43237689">
<ele>1738.16</ele>
<time>2013-08-31T03:10:32Z</time>
</trkpt>
<trkpt lat="-6.88452199" lon="108.43221407">
<ele>1751.21</ele>
<time>2013-08-31T03:12:21Z</time>
</trkpt>
<trkpt lat="-6.88466517" lon="108.43210342">
<ele>1762.37</ele>
<time>2013-08-31T03:14:08Z</time>
</trkpt>
<trkpt lat="-6.88484249" lon="108.4320501">
<ele>1772.67</ele>
<time>2013-08-31T03:14:40Z</time>
</trkpt>
<trkpt lat="-6.88492217" lon="108.43187235">
<ele>1781.32</ele>
<time>2013-08-31T03:22:26Z</time>
</trkpt>
<trkpt lat="-6.8851034" lon="108.43179962">
<ele>1780.54</ele>
<time>2013-08-31T03:22:54Z</time>
</trkpt>
<trkpt lat="-6.88530432" lon="108.43180529">
<ele>1796.66</ele>
<time>2013-08-31T03:23:57Z</time>
</trkpt>
<trkpt lat="-6.88532953" lon="108.43162586">
<ele>1810.28</ele>
<time>2013-08-31T03:26:37Z</time>
</trkpt>
<trkpt lat="-6.8854616" lon="108.43147503">
<ele>1819.35</ele>
<time>2013-08-31T03:27:16Z</time>
</trkpt>
<trkpt lat="-6.88554845" lon="108.43129955">
<ele>1823.81</ele>
<time>2013-08-31T03:27:34Z</time>
</trkpt>
<trkpt lat="-6.88570246" lon="108.43118565">
<ele>1834.14</ele>
<time>2013-08-31T03:29:46Z</time>
</trkpt>
<trkpt lat="-6.88588754" lon="108.43115785">
<ele>1835.12</ele>
<time>2013-08-31T03:30:17Z</time>
</trkpt>
<trkpt lat="-6.885983" lon="108.4309821">
<ele>1830.94</ele>
<time>2013-08-31T03:33:51Z</time>
</trkpt>
<trkpt lat="-6.88608145" lon="108.43082811">
<ele>1835.73</ele>
<time>2013-08-31T03:36:14Z</time>
</trkpt>
<trkpt lat="-6.88603786" lon="108.43064808">
<ele>1845.19</ele>
<time>2013-08-31T03:37:00Z</time>
</trkpt>
<trkpt lat="-6.88607611" lon="108.43046361">
<ele>1851.35</ele>
<time>2013-08-31T03:37:32Z</time>
</trkpt>
<trkpt lat="-6.88623465" lon="108.43036299">
<ele>1864.43</ele>
<time>2013-08-31T03:40:33Z</time>
</trkpt>
<trkpt lat="-6.88641663" lon="108.43032082">
<ele>1867.37</ele>
<time>2013-08-31T03:41:20Z</time>
</trkpt>
<trkpt lat="-6.88653229" lon="108.43046619">
<ele>1891.18</ele>
<time>2013-08-31T03:42:23Z</time>
</trkpt>
<trkpt lat="-6.88643438" lon="108.43030621">
<ele>1889.72</ele>
<time>2013-08-31T03:46:57Z</time>
</trkpt>
<trkpt lat="-6.88661655" lon="108.4302345">
<ele>1908.87</ele>
<time>2013-08-31T03:56:08Z</time>
</trkpt>
<trkpt lat="-6.88678792" lon="108.4301716">
<ele>1904.37</ele>
<time>2013-08-31T03:56:30Z</time>
</trkpt>
<trkpt lat="-6.88695381" lon="108.4300627">
<ele>1904.14</ele>
<time>2013-08-31T03:57:51Z</time>
</trkpt>
<trkpt lat="-6.8871614" lon="108.42994061">
<ele>1913.98</ele>
<time>2013-08-31T04:02:07Z</time>
</trkpt>
<trkpt lat="-6.88730939" lon="108.4298355">
<ele>1915.06</ele>
<time>2013-08-31T04:02:12Z</time>
</trkpt>
<trkpt lat="-6.88724431" lon="108.42965231">
<ele>1920.68</ele>
<time>2013-08-31T04:02:39Z</time>
</trkpt>
<trkpt lat="-6.8873569" lon="108.4297977">
<ele>1931.27</ele>
<time>2013-08-31T04:03:07Z</time>
</trkpt>
<trkpt lat="-6.88760838" lon="108.4297818">
<ele>1934.21</ele>
<time>2013-08-31T04:06:11Z</time>
</trkpt>
<trkpt lat="-6.88779237" lon="108.42978607">
<ele>1957.91</ele>
<time>2013-08-31T04:10:44Z</time>
</trkpt>
<trkpt lat="-6.88794877" lon="108.42969223">
<ele>1962.02</ele>
<time>2013-08-31T04:12:18Z</time>
</trkpt>
<trkpt lat="-6.88812369" lon="108.42960469">
<ele>1966.35</ele>
<time>2013-08-31T04:12:26Z</time>
</trkpt>
<trkpt lat="-6.88828437" lon="108.42972036">
<ele>1978.07</ele>
<time>2013-08-31T04:12:57Z</time>
</trkpt>
<trkpt lat="-6.88848138" lon="108.4297114">
<ele>1988.15</ele>
<time>2013-08-31T04:15:29Z</time>
</trkpt>
<trkpt lat="-6.88864906" lon="108.42963382">
<ele>1996.32</ele>
<time>2013-08-31T04:15:47Z</time>
</trkpt>
<trkpt lat="-6.88875707" lon="108.42948145">
<ele>2007.26</ele>
<time>2013-08-31T04:16:49Z</time>
</trkpt>
<trkpt lat="-6.88868048" lon="108.4293048">
<ele>2018.38</ele>
<time>2013-08-31T04:17:50Z</time>
</trkpt>
<trkpt lat="-6.88854182" lon="108.4291867">
<ele>2024.05</ele>
<time>2013-08-31T04:18:14Z</time>
</trkpt>
<trkpt lat="-6.88862082" lon="108.42896643">
<ele>2032.02</ele>
<time>2013-08-31T04:20:16Z</time>
</trkpt>
<trkpt lat="-6.88878372" lon="108.42886963">
<ele>2036.25</ele>
<time>2013-08-31T04:21:11Z</time>
</trkpt>
<trkpt lat="-6.88892473" lon="108.42874036">
<ele>2036.51</ele>
<time>2013-08-31T04:21:56Z</time>
</trkpt>
<trkpt lat="-6.88909284" lon="108.42860947">
<ele>2042.55</ele>
<time>2013-08-31T04:23:36Z</time>
</trkpt>
<trkpt lat="-6.88913676" lon="108.4284319">
<ele>2051.11</ele>
<time>2013-08-31T04:24:49Z</time>
</trkpt>
<trkpt lat="-6.88925866" lon="108.42829147">
<ele>2065.52</ele>
<time>2013-08-31T04:25:19Z</time>
</trkpt>
<trkpt lat="-6.88907839" lon="108.42827545">
<ele>2133.28</ele>
<time>2013-08-31T05:03:40Z</time>
</trkpt>
<trkpt lat="-6.8891886" lon="108.42811056">
<ele>2126.54</ele>
<time>2013-08-31T05:15:34Z</time>
</trkpt>
<trkpt lat="-6.88917145" lon="108.42792536">
<ele>2109.04</ele>
<time>2013-08-31T05:16:46Z</time>
</trkpt>
<trkpt lat="-6.88921003" lon="108.42774146">
<ele>2110.74</ele>
<time>2013-08-31T05:18:16Z</time>
</trkpt>
<trkpt lat="-6.88929549" lon="108.42756881">
<ele>2113.32</ele>
<time>2013-08-31T05:18:35Z</time>
</trkpt>
<trkpt lat="-6.88928923" lon="108.42737934">
<ele>2122.63</ele>
<time>2013-08-31T05:20:12Z</time>
</trkpt>
<trkpt lat="-6.88924367" lon="108.42720148">
<ele>2127.79</ele>
<time>2013-08-31T05:21:19Z</time>
</trkpt>
<trkpt lat="-6.88933097" lon="108.42704027">
<ele>2137.09</ele>
<time>2013-08-31T05:23:03Z</time>
</trkpt>
<trkpt lat="-6.88940285" lon="108.4268733">
<ele>2145.31</ele>
<time>2013-08-31T05:23:44Z</time>
</trkpt>
<trkpt lat="-6.88945029" lon="108.4266769">
<ele>2152.52</ele>
<time>2013-08-31T05:25:37Z</time>
</trkpt>
<trkpt lat="-6.88960244" lon="108.42657251">
<ele>2158.47</ele>
<time>2013-08-31T05:25:54Z</time>
</trkpt>
<trkpt lat="-6.88974111" lon="108.42645629">
<ele>2165.80</ele>
<time>2013-08-31T05:26:44Z</time>
</trkpt>
<trkpt lat="-6.88987245" lon="108.42633029">
<ele>2174.67</ele>
<time>2013-08-31T05:27:29Z</time>
</trkpt>
<trkpt lat="-6.88970195" lon="108.42625787">
<ele>2180.99</ele>
<time>2013-08-31T05:27:59Z</time>
</trkpt>
<trkpt lat="-6.88972413" lon="108.42607781">
<ele>2199.53</ele>
<time>2013-08-31T05:30:46Z</time>
</trkpt>
<trkpt lat="-6.88977409" lon="108.42590225">
<ele>2200.95</ele>
<time>2013-08-31T05:32:55Z</time>
</trkpt>
<trkpt lat="-6.88980973" lon="108.42572458">
<ele>2204.45</ele>
<time>2013-08-31T05:33:50Z</time>
</trkpt>
<trkpt lat="-6.88996482" lon="108.42562884">
<ele>2210.78</ele>
<time>2013-08-31T05:34:42Z</time>
</trkpt>
<trkpt lat="-6.89002984" lon="108.42544783">
<ele>2222.55</ele>
<time>2013-08-31T05:35:47Z</time>
</trkpt>
<trkpt lat="-6.88998789" lon="108.42526265">
<ele>2230.48</ele>
<time>2013-08-31T05:37:20Z</time>
</trkpt>
<trkpt lat="-6.88996569" lon="108.42506321">
<ele>2241.57</ele>
<time>2013-08-31T05:38:51Z</time>
</trkpt>
<trkpt lat="-6.88986543" lon="108.42490397">
<ele>2243.29</ele>
<time>2013-08-31T05:39:43Z</time>
</trkpt>
<trkpt lat="-6.8900754" lon="108.42481697">
<ele>2259.70</ele>
<time>2013-08-31T05:42:21Z</time>
</trkpt>
<trkpt lat="-6.89005037" lon="108.42461783">
<ele>2271.14</ele>
<time>2013-08-31T05:43:00Z</time>
</trkpt>
<trkpt lat="-6.88996852" lon="108.42444796">
<ele>2277.31</ele>
<time>2013-08-31T05:44:00Z</time>
</trkpt>
<trkpt lat="-6.88996479" lon="108.42426046">
<ele>2278.79</ele>
<time>2013-08-31T05:44:24Z</time>
</trkpt>
<trkpt lat="-6.88997126" lon="108.42406482">
<ele>2280.79</ele>
<time>2013-08-31T05:48:20Z</time>
</trkpt>
<trkpt lat="-6.8900487" lon="108.42389837">
<ele>2288.00</ele>
<time>2013-08-31T05:49:01Z</time>
</trkpt>
<trkpt lat="-6.88995676" lon="108.4237377">
<ele>2288.85</ele>
<time>2013-08-31T05:50:07Z</time>
</trkpt>
<trkpt lat="-6.88982789" lon="108.42358254">
<ele>2300.01</ele>
<time>2013-08-31T05:51:18Z</time>
</trkpt>
<trkpt lat="-6.88982134" lon="108.4233659">
<ele>2323.39</ele>
<time>2013-08-31T05:52:50Z</time>
</trkpt>
<trkpt lat="-6.88969098" lon="108.42323154">
<ele>2335.35</ele>
<time>2013-08-31T05:56:01Z</time>
</trkpt>
<trkpt lat="-6.88969859" lon="108.42303704">
<ele>2336.82</ele>
<time>2013-08-31T05:58:56Z</time>
</trkpt>
<trkpt lat="-6.88982598" lon="108.42289305">
<ele>2346.37</ele>
<time>2013-08-31T05:59:35Z</time>
</trkpt>
<trkpt lat="-6.88988358" lon="108.42271854">
<ele>2349.51</ele>
<time>2013-08-31T06:00:14Z</time>
</trkpt>
<trkpt lat="-6.89001396" lon="108.42259306">
<ele>2352.46</ele>
<time>2013-08-31T06:03:00Z</time>
</trkpt>
<trkpt lat="-6.89005026" lon="108.42241182">
<ele>2352.44</ele>
<time>2013-08-31T06:03:09Z</time>
</trkpt>
<trkpt lat="-6.89022092" lon="108.4223486">
<ele>2365.88</ele>
<time>2013-08-31T06:04:03Z</time>
</trkpt>
<trkpt lat="-6.89031525" lon="108.42219038">
<ele>2370.77</ele>
<time>2013-08-31T06:05:01Z</time>
</trkpt>
<trkpt lat="-6.89039194" lon="108.42202239">
<ele>2388.33</ele>
<time>2013-08-31T06:07:35Z</time>
</trkpt>
<trkpt lat="-6.89051916" lon="108.42184994">
<ele>2393.51</ele>
<time>2013-08-31T06:08:14Z</time>
</trkpt>
<trkpt lat="-6.89050815" lon="108.4216588">
<ele>2406.69</ele>
<time>2013-08-31T06:09:41Z</time>
</trkpt>
<trkpt lat="-6.89052697" lon="108.4214713">
<ele>2410.64</ele>
<time>2013-08-31T06:10:49Z</time>
</trkpt>
<trkpt lat="-6.89069447" lon="108.42138907">
<ele>2420.87</ele>
<time>2013-08-31T06:12:40Z</time>
</trkpt>
<trkpt lat="-6.89085309" lon="108.42122111">
<ele>2421.13</ele>
<time>2013-08-31T06:14:02Z</time>
</trkpt>
<trkpt lat="-6.89088143" lon="108.42104113">
<ele>2433.26</ele>
<time>2013-08-31T06:15:29Z</time>
</trkpt>
<trkpt lat="-6.891006" lon="108.42087355">
<ele>2438.34</ele>
<time>2013-08-31T06:15:37Z</time>
</trkpt>
<trkpt lat="-6.89082782" lon="108.42083021">
<ele>2460.49</ele>
<time>2013-08-31T06:17:57Z</time>
</trkpt>
<trkpt lat="-6.89087516" lon="108.42100512">
<ele>2489.43</ele>
<time>2013-08-31T06:20:13Z</time>
</trkpt>
<trkpt lat="-6.89097617" lon="108.42084429">
<ele>2493.07</ele>
<time>2013-08-31T06:25:15Z</time>
</trkpt>
<trkpt lat="-6.89097841" lon="108.42065087">
<ele>2490.13</ele>
<time>2013-08-31T06:26:26Z</time>
</trkpt>
<trkpt lat="-6.89113531" lon="108.42053041">
<ele>2493.19</ele>
<time>2013-08-31T06:28:43Z</time>
</trkpt>
<trkpt lat="-6.89121464" lon="108.42035194">
<ele>2502.45</ele>
<time>2013-08-31T06:30:01Z</time>
</trkpt>
<trkpt lat="-6.89126587" lon="108.4201777">
<ele>2513.92</ele>
<time>2013-08-31T06:32:33Z</time>
</trkpt>
<trkpt lat="-6.89133347" lon="108.41997989">
<ele>2529.67</ele>
<time>2013-08-31T06:34:13Z</time>
</trkpt>
<trkpt lat="-6.89136357" lon="108.41979321">
<ele>2540.59</ele>
<time>2013-08-31T06:35:50Z</time>
</trkpt>
<trkpt lat="-6.89141742" lon="108.41961468">
<ele>2548.95</ele>
<time>2013-08-31T06:36:59Z</time>
</trkpt>
<trkpt lat="-6.89139096" lon="108.41943435">
<ele>2563.13</ele>
<time>2013-08-31T06:39:59Z</time>
</trkpt>
<trkpt lat="-6.89143511" lon="108.41925209">
<ele>2571.11</ele>
<time>2013-08-31T06:41:32Z</time>
</trkpt>
<trkpt lat="-6.89148852" lon="108.41907867">
<ele>2572.76</ele>
<time>2013-08-31T06:42:20Z</time>
</trkpt>
<trkpt lat="-6.89155979" lon="108.41889763">
<ele>2568.69</ele>
<time>2013-08-31T06:42:40Z</time>
</trkpt>
<trkpt lat="-6.89164776" lon="108.41873923">
<ele>2607.20</ele>
<time>2013-08-31T06:50:27Z</time>
</trkpt>
<trkpt lat="-6.89179668" lon="108.4186267">
<ele>2614.55</ele>
<time>2013-08-31T06:52:02Z</time>
</trkpt>
<trkpt lat="-6.89190634" lon="108.41847929">
<ele>2623.04</ele>
<time>2013-08-31T06:53:45Z</time>
</trkpt>
<trkpt lat="-6.89197945" lon="108.41831308">
<ele>2640.20</ele>
<time>2013-08-31T07:06:01Z</time>
</trkpt>
<trkpt lat="-6.89198756" lon="108.4181319">
<ele>2643.37</ele>
<time>2013-08-31T07:07:43Z</time>
</trkpt>
<trkpt lat="-6.8920619" lon="108.41795994">
<ele>2654.90</ele>
<time>2013-08-31T07:09:52Z</time>
</trkpt>
<trkpt lat="-6.89208815" lon="108.41778089">
<ele>2658.28</ele>
<time>2013-08-31T07:11:36Z</time>
</trkpt>
<trkpt lat="-6.89219594" lon="108.41763009">
<ele>2672.39</ele>
<time>2013-08-31T07:13:56Z</time>
</trkpt>
<trkpt lat="-6.89222939" lon="108.41744675">
<ele>2678.19</ele>
<time>2013-08-31T07:15:34Z</time>
</trkpt>
<trkpt lat="-6.89236059" lon="108.41732019">
<ele>2705.30</ele>
<time>2013-08-31T07:19:49Z</time>
</trkpt>
<trkpt lat="-6.89241379" lon="108.41714499">
<ele>2712.13</ele>
<time>2013-08-31T07:21:28Z</time>
</trkpt>
<trkpt lat="-6.89243899" lon="108.41696303">
<ele>2720.13</ele>
<time>2013-08-31T07:25:06Z</time>
</trkpt>
<trkpt lat="-6.89244381" lon="108.41678021">
<ele>2724.30</ele>
<time>2013-08-31T07:26:46Z</time>
</trkpt>
<trkpt lat="-6.89252089" lon="108.41661055">
<ele>2733.93</ele>
<time>2013-08-31T07:29:20Z</time>
</trkpt>
<trkpt lat="-6.89267895" lon="108.41652182">
<ele>2753.94</ele>
<time>2013-08-31T07:45:29Z</time>
</trkpt>
<trkpt lat="-6.8926967" lon="108.41633653">
<ele>2761.59</ele>
<time>2013-08-31T07:48:13Z</time>
</trkpt>
<trkpt lat="-6.8927574" lon="108.41614667">
<ele>2775.43</ele>
<time>2013-08-31T07:51:00Z</time>
</trkpt>
<trkpt lat="-6.89283929" lon="108.41598453">
<ele>2790.20</ele>
<time>2013-08-31T07:54:10Z</time>
</trkpt>
<trkpt lat="-6.89286892" lon="108.41580466">
<ele>2797.63</ele>
<time>2013-08-31T07:55:57Z</time>
</trkpt>
<trkpt lat="-6.89293722" lon="108.4156337">
<ele>2803.87</ele>
<time>2013-08-31T07:58:02Z</time>
</trkpt>
<trkpt lat="-6.89300803" lon="108.4154662">
<ele>2809.69</ele>
<time>2013-08-31T07:59:40Z</time>
</trkpt>
<trkpt lat="-6.89308507" lon="108.41529857">
<ele>2817.58</ele>
<time>2013-08-31T08:01:18Z</time>
</trkpt>
<trkpt lat="-6.89324466" lon="108.41518495">
<ele>2823.59</ele>
<time>2013-08-31T08:22:14Z</time>
</trkpt>
<trkpt lat="-6.89336775" lon="108.41503434">
<ele>2823.25</ele>
<time>2013-08-31T08:24:20Z</time>
</trkpt>
<trkpt lat="-6.89352219" lon="108.41493366">
<ele>2831.69</ele>
<time>2013-08-31T08:24:48Z</time>
</trkpt>
<trkpt lat="-6.89364825" lon="108.41479441">
<ele>2836.78</ele>
<time>2013-08-31T08:26:03Z</time>
</trkpt>
<trkpt lat="-6.89373" lon="108.41462899">
<ele>2838.83</ele>
<time>2013-08-31T08:26:40Z</time>
</trkpt>
<trkpt lat="-6.89390464" lon="108.41455534">
<ele>2848.64</ele>
<time>2013-08-31T08:28:51Z</time>
</trkpt>
<trkpt lat="-6.89400982" lon="108.41439325">
<ele>2874.28</ele>
<time>2013-08-31T08:32:32Z</time>
</trkpt>
<trkpt lat="-6.89408496" lon="108.41421964">
<ele>2879.35</ele>
<time>2013-08-31T08:33:25Z</time>
</trkpt>
<trkpt lat="-6.89414339" lon="108.41404621">
<ele>2881.86</ele>
<time>2013-08-31T08:34:55Z</time>
</trkpt>
<trkpt lat="-6.894228" lon="108.41385459">
<ele>2892.15</ele>
<time>2013-08-31T08:37:37Z</time>
</trkpt>
<trkpt lat="-6.89428001" lon="108.41365189">
<ele>2908.25</ele>
<time>2013-08-31T08:40:17Z</time>
</trkpt>
<trkpt lat="-6.89425784" lon="108.41346417">
<ele>2923.10</ele>
<time>2013-08-31T08:42:55Z</time>
</trkpt>
<trkpt lat="-6.89424187" lon="108.41325739">
<ele>2940.46</ele>
<time>2013-08-31T08:45:18Z</time>
</trkpt>
<trkpt lat="-6.89414168" lon="108.41308729">
<ele>2950.81</ele>
<time>2013-08-31T08:48:42Z</time>
</trkpt>
<trkpt lat="-6.89414102" lon="108.41290504">
<ele>2954.46</ele>
<time>2013-08-31T08:48:52Z</time>
</trkpt>
<trkpt lat="-6.89415375" lon="108.41271217">
<ele>2978.12</ele>
<time>2013-08-31T08:54:01Z</time>
</trkpt>
<trkpt lat="-6.8941489" lon="108.4125309">
<ele>2989.22</ele>
<time>2013-08-31T08:55:28Z</time>
</trkpt>
<trkpt lat="-6.89413896" lon="108.41234716">
<ele>3005.96</ele>
<time>2013-08-31T08:57:36Z</time>
</trkpt>
<trkpt lat="-6.89416784" lon="108.41214997">
<ele>3032.50</ele>
<time>2013-08-31T09:03:35Z</time>
</trkpt>
<trkpt lat="-6.89416808" lon="108.41196168">
<ele>3045.07</ele>
<time>2013-08-31T09:05:11Z</time>
</trkpt>
<trkpt lat="-6.89430411" lon="108.41208109">
<ele>3119.02</ele>
<time>2013-08-31T10:07:03Z</time>
</trkpt>
<trkpt lat="-6.89421773" lon="108.41192206">
<ele>3077.75</ele>
<time>2013-08-31T10:20:39Z</time>
</trkpt>
<trkpt lat="-6.89419129" lon="108.41186128">
<ele>3036.56</ele>
<time>2013-09-01T01:24:14Z</time>
</trkpt>
<trkpt lat="-6.89437647" lon="108.41185912">
<ele>3033.82</ele>
<time>2013-09-01T01:26:05Z</time>
</trkpt>
<trkpt lat="-6.89455382" lon="108.41181892">
<ele>3042.57</ele>
<time>2013-09-01T01:27:24Z</time>
</trkpt>
<trkpt lat="-6.89473475" lon="108.41178995">
<ele>3049.55</ele>
<time>2013-09-01T01:28:48Z</time>
</trkpt>
<trkpt lat="-6.89491658" lon="108.41175965">
<ele>3045.60</ele>
<time>2013-09-01T01:32:44Z</time>
</trkpt>
<trkpt lat="-6.895099" lon="108.41174469">
<ele>3045.78</ele>
<time>2013-09-01T01:33:52Z</time>
</trkpt>
<trkpt lat="-6.89527835" lon="108.41171952">
<ele>3045.79</ele>
<time>2013-09-01T01:35:07Z</time>
</trkpt>
<trkpt lat="-6.89546163" lon="108.41171426">
<ele>3048.13</ele>
<time>2013-09-01T01:35:45Z</time>
</trkpt>
<trkpt lat="-6.89566773" lon="108.41170188">
<ele>3043.06</ele>
<time>2013-09-01T01:38:11Z</time>
</trkpt>
<trkpt lat="-6.89582449" lon="108.41159553">
<ele>3039.39</ele>
<time>2013-09-01T01:39:20Z</time>
</trkpt>
<trkpt lat="-6.89598411" lon="108.41150568">
<ele>3047.18</ele>
<time>2013-09-01T01:39:49Z</time>
</trkpt>
<trkpt lat="-6.89614756" lon="108.41140521">
<ele>3045.50</ele>
<time>2013-09-01T01:40:58Z</time>
</trkpt>
<trkpt lat="-6.89631792" lon="108.41132103">
<ele>3049.63</ele>
<time>2013-09-01T01:41:27Z</time>
</trkpt>
<trkpt lat="-6.89648704" lon="108.41124202">
<ele>3054.98</ele>
<time>2013-09-01T01:42:47Z</time>
</trkpt>
<trkpt lat="-6.89661202" lon="108.41106527">
<ele>3052.24</ele>
<time>2013-09-01T01:43:52Z</time>
</trkpt>
<trkpt lat="-6.89676781" lon="108.4109698">
<ele>3049.89</ele>
<time>2013-09-01T01:44:10Z</time>
</trkpt>
<trkpt lat="-6.89691861" lon="108.41086708">
<ele>3053.40</ele>
<time>2013-09-01T01:46:58Z</time>
</trkpt>
<trkpt lat="-6.8970344" lon="108.41072553">
<ele>3052.66</ele>
<time>2013-09-01T01:47:28Z</time>
</trkpt>
<trkpt lat="-6.89715021" lon="108.41057077">
<ele>3051.75</ele>
<time>2013-09-01T01:48:27Z</time>
</trkpt>
<trkpt lat="-6.8972071" lon="108.41038802">
<ele>3054.98</ele>
<time>2013-09-01T01:48:53Z</time>
</trkpt>
<trkpt lat="-6.89723128" lon="108.41020075">
<ele>3053.78</ele>
<time>2013-09-01T01:49:31Z</time>
</trkpt>
<trkpt lat="-6.89731887" lon="108.41003809">
<ele>3048.08</ele>
<time>2013-09-01T01:51:01Z</time>
</trkpt>
<trkpt lat="-6.89737934" lon="108.40986056">
<ele>3056.17</ele>
<time>2013-09-01T01:53:02Z</time>
</trkpt>
<trkpt lat="-6.89744015" lon="108.40966876">
<ele>3055.77</ele>
<time>2013-09-01T01:53:30Z</time>
</trkpt>
<trkpt lat="-6.89743917" lon="108.40948268">
<ele>3054.12</ele>
<time>2013-09-01T01:54:18Z</time>
</trkpt>
<trkpt lat="-6.89730248" lon="108.40877938">
<ele>3056.29</ele>
<time>2013-09-01T01:57:20Z</time>
</trkpt>
<trkpt lat="-6.89729486" lon="108.40859822">
<ele>3057.49</ele>
<time>2013-09-01T01:57:44Z</time>
</trkpt>
<trkpt lat="-6.89724823" lon="108.40841855">
<ele>3054.01</ele>
<time>2013-09-01T01:58:54Z</time>
</trkpt>
<trkpt lat="-6.8972603" lon="108.40822396">
<ele>3057.05</ele>
<time>2013-09-01T01:59:31Z</time>
</trkpt>
<trkpt lat="-6.89736131" lon="108.40804317">
<ele>3057.08</ele>
<time>2013-09-01T02:00:25Z</time>
</trkpt>
<trkpt lat="-6.89745251" lon="108.40787648">
<ele>3045.69</ele>
<time>2013-09-01T02:02:54Z</time>
</trkpt>
<trkpt lat="-6.89754725" lon="108.40772176">
<ele>3040.03</ele>
<time>2013-09-01T02:04:38Z</time>
</trkpt>
<trkpt lat="-6.89752816" lon="108.40754038">
<ele>3041.39</ele>
<time>2013-09-01T02:07:01Z</time>
</trkpt>
<trkpt lat="-6.8975372" lon="108.40735595">
<ele>3042.80</ele>
<time>2013-09-01T02:07:23Z</time>
</trkpt>
<trkpt lat="-6.89756917" lon="108.40717777">
<ele>3041.71</ele>
<time>2013-09-01T02:07:46Z</time>
</trkpt>
<trkpt lat="-6.89761334" lon="108.40699456">
<ele>3043.13</ele>
<time>2013-09-01T02:08:09Z</time>
</trkpt>
<trkpt lat="-6.89763414" lon="108.40681016">
<ele>3045.99</ele>
<time>2013-09-01T02:08:37Z</time>
</trkpt>
<trkpt lat="-6.89761481" lon="108.40660709">
<ele>3050.96</ele>
<time>2013-09-01T02:09:36Z</time>
</trkpt>
<trkpt lat="-6.89761443" lon="108.40626617">
<ele>3051.98</ele>
<time>2013-09-01T02:10:15Z</time>
</trkpt>
<trkpt lat="-6.89768723" lon="108.40609622">
<ele>3048.82</ele>
<time>2013-09-01T02:13:10Z</time>
</trkpt>
<trkpt lat="-6.8976978" lon="108.40590858">
<ele>3052.36</ele>
<time>2013-09-01T02:13:33Z</time>
</trkpt>
<trkpt lat="-6.89770139" lon="108.40572715">
<ele>3052.31</ele>
<time>2013-09-01T02:13:54Z</time>
</trkpt>
<trkpt lat="-6.89765695" lon="108.40553814">
<ele>3050.26</ele>
<time>2013-09-01T02:14:16Z</time>
</trkpt>
<trkpt lat="-6.89757033" lon="108.40537375">
<ele>3050.59</ele>
<time>2013-09-01T02:15:07Z</time>
</trkpt>
<trkpt lat="-6.89750175" lon="108.40519299">
<ele>3052.28</ele>
<time>2013-09-01T02:15:32Z</time>
</trkpt>
<trkpt lat="-6.89744308" lon="108.40502178">
<ele>3055.53</ele>
<time>2013-09-01T02:15:59Z</time>
</trkpt>
<trkpt lat="-6.89727567" lon="108.40495175">
<ele>3054.66</ele>
<time>2013-09-01T02:20:56Z</time>
</trkpt>
<trkpt lat="-6.89717649" lon="108.4047698">
<ele>3056.10</ele>
<time>2013-09-01T02:22:30Z</time>
</trkpt>
<trkpt lat="-6.89704666" lon="108.404634">
<ele>3057.93</ele>
<time>2013-09-01T02:23:37Z</time>
</trkpt>
<trkpt lat="-6.89695087" lon="108.40446834">
<ele>3056.40</ele>
<time>2013-09-01T02:25:21Z</time>
</trkpt>
<trkpt lat="-6.89702103" lon="108.40430066">
<ele>3046.24</ele>
<time>2013-09-01T02:27:15Z</time>
</trkpt>
<trkpt lat="-6.89700695" lon="108.40412017">
<ele>3032.78</ele>
<time>2013-09-01T02:29:06Z</time>
</trkpt>
<trkpt lat="-6.89714659" lon="108.40399939">
<ele>3030.57</ele>
<time>2013-09-01T02:30:58Z</time>
</trkpt>
<trkpt lat="-6.89732254" lon="108.40394043">
<ele>3015.66</ele>
<time>2013-09-01T02:32:22Z</time>
</trkpt>
<trkpt lat="-6.89748175" lon="108.40379125">
<ele>3005.93</ele>
<time>2013-09-01T02:34:11Z</time>
</trkpt>
<trkpt lat="-6.89757931" lon="108.40361772">
<ele>2989.14</ele>
<time>2013-09-01T02:36:13Z</time>
</trkpt>
<trkpt lat="-6.89768308" lon="108.40346927">
<ele>2975.20</ele>
<time>2013-09-01T02:37:38Z</time>
</trkpt>
<trkpt lat="-6.89783622" lon="108.40337087">
<ele>2965.20</ele>
<time>2013-09-01T02:38:24Z</time>
</trkpt>
<trkpt lat="-6.89798387" lon="108.40325839">
<ele>2959.59</ele>
<time>2013-09-01T02:39:38Z</time>
</trkpt>
<trkpt lat="-6.89817012" lon="108.40325429">
<ele>2951.36</ele>
<time>2013-09-01T02:40:55Z</time>
</trkpt>
<trkpt lat="-6.8983269" lon="108.40315234">
<ele>2944.17</ele>
<time>2013-09-01T02:43:00Z</time>
</trkpt>
<trkpt lat="-6.89850721" lon="108.40307027">
<ele>2936.80</ele>
<time>2013-09-01T02:44:20Z</time>
</trkpt>
<trkpt lat="-6.89855178" lon="108.40288765">
<ele>2929.89</ele>
<time>2013-09-01T02:48:17Z</time>
</trkpt>
<trkpt lat="-6.89870767" lon="108.40278621">
<ele>2923.58</ele>
<time>2013-09-01T02:50:24Z</time>
</trkpt>
<trkpt lat="-6.89883887" lon="108.4026469">
<ele>2901.75</ele>
<time>2013-09-01T02:51:40Z</time>
</trkpt>
<trkpt lat="-6.89898358" lon="108.40253662">
<ele>2902.48</ele>
<time>2013-09-01T02:51:51Z</time>
</trkpt>
<trkpt lat="-6.89916569" lon="108.40248757">
<ele>2886.43</ele>
<time>2013-09-01T02:54:08Z</time>
</trkpt>
<trkpt lat="-6.89933087" lon="108.40239627">
<ele>2870.59</ele>
<time>2013-09-01T02:55:31Z</time>
</trkpt>
<trkpt lat="-6.89950461" lon="108.40234066">
<ele>2861.80</ele>
<time>2013-09-01T02:56:20Z</time>
</trkpt>
<trkpt lat="-6.89965989" lon="108.40224323">
<ele>2850.72</ele>
<time>2013-09-01T02:58:03Z</time>
</trkpt>
<trkpt lat="-6.89984334" lon="108.40221174">
<ele>2841.61</ele>
<time>2013-09-01T03:00:58Z</time>
</trkpt>
<trkpt lat="-6.90002647" lon="108.4021888">
<ele>2831.39</ele>
<time>2013-09-01T03:02:15Z</time>
</trkpt>
<trkpt lat="-6.90020323" lon="108.40213181">
<ele>2817.17</ele>
<time>2013-09-01T03:03:40Z</time>
</trkpt>
<trkpt lat="-6.90038674" lon="108.40208125">
<ele>2806.49</ele>
<time>2013-09-01T03:06:06Z</time>
</trkpt>
<trkpt lat="-6.90056754" lon="108.40206385">
<ele>2798.38</ele>
<time>2013-09-01T03:07:21Z</time>
</trkpt>
<trkpt lat="-6.90075953" lon="108.40201002">
<ele>2778.63</ele>
<time>2013-09-01T03:09:21Z</time>
</trkpt>
<trkpt lat="-6.90091848" lon="108.40191881">
<ele>2755.68</ele>
<time>2013-09-01T03:11:26Z</time>
</trkpt>
<trkpt lat="-6.90108817" lon="108.40182484">
<ele>2744.09</ele>
<time>2013-09-01T03:13:03Z</time>
</trkpt>
<trkpt lat="-6.90124038" lon="108.40172376">
<ele>2738.53</ele>
<time>2013-09-01T03:13:41Z</time>
</trkpt>
<trkpt lat="-6.90140901" lon="108.40165716">
<ele>2727.83</ele>
<time>2013-09-01T03:15:47Z</time>
</trkpt>
<trkpt lat="-6.90148806" lon="108.40148041">
<ele>2719.05</ele>
<time>2013-09-01T03:16:39Z</time>
</trkpt>
<trkpt lat="-6.90162137" lon="108.40134774">
<ele>2712.38</ele>
<time>2013-09-01T03:17:36Z</time>
</trkpt>
<trkpt lat="-6.90177892" lon="108.40125359">
<ele>2701.61</ele>
<time>2013-09-01T03:18:31Z</time>
</trkpt>
<trkpt lat="-6.90196356" lon="108.40124217">
<ele>2692.75</ele>
<time>2013-09-01T03:18:58Z</time>
</trkpt>
<trkpt lat="-6.90215189" lon="108.40120816">
<ele>2689.51</ele>
<time>2013-09-01T03:19:45Z</time>
</trkpt>
<trkpt lat="-6.9023325" lon="108.4011744">
<ele>2678.62</ele>
<time>2013-09-01T03:20:43Z</time>
</trkpt>
<trkpt lat="-6.90250777" lon="108.40122769">
<ele>2674.33</ele>
<time>2013-09-01T03:21:24Z</time>
</trkpt>
<trkpt lat="-6.9026272" lon="108.40108616">
<ele>2667.23</ele>
<time>2013-09-01T03:22:31Z</time>
</trkpt>
<trkpt lat="-6.90274711" lon="108.40093663">
<ele>2658.11</ele>
<time>2013-09-01T03:23:12Z</time>
</trkpt>
<trkpt lat="-6.90289121" lon="108.40079469">
<ele>2647.71</ele>
<time>2013-09-01T03:24:36Z</time>
</trkpt>
<trkpt lat="-6.9030673" lon="108.40075321">
<ele>2633.26</ele>
<time>2013-09-01T03:25:24Z</time>
</trkpt>
<trkpt lat="-6.90325552" lon="108.40074222">
<ele>2627.25</ele>
<time>2013-09-01T03:26:02Z</time>
</trkpt>
<trkpt lat="-6.90343506" lon="108.40069764">
<ele>2624.33</ele>
<time>2013-09-01T03:26:44Z</time>
</trkpt>
<trkpt lat="-6.90357749" lon="108.4005858">
<ele>2610.89</ele>
<time>2013-09-01T03:27:28Z</time>
</trkpt>
<trkpt lat="-6.90378344" lon="108.40051661">
<ele>2598.79</ele>
<time>2013-09-01T03:38:42Z</time>
</trkpt>
<trkpt lat="-6.90395475" lon="108.40043645">
<ele>2589.10</ele>
<time>2013-09-01T03:41:32Z</time>
</trkpt>
<trkpt lat="-6.90413902" lon="108.40043951">
<ele>2585.48</ele>
<time>2013-09-01T03:42:14Z</time>
</trkpt>
<trkpt lat="-6.90432023" lon="108.40039561">
<ele>2583.05</ele>
<time>2013-09-01T03:42:52Z</time>
</trkpt>
<trkpt lat="-6.90563803" lon="108.40050335">
<ele>2570.48</ele>
<time>2013-09-01T03:48:12Z</time>
</trkpt>
<trkpt lat="-6.90582147" lon="108.40043494">
<ele>2513.95</ele>
<time>2013-09-01T03:50:02Z</time>
</trkpt>
<trkpt lat="-6.90600749" lon="108.40044377">
<ele>2515.44</ele>
<time>2013-09-01T03:50:22Z</time>
</trkpt>
<trkpt lat="-6.90617517" lon="108.40033536">
<ele>2517.29</ele>
<time>2013-09-01T03:50:57Z</time>
</trkpt>
<trkpt lat="-6.90635659" lon="108.40029919">
<ele>2517.96</ele>
<time>2013-09-01T03:51:23Z</time>
</trkpt>
<trkpt lat="-6.9065426" lon="108.40032032">
<ele>2516.88</ele>
<time>2013-09-01T03:51:53Z</time>
</trkpt>
<trkpt lat="-6.90671116" lon="108.40022082">
<ele>2509.11</ele>
<time>2013-09-01T03:52:48Z</time>
</trkpt>
<trkpt lat="-6.90690954" lon="108.40026629">
<ele>2504.62</ele>
<time>2013-09-01T03:53:09Z</time>
</trkpt>
<trkpt lat="-6.90708003" lon="108.40020167">
<ele>2482.99</ele>
<time>2013-09-01T03:53:48Z</time>
</trkpt>
<trkpt lat="-6.90726829" lon="108.4002015">
<ele>2465.82</ele>
<time>2013-09-01T03:54:42Z</time>
</trkpt>
<trkpt lat="-6.90745434" lon="108.4001753">
<ele>2468.21</ele>
<time>2013-09-01T03:55:35Z</time>
</trkpt>
<trkpt lat="-6.90764143" lon="108.4002023">
<ele>2455.37</ele>
<time>2013-09-01T03:56:12Z</time>
</trkpt>
<trkpt lat="-6.90782564" lon="108.40020418">
<ele>2452.50</ele>
<time>2013-09-01T03:56:27Z</time>
</trkpt>
<trkpt lat="-6.90801006" lon="108.40019462">
<ele>2444.34</ele>
<time>2013-09-01T03:56:45Z</time>
</trkpt>
<trkpt lat="-6.9081756" lon="108.40026867">
<ele>2439.65</ele>
<time>2013-09-01T03:59:48Z</time>
</trkpt>
<trkpt lat="-6.90829173" lon="108.40012478">
<ele>2438.66</ele>
<time>2013-09-01T04:00:02Z</time>
</trkpt>
<trkpt lat="-6.90846903" lon="108.40005922">
<ele>2437.76</ele>
<time>2013-09-01T04:00:24Z</time>
</trkpt>
<trkpt lat="-6.90866389" lon="108.4001019">
<ele>2431.21</ele>
<time>2013-09-01T04:00:56Z</time>
</trkpt>
<trkpt lat="-6.90882777" lon="108.4001914">
<ele>2418.39</ele>
<time>2013-09-01T04:01:28Z</time>
</trkpt>
<trkpt lat="-6.90896099" lon="108.40032836">
<ele>2417.42</ele>
<time>2013-09-01T04:01:53Z</time>
</trkpt>
<trkpt lat="-6.90915527" lon="108.4003703">
<ele>2418.46</ele>
<time>2013-09-01T04:02:06Z</time>
</trkpt>
<trkpt lat="-6.909336" lon="108.40038383">
<ele>2404.20</ele>
<time>2013-09-01T04:03:31Z</time>
</trkpt>
<trkpt lat="-6.90953656" lon="108.40035737">
<ele>2398.49</ele>
<time>2013-09-01T04:04:11Z</time>
</trkpt>
<trkpt lat="-6.90971411" lon="108.400306">
<ele>2398.51</ele>
<time>2013-09-01T04:04:20Z</time>
</trkpt>
<trkpt lat="-6.90989914" lon="108.40027423">
<ele>2399.73</ele>
<time>2013-09-01T04:04:34Z</time>
</trkpt>
<trkpt lat="-6.91200424" lon="108.40021103">
<ele>2392.10</ele>
<time>2013-09-01T04:10:17Z</time>
</trkpt>
<trkpt lat="-6.91218514" lon="108.40024352">
<ele>2336.77</ele>
<time>2013-09-01T04:10:47Z</time>
</trkpt>
<trkpt lat="-6.91234761" lon="108.40015263">
<ele>2329.66</ele>
<time>2013-09-01T04:11:25Z</time>
</trkpt>
<trkpt lat="-6.91253021" lon="108.4001378">
<ele>2323.46</ele>
<time>2013-09-01T04:11:50Z</time>
</trkpt>
<trkpt lat="-6.91271184" lon="108.40011157">
<ele>2323.29</ele>
<time>2013-09-01T04:12:24Z</time>
</trkpt>
<trkpt lat="-6.91290077" lon="108.40008245">
<ele>2318.40</ele>
<time>2013-09-01T04:12:37Z</time>
</trkpt>
<trkpt lat="-6.91301398" lon="108.39992741">
<ele>2310.80</ele>
<time>2013-09-01T04:13:21Z</time>
</trkpt>
<trkpt lat="-6.91308642" lon="108.39975412">
<ele>2312.21</ele>
<time>2013-09-01T04:13:47Z</time>
</trkpt>
<trkpt lat="-6.91322336" lon="108.39962817">
<ele>2308.20</ele>
<time>2013-09-01T04:14:21Z</time>
</trkpt>
<trkpt lat="-6.91339678" lon="108.39969564">
<ele>2300.18</ele>
<time>2013-09-01T04:15:07Z</time>
</trkpt>
<trkpt lat="-6.91358413" lon="108.39969337">
<ele>2299.86</ele>
<time>2013-09-01T04:15:51Z</time>
</trkpt>
<trkpt lat="-6.91376059" lon="108.39977266">
<ele>2294.72</ele>
<time>2013-09-01T04:16:04Z</time>
</trkpt>
<trkpt lat="-6.91394243" lon="108.39977677">
<ele>2287.81</ele>
<time>2013-09-01T04:16:45Z</time>
</trkpt>
<trkpt lat="-6.9141484" lon="108.39979022">
<ele>2284.51</ele>
<time>2013-09-01T04:16:53Z</time>
</trkpt>
<trkpt lat="-6.91430465" lon="108.39968958">
<ele>2273.39</ele>
<time>2013-09-01T04:17:20Z</time>
</trkpt>
<trkpt lat="-6.91449792" lon="108.39970475">
<ele>2269.06</ele>
<time>2013-09-01T04:19:28Z</time>
</trkpt>
<trkpt lat="-6.91468928" lon="108.39972096">
<ele>2265.50</ele>
<time>2013-09-01T04:19:48Z</time>
</trkpt>
<trkpt lat="-6.91486983" lon="108.39970542">
<ele>2254.61</ele>
<time>2013-09-01T04:20:55Z</time>
</trkpt>
<trkpt lat="-6.91508242" lon="108.39974955">
<ele>2246.02</ele>
<time>2013-09-01T04:21:51Z</time>
</trkpt>
<trkpt lat="-6.91524943" lon="108.39967556">
<ele>2247.09</ele>
<time>2013-09-01T04:22:06Z</time>
</trkpt>
<trkpt lat="-6.91542892" lon="108.39974992">
<ele>2243.90</ele>
<time>2013-09-01T04:22:54Z</time>
</trkpt>
<trkpt lat="-6.91562792" lon="108.39975209">
<ele>2239.95</ele>
<time>2013-09-01T04:23:49Z</time>
</trkpt>
<trkpt lat="-6.91581925" lon="108.39973006">
<ele>2233.00</ele>
<time>2013-09-01T04:24:03Z</time>
</trkpt>
<trkpt lat="-6.91597406" lon="108.39982419">
<ele>2223.46</ele>
<time>2013-09-01T04:24:17Z</time>
</trkpt>
<trkpt lat="-6.91617235" lon="108.39984552">
<ele>2208.57</ele>
<time>2013-09-01T04:25:25Z</time>
</trkpt>
<trkpt lat="-6.91633298" lon="108.39993957">
<ele>2204.84</ele>
<time>2013-09-01T04:25:36Z</time>
</trkpt>
<trkpt lat="-6.91648812" lon="108.40005112">
<ele>2191.85</ele>
<time>2013-09-01T04:26:21Z</time>
</trkpt>
<trkpt lat="-6.91666173" lon="108.4001075">
<ele>2188.69</ele>
<time>2013-09-01T04:26:32Z</time>
</trkpt>
<trkpt lat="-6.91675089" lon="108.39991983">
<ele>2179.89</ele>
<time>2013-09-01T04:28:25Z</time>
</trkpt>
<trkpt lat="-6.91687348" lon="108.39977772">
<ele>2181.49</ele>
<time>2013-09-01T04:29:36Z</time>
</trkpt>
<trkpt lat="-6.91709193" lon="108.39976996">
<ele>2161.06</ele>
<time>2013-09-01T04:32:14Z</time>
</trkpt>
<trkpt lat="-6.91728136" lon="108.39979277">
<ele>2146.35</ele>
<time>2013-09-01T04:33:48Z</time>
</trkpt>
<trkpt lat="-6.91746432" lon="108.39975457">
<ele>2144.88</ele>
<time>2013-09-01T04:34:52Z</time>
</trkpt>
<trkpt lat="-6.91767778" lon="108.39976309">
<ele>2139.72</ele>
<time>2013-09-01T04:35:46Z</time>
</trkpt>
<trkpt lat="-6.9178463" lon="108.39985388">
<ele>2134.28</ele>
<time>2013-09-01T04:36:06Z</time>
</trkpt>
<trkpt lat="-6.91798353" lon="108.39997867">
<ele>2126.77</ele>
<time>2013-09-01T04:36:44Z</time>
</trkpt>
<trkpt lat="-6.91817067" lon="108.40001125">
<ele>2118.58</ele>
<time>2013-09-01T04:38:29Z</time>
</trkpt>
<trkpt lat="-6.91836833" lon="108.40003029">
<ele>2105.66</ele>
<time>2013-09-01T04:39:29Z</time>
</trkpt>
<trkpt lat="-6.91851703" lon="108.39992227">
<ele>2101.38</ele>
<time>2013-09-01T04:39:45Z</time>
</trkpt>
<trkpt lat="-6.91867809" lon="108.39982889">
<ele>2100.48</ele>
<time>2013-09-01T04:40:07Z</time>
</trkpt>
<trkpt lat="-6.91884997" lon="108.39988604">
<ele>2095.37</ele>
<time>2013-09-01T04:40:27Z</time>
</trkpt>
<trkpt lat="-6.91899092" lon="108.400006">
<ele>2091.23</ele>
<time>2013-09-01T04:40:44Z</time>
</trkpt>
<trkpt lat="-6.91917765" lon="108.4000583">
<ele>2088.40</ele>
<time>2013-09-01T04:41:08Z</time>
</trkpt>
<trkpt lat="-6.91934121" lon="108.39996873">
<ele>2088.59</ele>
<time>2013-09-01T04:41:28Z</time>
</trkpt>
<trkpt lat="-6.91952238" lon="108.39997341">
<ele>2089.98</ele>
<time>2013-09-01T04:42:05Z</time>
</trkpt>
<trkpt lat="-6.91969953" lon="108.40003793">
<ele>2077.26</ele>
<time>2013-09-01T04:42:38Z</time>
</trkpt>
<trkpt lat="-6.91989529" lon="108.40013357">
<ele>2068.33</ele>
<time>2013-09-01T04:43:12Z</time>
</trkpt>
<trkpt lat="-6.92002958" lon="108.40026954">
<ele>2070.32</ele>
<time>2013-09-01T04:43:32Z</time>
</trkpt>
<trkpt lat="-6.92014788" lon="108.40042903">
<ele>2063.25</ele>
<time>2013-09-01T04:43:50Z</time>
</trkpt>
<trkpt lat="-6.92036477" lon="108.4004593">
<ele>2086.94</ele>
<time>2013-09-01T05:12:06Z</time>
</trkpt>
<trkpt lat="-6.92053551" lon="108.40052558">
<ele>2080.90</ele>
<time>2013-09-01T05:12:15Z</time>
</trkpt>
<trkpt lat="-6.9206935" lon="108.40063308">
<ele>2071.81</ele>
<time>2013-09-01T05:13:05Z</time>
</trkpt>
<trkpt lat="-6.92069901" lon="108.40082087">
<ele>2056.99</ele>
<time>2013-09-01T05:13:17Z</time>
</trkpt>
<trkpt lat="-6.92073963" lon="108.40100139">
<ele>2052.01</ele>
<time>2013-09-01T05:13:37Z</time>
</trkpt>
<trkpt lat="-6.9208777" lon="108.40113152">
<ele>2046.85</ele>
<time>2013-09-01T05:14:24Z</time>
</trkpt>
<trkpt lat="-6.92100016" lon="108.40126695">
<ele>2039.22</ele>
<time>2013-09-01T05:14:37Z</time>
</trkpt>
<trkpt lat="-6.9211158" lon="108.4014316">
<ele>2034.79</ele>
<time>2013-09-01T05:15:01Z</time>
</trkpt>
<trkpt lat="-6.92126439" lon="108.40154107">
<ele>2034.03</ele>
<time>2013-09-01T05:15:20Z</time>
</trkpt>
<trkpt lat="-6.92139497" lon="108.40171138">
<ele>2030.56</ele>
<time>2013-09-01T05:15:51Z</time>
</trkpt>
<trkpt lat="-6.92152565" lon="108.40184895">
<ele>2026.43</ele>
<time>2013-09-01T05:16:48Z</time>
</trkpt>
<trkpt lat="-6.92171114" lon="108.4018708">
<ele>2023.75</ele>
<time>2013-09-01T05:16:57Z</time>
</trkpt>
<trkpt lat="-6.92186476" lon="108.40196732">
<ele>2011.16</ele>
<time>2013-09-01T05:18:00Z</time>
</trkpt>
<trkpt lat="-6.92205981" lon="108.40192235">
<ele>1996.70</ele>
<time>2013-09-01T05:18:57Z</time>
</trkpt>
<trkpt lat="-6.92223786" lon="108.40195455">
<ele>1994.99</ele>
<time>2013-09-01T05:20:04Z</time>
</trkpt>
<trkpt lat="-6.92240208" lon="108.40205">
<ele>1989.69</ele>
<time>2013-09-01T05:20:42Z</time>
</trkpt>
<trkpt lat="-6.92257575" lon="108.40199082">
<ele>1974.82</ele>
<time>2013-09-01T05:21:03Z</time>
</trkpt>
<trkpt lat="-6.92273894" lon="108.40207811">
<ele>1964.22</ele>
<time>2013-09-01T05:21:43Z</time>
</trkpt>
<trkpt lat="-6.92293643" lon="108.40213794">
<ele>1949.30</ele>
<time>2013-09-01T05:22:39Z</time>
</trkpt>
<trkpt lat="-6.92314508" lon="108.40211617">
<ele>1951.49</ele>
<time>2013-09-01T05:23:09Z</time>
</trkpt>
<trkpt lat="-6.92329258" lon="108.40222536">
<ele>1948.37</ele>
<time>2013-09-01T05:23:41Z</time>
</trkpt>
<trkpt lat="-6.92348179" lon="108.40224925">
<ele>1945.89</ele>
<time>2013-09-01T05:24:07Z</time>
</trkpt>
<trkpt lat="-6.92360894" lon="108.4023925">
<ele>1945.44</ele>
<time>2013-09-01T05:24:20Z</time>
</trkpt>
<trkpt lat="-6.92380849" lon="108.40260124">
<ele>1944.18</ele>
<time>2013-09-01T05:24:32Z</time>
</trkpt>
<trkpt lat="-6.92391212" lon="108.40275473">
<ele>1940.36</ele>
<time>2013-09-01T05:24:56Z</time>
</trkpt>
<trkpt lat="-6.92403027" lon="108.40290988">
<ele>1935.54</ele>
<time>2013-09-01T05:25:58Z</time>
</trkpt>
<trkpt lat="-6.92420837" lon="108.40296364">
<ele>1928.15</ele>
<time>2013-09-01T05:26:46Z</time>
</trkpt>
<trkpt lat="-6.92438201" lon="108.40302604">
<ele>1912.94</ele>
<time>2013-09-01T05:27:30Z</time>
</trkpt>
<trkpt lat="-6.92454512" lon="108.40311544">
<ele>1904.31</ele>
<time>2013-09-01T05:28:08Z</time>
</trkpt>
<trkpt lat="-6.92473016" lon="108.40316484">
<ele>1895.66</ele>
<time>2013-09-01T05:29:04Z</time>
</trkpt>
<trkpt lat="-6.924849" lon="108.40330353">
<ele>1880.44</ele>
<time>2013-09-01T05:29:32Z</time>
</trkpt>
<trkpt lat="-6.92502975" lon="108.40335039">
<ele>1877.21</ele>
<time>2013-09-01T05:30:03Z</time>
</trkpt>
<trkpt lat="-6.92522568" lon="108.40327696">
<ele>1877.07</ele>
<time>2013-09-01T05:30:54Z</time>
</trkpt>
<trkpt lat="-6.92536665" lon="108.40316189">
<ele>1871.32</ele>
<time>2013-09-01T05:31:17Z</time>
</trkpt>
<trkpt lat="-6.92554422" lon="108.40312535">
<ele>1867.55</ele>
<time>2013-09-01T05:31:36Z</time>
</trkpt>
<trkpt lat="-6.92571808" lon="108.40304984">
<ele>1861.92</ele>
<time>2013-09-01T05:32:06Z</time>
</trkpt>
<trkpt lat="-6.9259143" lon="108.40306521">
<ele>1857.81</ele>
<time>2013-09-01T05:32:17Z</time>
</trkpt>
<trkpt lat="-6.92612207" lon="108.40305037">
<ele>1853.43</ele>
<time>2013-09-01T05:33:50Z</time>
</trkpt>
<trkpt lat="-6.92627574" lon="108.40317434">
<ele>1848.94</ele>
<time>2013-09-01T05:34:02Z</time>
</trkpt>
<trkpt lat="-6.92646106" lon="108.4031661">
<ele>1845.65</ele>
<time>2013-09-01T05:34:20Z</time>
</trkpt>
<trkpt lat="-6.9265702" lon="108.40331577">
<ele>1846.15</ele>
<time>2013-09-01T05:34:36Z</time>
</trkpt>
<trkpt lat="-6.92675857" lon="108.40338254">
<ele>1850.11</ele>
<time>2013-09-01T05:35:10Z</time>
</trkpt>
<trkpt lat="-6.92695075" lon="108.40339257">
<ele>1850.98</ele>
<time>2013-09-01T05:35:29Z</time>
</trkpt>
<trkpt lat="-6.92710579" lon="108.40351034">
<ele>1849.28</ele>
<time>2013-09-01T05:35:46Z</time>
</trkpt>
<trkpt lat="-6.92724578" lon="108.40363912">
<ele>1843.14</ele>
<time>2013-09-01T05:36:07Z</time>
</trkpt>
<trkpt lat="-6.92740781" lon="108.40371979">
<ele>1840.09</ele>
<time>2013-09-01T05:36:19Z</time>
</trkpt>
<trkpt lat="-6.92757927" lon="108.40377792">
<ele>1834.22</ele>
<time>2013-09-01T05:36:36Z</time>
</trkpt>
<trkpt lat="-6.92775962" lon="108.40379403">
<ele>1831.05</ele>
<time>2013-09-01T05:38:05Z</time>
</trkpt>
<trkpt lat="-6.92789885" lon="108.40367352">
<ele>1826.70</ele>
<time>2013-09-01T05:38:22Z</time>
</trkpt>
<trkpt lat="-6.92807976" lon="108.40376224">
<ele>1823.20</ele>
<time>2013-09-01T05:38:52Z</time>
</trkpt>
<trkpt lat="-6.92825934" lon="108.40382179">
<ele>1818.35</ele>
<time>2013-09-01T05:39:01Z</time>
</trkpt>
<trkpt lat="-6.92842059" lon="108.40391411">
<ele>1819.65</ele>
<time>2013-09-01T05:39:26Z</time>
</trkpt>
<trkpt lat="-6.92862274" lon="108.40392864">
<ele>1816.24</ele>
<time>2013-09-01T05:39:38Z</time>
</trkpt>
<trkpt lat="-6.92880242" lon="108.40386198">
<ele>1811.02</ele>
<time>2013-09-01T05:39:58Z</time>
</trkpt>
<trkpt lat="-6.92896763" lon="108.40396837">
<ele>1812.78</ele>
<time>2013-09-01T05:40:13Z</time>
</trkpt>
<trkpt lat="-6.92906484" lon="108.40412219">
<ele>1808.82</ele>
<time>2013-09-01T05:40:37Z</time>
</trkpt>
<trkpt lat="-6.92923867" lon="108.40417821">
<ele>1804.12</ele>
<time>2013-09-01T05:41:05Z</time>
</trkpt>
<trkpt lat="-6.92938727" lon="108.40406433">
<ele>1802.10</ele>
<time>2013-09-01T05:41:15Z</time>
</trkpt>
<trkpt lat="-6.9295422" lon="108.40417768">
<ele>1800.06</ele>
<time>2013-09-01T05:41:32Z</time>
</trkpt>
<trkpt lat="-6.92963254" lon="108.40435251">
<ele>1794.07</ele>
<time>2013-09-01T05:41:56Z</time>
</trkpt>
<trkpt lat="-6.92979667" lon="108.40445633">
<ele>1792.11</ele>
<time>2013-09-01T05:42:18Z</time>
</trkpt>
<trkpt lat="-6.92990626" lon="108.40460411">
<ele>1788.15</ele>
<time>2013-09-01T05:42:38Z</time>
</trkpt>
<trkpt lat="-6.93005544" lon="108.40471354">
<ele>1784.41</ele>
<time>2013-09-01T05:42:53Z</time>
</trkpt>
<trkpt lat="-6.93021572" lon="108.40483518">
<ele>1783.54</ele>
<time>2013-09-01T05:43:21Z</time>
</trkpt>
<trkpt lat="-6.93035479" lon="108.40495823">
<ele>1784.81</ele>
<time>2013-09-01T05:43:45Z</time>
</trkpt>
<trkpt lat="-6.93053618" lon="108.40494095">
<ele>1781.93</ele>
<time>2013-09-01T05:44:01Z</time>
</trkpt>
<trkpt lat="-6.93065024" lon="108.40510116">
<ele>1780.86</ele>
<time>2013-09-01T05:44:24Z</time>
</trkpt>
<trkpt lat="-6.93077091" lon="108.40524269">
<ele>1776.27</ele>
<time>2013-09-01T05:44:34Z</time>
</trkpt>
<trkpt lat="-6.93093912" lon="108.40534047">
<ele>1771.01</ele>
<time>2013-09-01T05:44:56Z</time>
</trkpt>
<trkpt lat="-6.93110292" lon="108.40542546">
<ele>1765.81</ele>
<time>2013-09-01T05:45:24Z</time>
</trkpt>
<trkpt lat="-6.93128471" lon="108.40541944">
<ele>1762.58</ele>
<time>2013-09-01T05:45:38Z</time>
</trkpt>
<trkpt lat="-6.93146639" lon="108.40543998">
<ele>1762.88</ele>
<time>2013-09-01T05:45:52Z</time>
</trkpt>
<trkpt lat="-6.93169721" lon="108.40548548">
<ele>1758.47</ele>
<time>2013-09-01T05:46:11Z</time>
</trkpt>
<trkpt lat="-6.93184357" lon="108.4055954">
<ele>1759.81</ele>
<time>2013-09-01T05:46:23Z</time>
</trkpt>
<trkpt lat="-6.93187955" lon="108.40578335">
<ele>1755.89</ele>
<time>2013-09-01T05:46:43Z</time>
</trkpt>
<trkpt lat="-6.93197738" lon="108.40593569">
<ele>1750.64</ele>
<time>2013-09-01T05:47:04Z</time>
</trkpt>
<trkpt lat="-6.93207612" lon="108.40610515">
<ele>1748.07</ele>
<time>2013-09-01T05:47:26Z</time>
</trkpt>
<trkpt lat="-6.93214756" lon="108.40627715">
<ele>1735.24</ele>
<time>2013-09-01T05:50:09Z</time>
</trkpt>
<trkpt lat="-6.93229581" lon="108.40639023">
<ele>1736.45</ele>
<time>2013-09-01T05:50:30Z</time>
</trkpt>
<trkpt lat="-6.9324459" lon="108.4065033">
<ele>1727.48</ele>
<time>2013-09-01T05:51:15Z</time>
</trkpt>
<trkpt lat="-6.9324376" lon="108.40669097">
<ele>1716.31</ele>
<time>2013-09-01T05:51:50Z</time>
</trkpt>
<trkpt lat="-6.93249844" lon="108.40688991">
<ele>1713.11</ele>
<time>2013-09-01T05:52:03Z</time>
</trkpt>
<trkpt lat="-6.93252135" lon="108.40708243">
<ele>1708.30</ele>
<time>2013-09-01T05:52:34Z</time>
</trkpt>
<trkpt lat="-6.93262783" lon="108.40724723">
<ele>1704.53</ele>
<time>2013-09-01T05:52:49Z</time>
</trkpt>
<trkpt lat="-6.93263516" lon="108.40743104">
<ele>1698.51</ele>
<time>2013-09-01T05:53:10Z</time>
</trkpt>
<trkpt lat="-6.93267896" lon="108.40761767">
<ele>1693.11</ele>
<time>2013-09-01T05:55:45Z</time>
</trkpt>
<trkpt lat="-6.93275444" lon="108.40778901">
<ele>1690.46</ele>
<time>2013-09-01T05:55:56Z</time>
</trkpt>
<trkpt lat="-6.93262518" lon="108.40793313">
<ele>1681.98</ele>
<time>2013-09-01T05:56:23Z</time>
</trkpt>
<trkpt lat="-6.93256113" lon="108.4081166">
<ele>1680.62</ele>
<time>2013-09-01T05:56:50Z</time>
</trkpt>
<trkpt lat="-6.93261226" lon="108.4082908">
<ele>1678.87</ele>
<time>2013-09-01T05:57:15Z</time>
</trkpt>
<trkpt lat="-6.93254795" lon="108.40847314">
<ele>1675.36</ele>
<time>2013-09-01T05:57:41Z</time>
</trkpt>
<trkpt lat="-6.9324394" lon="108.40861848">
<ele>1665.77</ele>
<time>2013-09-01T05:58:02Z</time>
</trkpt>
<trkpt lat="-6.93259217" lon="108.40875849">
<ele>1660.63</ele>
<time>2013-09-01T05:58:22Z</time>
</trkpt>
<trkpt lat="-6.93274507" lon="108.40885801">
<ele>1660.34</ele>
<time>2013-09-01T05:58:57Z</time>
</trkpt>
<trkpt lat="-6.93287024" lon="108.4090243">
<ele>1654.49</ele>
<time>2013-09-01T05:59:09Z</time>
</trkpt>
<trkpt lat="-6.93294905" lon="108.40919058">
<ele>1654.43</ele>
<time>2013-09-01T05:59:25Z</time>
</trkpt>
<trkpt lat="-6.93301586" lon="108.40937282">
<ele>1646.24</ele>
<time>2013-09-01T05:59:53Z</time>
</trkpt>
<trkpt lat="-6.93302348" lon="108.4095842">
<ele>1644.28</ele>
<time>2013-09-01T06:00:25Z</time>
</trkpt>
<trkpt lat="-6.93313512" lon="108.40974099">
<ele>1641.64</ele>
<time>2013-09-01T06:00:42Z</time>
</trkpt>
<trkpt lat="-6.93327811" lon="108.40985698">
<ele>1636.61</ele>
<time>2013-09-01T06:01:09Z</time>
</trkpt>
<trkpt lat="-6.93344661" lon="108.40993222">
<ele>1635.21</ele>
<time>2013-09-01T06:01:32Z</time>
</trkpt>
<trkpt lat="-6.93364004" lon="108.41001149">
<ele>1629.53</ele>
<time>2013-09-01T06:02:29Z</time>
</trkpt>
<trkpt lat="-6.93380919" lon="108.41007584">
<ele>1621.44</ele>
<time>2013-09-01T06:02:52Z</time>
</trkpt>
<trkpt lat="-6.93393155" lon="108.40993314">
<ele>1613.75</ele>
<time>2013-09-01T06:04:52Z</time>
</trkpt>
<trkpt lat="-6.93408833" lon="108.40981038">
<ele>1615.74</ele>
<time>2013-09-01T06:05:35Z</time>
</trkpt>
<trkpt lat="-6.93426182" lon="108.40975154">
<ele>1610.40</ele>
<time>2013-09-01T06:06:00Z</time>
</trkpt>
<trkpt lat="-6.934452" lon="108.40970022">
<ele>1617.56</ele>
<time>2013-09-01T06:09:07Z</time>
</trkpt>
<trkpt lat="-6.93431058" lon="108.4098263">
<ele>1607.18</ele>
<time>2013-09-01T06:09:30Z</time>
</trkpt>
<trkpt lat="-6.93451767" lon="108.40984712">
<ele>1617.81</ele>
<time>2013-09-01T06:11:32Z</time>
</trkpt>
<trkpt lat="-6.93470783" lon="108.40986299">
<ele>1612.88</ele>
<time>2013-09-01T06:12:07Z</time>
</trkpt>
<trkpt lat="-6.93483898" lon="108.4100001">
<ele>1610.51</ele>
<time>2013-09-01T06:12:25Z</time>
</trkpt>
<trkpt lat="-6.93500168" lon="108.41009451">
<ele>1612.57</ele>
<time>2013-09-01T06:12:44Z</time>
</trkpt>
<trkpt lat="-6.93507673" lon="108.41026748">
<ele>1614.65</ele>
<time>2013-09-01T06:13:30Z</time>
</trkpt>
<trkpt lat="-6.93522335" lon="108.41039643">
<ele>1611.61</ele>
<time>2013-09-01T06:13:40Z</time>
</trkpt>
<trkpt lat="-6.93535334" lon="108.41053986">
<ele>1608.33</ele>
<time>2013-09-01T06:14:01Z</time>
</trkpt>
<trkpt lat="-6.93551408" lon="108.41062906">
<ele>1601.29</ele>
<time>2013-09-01T06:14:28Z</time>
</trkpt>
<trkpt lat="-6.9356052" lon="108.41078948">
<ele>1595.17</ele>
<time>2013-09-01T06:14:44Z</time>
</trkpt>
<trkpt lat="-6.93570225" lon="108.41094306">
<ele>1592.26</ele>
<time>2013-09-01T06:15:10Z</time>
</trkpt>
<trkpt lat="-6.93583236" lon="108.41109096">
<ele>1598.83</ele>
<time>2013-09-01T06:15:21Z</time>
</trkpt>
<trkpt lat="-6.93589773" lon="108.4112815">
<ele>1587.38</ele>
<time>2013-09-01T06:15:59Z</time>
</trkpt>
<trkpt lat="-6.93605305" lon="108.41137542">
<ele>1584.95</ele>
<time>2013-09-01T06:16:32Z</time>
</trkpt>
<trkpt lat="-6.93617624" lon="108.41153144">
<ele>1587.80</ele>
<time>2013-09-01T06:16:45Z</time>
</trkpt>
<trkpt lat="-6.93624229" lon="108.41171098">
<ele>1587.64</ele>
<time>2013-09-01T06:17:25Z</time>
</trkpt>
<trkpt lat="-6.93631256" lon="108.41188743">
<ele>1582.98</ele>
<time>2013-09-01T06:17:33Z</time>
</trkpt>
<trkpt lat="-6.93648202" lon="108.41197936">
<ele>1570.36</ele>
<time>2013-09-01T06:18:13Z</time>
</trkpt>
<trkpt lat="-6.93666623" lon="108.41197">
<ele>1567.57</ele>
<time>2013-09-01T06:18:32Z</time>
</trkpt>
<trkpt lat="-6.93681593" lon="108.41207162">
<ele>1572.70</ele>
<time>2013-09-01T06:18:48Z</time>
</trkpt>
<trkpt lat="-6.93701203" lon="108.41214142">
<ele>1581.28</ele>
<time>2013-09-01T06:19:26Z</time>
</trkpt>
<trkpt lat="-6.9371584" lon="108.41225708">
<ele>1580.96</ele>
<time>2013-09-01T06:19:33Z</time>
</trkpt>
<trkpt lat="-6.9372371" lon="108.41243539">
<ele>1583.53</ele>
<time>2013-09-01T06:19:56Z</time>
</trkpt>
<trkpt lat="-6.93716459" lon="108.41260834">
<ele>1582.89</ele>
<time>2013-09-01T06:20:31Z</time>
</trkpt>
<trkpt lat="-6.93720637" lon="108.41278505">
<ele>1580.45</ele>
<time>2013-09-01T06:20:40Z</time>
</trkpt>
<trkpt lat="-6.93723036" lon="108.41296551">
<ele>1575.88</ele>
<time>2013-09-01T06:21:10Z</time>
</trkpt>
<trkpt lat="-6.93716023" lon="108.41313536">
<ele>1574.08</ele>
<time>2013-09-01T06:21:26Z</time>
</trkpt>
<trkpt lat="-6.93725149" lon="108.41330201">
<ele>1570.17</ele>
<time>2013-09-01T06:21:44Z</time>
</trkpt>
<trkpt lat="-6.93723878" lon="108.41350634">
<ele>1556.95</ele>
<time>2013-09-01T06:23:22Z</time>
</trkpt>
<trkpt lat="-6.93720691" lon="108.41368627">
<ele>1551.29</ele>
<time>2013-09-01T06:23:41Z</time>
</trkpt>
<trkpt lat="-6.93708143" lon="108.4138171">
<ele>1549.99</ele>
<time>2013-09-01T06:24:09Z</time>
</trkpt>
<trkpt lat="-6.9370404" lon="108.41400619">
<ele>1550.94</ele>
<time>2013-09-01T06:24:38Z</time>
</trkpt>
<trkpt lat="-6.93693529" lon="108.41415408">
<ele>1548.08</ele>
<time>2013-09-01T06:25:04Z</time>
</trkpt>
<trkpt lat="-6.93697176" lon="108.41435861">
<ele>1541.15</ele>
<time>2013-09-01T06:25:28Z</time>
</trkpt>
<trkpt lat="-6.93696467" lon="108.41454211">
<ele>1537.23</ele>
<time>2013-09-01T06:25:43Z</time>
</trkpt>
<trkpt lat="-6.9370323" lon="108.41472177">
<ele>1538.67</ele>
<time>2013-09-01T06:25:52Z</time>
</trkpt>
<trkpt lat="-6.93703474" lon="108.41491773">
<ele>1538.39</ele>
<time>2013-09-01T06:26:01Z</time>
</trkpt>
<trkpt lat="-6.9371491" lon="108.41507102">
<ele>1534.44</ele>
<time>2013-09-01T06:26:11Z</time>
</trkpt>
<trkpt lat="-6.93709223" lon="108.41525009">
<ele>1530.70</ele>
<time>2013-09-01T06:26:25Z</time>
</trkpt>
<trkpt lat="-6.93708204" lon="108.41544368">
<ele>1531.50</ele>
<time>2013-09-01T06:26:47Z</time>
</trkpt>
<trkpt lat="-6.93705842" lon="108.41562316">
<ele>1532.35</ele>
<time>2013-09-01T06:26:54Z</time>
</trkpt>
<trkpt lat="-6.93708469" lon="108.41581848">
<ele>1530.13</ele>
<time>2013-09-01T06:27:08Z</time>
</trkpt>
<trkpt lat="-6.93721051" lon="108.41597896">
<ele>1531.57</ele>
<time>2013-09-01T06:27:24Z</time>
</trkpt>
<trkpt lat="-6.93732343" lon="108.41615029">
<ele>1531.43</ele>
<time>2013-09-01T06:27:40Z</time>
</trkpt>
<trkpt lat="-6.93728946" lon="108.41633464">
<ele>1531.74</ele>
<time>2013-09-01T06:27:50Z</time>
</trkpt>
<trkpt lat="-6.93718805" lon="108.41649513">
<ele>1528.23</ele>
<time>2013-09-01T06:28:36Z</time>
</trkpt>
<trkpt lat="-6.93718397" lon="108.41668174">
<ele>1517.69</ele>
<time>2013-09-01T06:28:49Z</time>
</trkpt>
<trkpt lat="-6.93715298" lon="108.41686204">
<ele>1508.37</ele>
<time>2013-09-01T06:29:10Z</time>
</trkpt>
<trkpt lat="-6.9371571" lon="108.41704825">
<ele>1498.71</ele>
<time>2013-09-01T06:29:25Z</time>
</trkpt>
<trkpt lat="-6.93716964" lon="108.41723406">
<ele>1494.89</ele>
<time>2013-09-01T06:29:39Z</time>
</trkpt>
<trkpt lat="-6.93722633" lon="108.41741819">
<ele>1492.47</ele>
<time>2013-09-01T06:29:56Z</time>
</trkpt>
<trkpt lat="-6.93715571" lon="108.4175883">
<ele>1488.99</ele>
<time>2013-09-01T06:30:17Z</time>
</trkpt>
<trkpt lat="-6.93717397" lon="108.41777235">
<ele>1485.36</ele>
<time>2013-09-01T06:30:41Z</time>
</trkpt>
<trkpt lat="-6.93729068" lon="108.41794506">
<ele>1487.05</ele>
<time>2013-09-01T06:31:02Z</time>
</trkpt>
<trkpt lat="-6.93731111" lon="108.41813071">
<ele>1487.98</ele>
<time>2013-09-01T06:31:50Z</time>
</trkpt>
<trkpt lat="-6.9372906" lon="108.41833711">
<ele>1488.37</ele>
<time>2013-09-01T06:32:00Z</time>
</trkpt>
<trkpt lat="-6.93727717" lon="108.41852313">
<ele>1482.53</ele>
<time>2013-09-01T06:32:26Z</time>
</trkpt>
<trkpt lat="-6.93731569" lon="108.41870578">
<ele>1480.56</ele>
<time>2013-09-01T06:32:41Z</time>
</trkpt>
<trkpt lat="-6.93748759" lon="108.41877845">
<ele>1473.71</ele>
<time>2013-09-01T06:33:01Z</time>
</trkpt>
<trkpt lat="-6.93750875" lon="108.41897354">
<ele>1475.91</ele>
<time>2013-09-01T06:33:17Z</time>
</trkpt>
<trkpt lat="-6.93757624" lon="108.41914331">
<ele>1470.44</ele>
<time>2013-09-01T06:33:39Z</time>
</trkpt>
<trkpt lat="-6.93740563" lon="108.41923025">
<ele>1465.27</ele>
<time>2013-09-01T06:34:04Z</time>
</trkpt>
<trkpt lat="-6.93724291" lon="108.4191509">
<ele>1458.48</ele>
<time>2013-09-01T06:34:33Z</time>
</trkpt>
<trkpt lat="-6.93736006" lon="108.41928986">
<ele>1456.47</ele>
<time>2013-09-01T06:35:30Z</time>
</trkpt>
<trkpt lat="-6.9375069" lon="108.41942072">
<ele>1454.53</ele>
<time>2013-09-01T06:35:58Z</time>
</trkpt>
<trkpt lat="-6.93768746" lon="108.41945217">
<ele>1456.46</ele>
<time>2013-09-01T06:36:39Z</time>
</trkpt>
<trkpt lat="-6.93761188" lon="108.41964936">
<ele>1452.84</ele>
<time>2013-09-01T06:37:10Z</time>
</trkpt>
<trkpt lat="-6.93761231" lon="108.41983506">
<ele>1441.32</ele>
<time>2013-09-01T06:37:28Z</time>
</trkpt>
<trkpt lat="-6.93753748" lon="108.42000331">
<ele>1443.03</ele>
<time>2013-09-01T06:37:50Z</time>
</trkpt>
<trkpt lat="-6.93744607" lon="108.42017336">
<ele>1440.22</ele>
<time>2013-09-01T06:38:20Z</time>
</trkpt>
<trkpt lat="-6.93733222" lon="108.4203351">
<ele>1439.86</ele>
<time>2013-09-01T06:38:49Z</time>
</trkpt>
<trkpt lat="-6.9371702" lon="108.42046074">
<ele>1435.90</ele>
<time>2013-09-01T06:38:58Z</time>
</trkpt>
<trkpt lat="-6.93702632" lon="108.4205939">
<ele>1436.66</ele>
<time>2013-09-01T06:39:08Z</time>
</trkpt>
<trkpt lat="-6.93695719" lon="108.4207756">
<ele>1441.17</ele>
<time>2013-09-01T06:39:31Z</time>
</trkpt>
<trkpt lat="-6.93702501" lon="108.42095157">
<ele>1442.40</ele>
<time>2013-09-01T06:39:50Z</time>
</trkpt>
<trkpt lat="-6.93708803" lon="108.42113213">
<ele>1441.65</ele>
<time>2013-09-01T06:40:08Z</time>
</trkpt>
<trkpt lat="-6.93716045" lon="108.42130933">
<ele>1441.63</ele>
<time>2013-09-01T06:40:22Z</time>
</trkpt>
<trkpt lat="-6.93722623" lon="108.42148711">
<ele>1426.76</ele>
<time>2013-09-01T06:40:41Z</time>
</trkpt>
<trkpt lat="-6.93726254" lon="108.4216761">
<ele>1416.15</ele>
<time>2013-09-01T06:41:06Z</time>
</trkpt>
<trkpt lat="-6.93729128" lon="108.42185724">
<ele>1421.13</ele>
<time>2013-09-01T06:41:23Z</time>
</trkpt>
<trkpt lat="-6.93734598" lon="108.42203195">
<ele>1416.19</ele>
<time>2013-09-01T06:41:40Z</time>
</trkpt>
<trkpt lat="-6.9374012" lon="108.4222142">
<ele>1422.96</ele>
<time>2013-09-01T06:42:14Z</time>
</trkpt>
<trkpt lat="-6.93749755" lon="108.42236887">
<ele>1413.72</ele>
<time>2013-09-01T06:42:27Z</time>
</trkpt>
<trkpt lat="-6.93757703" lon="108.42253454">
<ele>1406.33</ele>
<time>2013-09-01T06:43:37Z</time>
</trkpt>
<trkpt lat="-6.93755923" lon="108.42273499">
<ele>1404.35</ele>
<time>2013-09-01T06:43:56Z</time>
</trkpt>
<trkpt lat="-6.93764202" lon="108.42289851">
<ele>1408.94</ele>
<time>2013-09-01T06:44:11Z</time>
</trkpt>
<trkpt lat="-6.93771014" lon="108.42306811">
<ele>1402.84</ele>
<time>2013-09-01T06:44:41Z</time>
</trkpt>
<trkpt lat="-6.93775825" lon="108.4232616">
<ele>1400.34</ele>
<time>2013-09-01T06:44:55Z</time>
</trkpt>
<trkpt lat="-6.93782455" lon="108.42343474">
<ele>1394.29</ele>
<time>2013-09-01T06:45:45Z</time>
</trkpt>
<trkpt lat="-6.93796114" lon="108.42357158">
<ele>1387.81</ele>
<time>2013-09-01T06:45:59Z</time>
</trkpt>
<trkpt lat="-6.93808716" lon="108.42370675">
<ele>1381.51</ele>
<time>2013-09-01T06:46:17Z</time>
</trkpt>
<trkpt lat="-6.93807205" lon="108.42389697">
<ele>1378.97</ele>
<time>2013-09-01T06:46:28Z</time>
</trkpt>
<trkpt lat="-6.93815153" lon="108.42410033">
<ele>1383.30</ele>
<time>2013-09-01T06:46:45Z</time>
</trkpt>
<trkpt lat="-6.93827166" lon="108.42425942">
<ele>1380.50</ele>
<time>2013-09-01T06:47:05Z</time>
</trkpt>
<trkpt lat="-6.93839132" lon="108.42442591">
<ele>1384.39</ele>
<time>2013-09-01T06:47:23Z</time>
</trkpt>
<trkpt lat="-6.93850966" lon="108.42459491">
<ele>1379.90</ele>
<time>2013-09-01T06:47:48Z</time>
</trkpt>
<trkpt lat="-6.9386234" lon="108.42474261">
<ele>1369.99</ele>
<time>2013-09-01T06:48:08Z</time>
</trkpt>
<trkpt lat="-6.93868671" lon="108.42491855">
<ele>1370.64</ele>
<time>2013-09-01T06:48:32Z</time>
</trkpt>
<trkpt lat="-6.93874874" lon="108.42509388">
<ele>1365.17</ele>
<time>2013-09-01T06:49:17Z</time>
</trkpt>
<trkpt lat="-6.93882391" lon="108.42526088">
<ele>1353.26</ele>
<time>2013-09-01T06:50:20Z</time>
</trkpt>
<trkpt lat="-6.93891925" lon="108.42541869">
<ele>1340.57</ele>
<time>2013-09-01T06:50:49Z</time>
</trkpt>
<trkpt lat="-6.93900938" lon="108.42558804">
<ele>1335.07</ele>
<time>2013-09-01T06:51:07Z</time>
</trkpt>
<trkpt lat="-6.93906736" lon="108.42576651">
<ele>1335.11</ele>
<time>2013-09-01T06:51:25Z</time>
</trkpt>
<trkpt lat="-6.93918192" lon="108.42591331">
<ele>1325.56</ele>
<time>2013-09-01T06:51:45Z</time>
</trkpt>
<trkpt lat="-6.93922522" lon="108.4260919">
<ele>1320.16</ele>
<time>2013-09-01T06:52:05Z</time>
</trkpt>
<trkpt lat="-6.93917311" lon="108.42627282">
<ele>1317.11</ele>
<time>2013-09-01T06:52:30Z</time>
</trkpt>
<trkpt lat="-6.93923923" lon="108.42646778">
<ele>1320.89</ele>
<time>2013-09-01T06:53:06Z</time>
</trkpt>
<trkpt lat="-6.93929236" lon="108.426644">
<ele>1318.96</ele>
<time>2013-09-01T06:53:19Z</time>
</trkpt>
<trkpt lat="-6.93923397" lon="108.42683007">
<ele>1323.26</ele>
<time>2013-09-01T06:53:34Z</time>
</trkpt>
<trkpt lat="-6.93924774" lon="108.42701627">
<ele>1319.46</ele>
<time>2013-09-01T06:54:00Z</time>
</trkpt>
<trkpt lat="-6.93935846" lon="108.42719284">
<ele>1317.03</ele>
<time>2013-09-01T06:54:29Z</time>
</trkpt>
<trkpt lat="-6.93943904" lon="108.42736148">
<ele>1312.09</ele>
<time>2013-09-01T06:54:46Z</time>
</trkpt>
<trkpt lat="-6.93950848" lon="108.42754479">
<ele>1309.18</ele>
<time>2013-09-01T06:55:01Z</time>
</trkpt>
<trkpt lat="-6.93953636" lon="108.42774227">
<ele>1306.56</ele>
<time>2013-09-01T06:55:20Z</time>
</trkpt>
<trkpt lat="-6.93961885" lon="108.42791993">
<ele>1302.04</ele>
<time>2013-09-01T06:55:43Z</time>
</trkpt>
<trkpt lat="-6.93954945" lon="108.42809103">
<ele>1299.70</ele>
<time>2013-09-01T06:56:11Z</time>
</trkpt>
<trkpt lat="-6.93955316" lon="108.42828635">
<ele>1287.73</ele>
<time>2013-09-01T06:56:51Z</time>
</trkpt>
<trkpt lat="-6.93957838" lon="108.42847202">
<ele>1289.96</ele>
<time>2013-09-01T06:57:06Z</time>
</trkpt>
<trkpt lat="-6.93955563" lon="108.42865393">
<ele>1287.67</ele>
<time>2013-09-01T06:57:24Z</time>
</trkpt>
<trkpt lat="-6.93947828" lon="108.42881837">
<ele>1288.62</ele>
<time>2013-09-01T06:57:34Z</time>
</trkpt>
<trkpt lat="-6.93956104" lon="108.42898436">
<ele>1293.41</ele>
<time>2013-09-01T06:57:53Z</time>
</trkpt>
<trkpt lat="-6.93952928" lon="108.42916461">
<ele>1284.67</ele>
<time>2013-09-01T06:58:08Z</time>
</trkpt>
<trkpt lat="-6.93934279" lon="108.42919373">
<ele>1289.98</ele>
<time>2013-09-01T06:58:29Z</time>
</trkpt>
<trkpt lat="-6.93924446" lon="108.42934795">
<ele>1285.28</ele>
<time>2013-09-01T06:58:54Z</time>
</trkpt>
<trkpt lat="-6.93914379" lon="108.42949986">
<ele>1286.03</ele>
<time>2013-09-01T06:59:41Z</time>
</trkpt>
<trkpt lat="-6.9391186" lon="108.42968134">
<ele>1285.40</ele>
<time>2013-09-01T06:59:48Z</time>
</trkpt>
<trkpt lat="-6.93909757" lon="108.42987038">
<ele>1285.72</ele>
<time>2013-09-01T07:00:03Z</time>
</trkpt>
<trkpt lat="-6.93903504" lon="108.43004431">
<ele>1275.17</ele>
<time>2013-09-01T07:00:26Z</time>
</trkpt>
<trkpt lat="-6.93895058" lon="108.4302121">
<ele>1273.28</ele>
<time>2013-09-01T07:00:48Z</time>
</trkpt>
<trkpt lat="-6.93897281" lon="108.43039314">
<ele>1272.55</ele>
<time>2013-09-01T07:01:06Z</time>
</trkpt>
<trkpt lat="-6.93894899" lon="108.43057451">
<ele>1278.28</ele>
<time>2013-09-01T07:01:23Z</time>
</trkpt>
<trkpt lat="-6.93897809" lon="108.43076157">
<ele>1280.40</ele>
<time>2013-09-01T07:01:38Z</time>
</trkpt>
<trkpt lat="-6.93897104" lon="108.43094335">
<ele>1264.24</ele>
<time>2013-09-01T07:02:04Z</time>
</trkpt>
<trkpt lat="-6.93901943" lon="108.43113009">
<ele>1254.61</ele>
<time>2013-09-01T07:02:28Z</time>
</trkpt>
<trkpt lat="-6.93906887" lon="108.43130793">
<ele>1253.83</ele>
<time>2013-09-01T07:02:53Z</time>
</trkpt>
<trkpt lat="-6.93918831" lon="108.43146256">
<ele>1250.25</ele>
<time>2013-09-01T07:03:05Z</time>
</trkpt>
<trkpt lat="-6.93924484" lon="108.4316409">
<ele>1245.45</ele>
<time>2013-09-01T07:03:19Z</time>
</trkpt>
<trkpt lat="-6.93931133" lon="108.4318385">
<ele>1237.84</ele>
<time>2013-09-01T07:04:00Z</time>
</trkpt>
<trkpt lat="-6.93945149" lon="108.43195469">
<ele>1230.99</ele>
<time>2013-09-01T07:04:17Z</time>
</trkpt>
<trkpt lat="-6.9395568" lon="108.43210582">
<ele>1225.60</ele>
<time>2013-09-01T07:04:39Z</time>
</trkpt>
<trkpt lat="-6.93971007" lon="108.43220551">
<ele>1216.56</ele>
<time>2013-09-01T07:05:35Z</time>
</trkpt>
<trkpt lat="-6.93967973" lon="108.43238925">
<ele>1222.71</ele>
<time>2013-09-01T07:06:34Z</time>
</trkpt>
<trkpt lat="-6.93958193" lon="108.43254198">
<ele>1217.32</ele>
<time>2013-09-01T07:07:34Z</time>
</trkpt>
<trkpt lat="-6.9394969" lon="108.43270512">
<ele>1217.40</ele>
<time>2013-09-01T07:07:43Z</time>
</trkpt>
<trkpt lat="-6.93948192" lon="108.4329123">
<ele>1220.44</ele>
<time>2013-09-01T07:08:43Z</time>
</trkpt>
<trkpt lat="-6.93959284" lon="108.43305879">
<ele>1214.85</ele>
<time>2013-09-01T07:09:11Z</time>
</trkpt>
<trkpt lat="-6.93963477" lon="108.43324556">
<ele>1206.40</ele>
<time>2013-09-01T07:10:07Z</time>
</trkpt>
<trkpt lat="-6.9396251" lon="108.43343795">
<ele>1200.90</ele>
<time>2013-09-01T07:17:27Z</time>
</trkpt>
<trkpt lat="-6.93964946" lon="108.43325554">
<ele>1191.85</ele>
<time>2013-09-01T07:17:58Z</time>
</trkpt>
<trkpt lat="-6.93983105" lon="108.43327693">
<ele>1186.55</ele>
<time>2013-09-01T07:20:38Z</time>
</trkpt>
<trkpt lat="-6.93999394" lon="108.43336957">
<ele>1184.34</ele>
<time>2013-09-01T07:20:54Z</time>
</trkpt>
<trkpt lat="-6.94006939" lon="108.43353486">
<ele>1179.36</ele>
<time>2013-09-01T07:21:48Z</time>
</trkpt>
<trkpt lat="-6.94022102" lon="108.43364408">
<ele>1174.58</ele>
<time>2013-09-01T07:22:19Z</time>
</trkpt>
<trkpt lat="-6.94036807" lon="108.43376284">
<ele>1176.01</ele>
<time>2013-09-01T07:22:37Z</time>
</trkpt>
<trkpt lat="-6.94043029" lon="108.43394174">
<ele>1169.94</ele>
<time>2013-09-01T07:22:55Z</time>
</trkpt>
<trkpt lat="-6.94053054" lon="108.43409492">
<ele>1168.54</ele>
<time>2013-09-01T07:23:09Z</time>
</trkpt>
<trkpt lat="-6.94062331" lon="108.43426546">
<ele>1164.76</ele>
<time>2013-09-01T07:23:27Z</time>
</trkpt>
<trkpt lat="-6.94072292" lon="108.43443107">
<ele>1161.75</ele>
<time>2013-09-01T07:23:43Z</time>
</trkpt>
<trkpt lat="-6.9408163" lon="108.43458723">
<ele>1161.20</ele>
<time>2013-09-01T07:24:01Z</time>
</trkpt>
<trkpt lat="-6.94092327" lon="108.43473988">
<ele>1153.97</ele>
<time>2013-09-01T07:24:24Z</time>
</trkpt>
<trkpt lat="-6.94098225" lon="108.43491949">
<ele>1148.95</ele>
<time>2013-09-01T07:24:47Z</time>
</trkpt>
<trkpt lat="-6.94105794" lon="108.43508396">
<ele>1149.21</ele>
<time>2013-09-01T07:25:02Z</time>
</trkpt>
<trkpt lat="-6.94116276" lon="108.43523241">
<ele>1148.81</ele>
<time>2013-09-01T07:25:19Z</time>
</trkpt>
<trkpt lat="-6.94124192" lon="108.43540253">
<ele>1144.32</ele>
<time>2013-09-01T07:25:42Z</time>
</trkpt>
<trkpt lat="-6.94132986" lon="108.43556285">
<ele>1142.05</ele>
<time>2013-09-01T07:25:57Z</time>
</trkpt>
<trkpt lat="-6.94141666" lon="108.43572852">
<ele>1140.35</ele>
<time>2013-09-01T07:26:12Z</time>
</trkpt>
<trkpt lat="-6.9414939" lon="108.43589843">
<ele>1134.48</ele>
<time>2013-09-01T07:27:06Z</time>
</trkpt>
<trkpt lat="-6.94157317" lon="108.43606756">
<ele>1134.06</ele>
<time>2013-09-01T07:27:21Z</time>
</trkpt>
<trkpt lat="-6.94165199" lon="108.4362373">
<ele>1134.23</ele>
<time>2013-09-01T07:28:08Z</time>
</trkpt>
<trkpt lat="-6.94176444" lon="108.43639423">
<ele>1135.43</ele>
<time>2013-09-01T07:28:20Z</time>
</trkpt>
<trkpt lat="-6.94186216" lon="108.43656615">
<ele>1133.43</ele>
<time>2013-09-01T07:28:36Z</time>
</trkpt>
<trkpt lat="-6.94192801" lon="108.43673472">
<ele>1128.46</ele>
<time>2013-09-01T07:28:58Z</time>
</trkpt>
<trkpt lat="-6.94202079" lon="108.43690223">
<ele>1130.16</ele>
<time>2013-09-01T07:29:14Z</time>
</trkpt>
<trkpt lat="-6.94211131" lon="108.43705942">
<ele>1125.79</ele>
<time>2013-09-01T07:29:33Z</time>
</trkpt>
<trkpt lat="-6.94224177" lon="108.43719256">
<ele>1119.27</ele>
<time>2013-09-01T07:31:30Z</time>
</trkpt>
<trkpt lat="-6.94234109" lon="108.43734718">
<ele>1114.25</ele>
<time>2013-09-01T07:31:56Z</time>
</trkpt>
<trkpt lat="-6.94241358" lon="108.43751393">
<ele>1111.57</ele>
<time>2013-09-01T07:32:15Z</time>
</trkpt>
<trkpt lat="-6.94247564" lon="108.43768846">
<ele>1106.62</ele>
<time>2013-09-01T07:32:33Z</time>
</trkpt>
<trkpt lat="-6.94255576" lon="108.43786276">
<ele>1104.73</ele>
<time>2013-09-01T07:32:53Z</time>
</trkpt>
<trkpt lat="-6.94260964" lon="108.43804154">
<ele>1104.72</ele>
<time>2013-09-01T07:33:13Z</time>
</trkpt>
<trkpt lat="-6.94265473" lon="108.43822">
<ele>1099.99</ele>
<time>2013-09-01T07:33:35Z</time>
</trkpt>
<trkpt lat="-6.94271022" lon="108.43839443">
<ele>1097.53</ele>
<time>2013-09-01T07:33:54Z</time>
</trkpt>
<trkpt lat="-6.94272815" lon="108.43858002">
<ele>1095.86</ele>
<time>2013-09-01T07:34:24Z</time>
</trkpt>
<trkpt lat="-6.94277931" lon="108.43876321">
<ele>1094.30</ele>
<time>2013-09-01T07:34:36Z</time>
</trkpt>
<trkpt lat="-6.94279812" lon="108.4389534">
<ele>1093.59</ele>
<time>2013-09-01T07:36:19Z</time>
</trkpt>
</trkseg>
</trk></gpx>
