<?xml version="1.0" encoding="utf-8"?><gpx creator="Garmin Desktop App" version="1.1" xsi:schemaLocation="http://www.topografix.com/GPX/1/1 http://www.topografix.com/GPX/1/1/gpx.xsd http://www.garmin.com/xmlschemas/WaypointExtension/v1 http://www8.garmin.com/xmlschemas/WaypointExtensionv1.xsd http://www.garmin.com/xmlschemas/TrackPointExtension/v1 http://www.garmin.com/xmlschemas/TrackPointExtensionv1.xsd http://www.garmin.com/xmlschemas/GpxExtensions/v3 http://www8.garmin.com/xmlschemas/GpxExtensionsv3.xsd http://www.garmin.com/xmlschemas/ActivityExtension/v1 http://www8.garmin.com/xmlschemas/ActivityExtensionv1.xsd http://www.garmin.com/xmlschemas/AdventuresExtensions/v1 http://www8.garmin.com/xmlschemas/AdventuresExtensionv1.xsd http://www.garmin.com/xmlschemas/PressureExtension/v1 http://www.garmin.com/xmlschemas/PressureExtensionv1.xsd http://www.garmin.com/xmlschemas/TripExtensions/v1 http://www.garmin.com/xmlschemas/TripExtensionsv1.xsd http://www.garmin.com/xmlschemas/TripMetaDataExtensions/v1 http://www.garmin.com/xmlschemas/TripMetaDataExtensionsv1.xsd http://www.garmin.com/xmlschemas/ViaPointTransportationModeExtensions/v1 http://www.garmin.com/xmlschemas/ViaPointTransportationModeExtensionsv1.xsd http://www.garmin.com/xmlschemas/CreationTimeExtension/v1 http://www.garmin.com/xmlschemas/CreationTimeExtensionsv1.xsd http://www.garmin.com/xmlschemas/AccelerationExtension/v1 http://www.garmin.com/xmlschemas/AccelerationExtensionv1.xsd http://www.garmin.com/xmlschemas/PowerExtension/v1 http://www.garmin.com/xmlschemas/PowerExtensionv1.xsd http://www.garmin.com/xmlschemas/VideoExtension/v1 http://www.garmin.com/xmlschemas/VideoExtensionv1.xsd" xmlns="http://www.topografix.com/GPX/1/1" xmlns:xsi="http://www.w3.org/2001/XMLSchema-instance" xmlns:wptx1="http://www.garmin.com/xmlschemas/WaypointExtension/v1" xmlns:gpxtrx="http://www.garmin.com/xmlschemas/GpxExtensions/v3" xmlns:gpxtpx="http://www.garmin.com/xmlschemas/TrackPointExtension/v1" xmlns:gpxx="http://www.garmin.com/xmlschemas/GpxExtensions/v3" xmlns:trp="http://www.garmin.com/xmlschemas/TripExtensions/v1" xmlns:adv="http://www.garmin.com/xmlschemas/AdventuresExtensions/v1" xmlns:prs="http://www.garmin.com/xmlschemas/PressureExtension/v1" xmlns:tmd="http://www.garmin.com/xmlschemas/TripMetaDataExtensions/v1" xmlns:vptm="http://www.garmin.com/xmlschemas/ViaPointTransportationModeExtensions/v1" xmlns:ctx="http://www.garmin.com/xmlschemas/CreationTimeExtension/v1" xmlns:gpxacc="http://www.garmin.com/xmlschemas/AccelerationExtension/v1" xmlns:gpxpx="http://www.garmin.com/xmlschemas/PowerExtension/v1" xmlns:vidx1="http://www.garmin.com/xmlschemas/VideoExtension/v1">

  <metadata>
    <link href="http://www.garmin.com">
      <text>Garmin International</text>
    </link>
    <time>2022-07-17T07:22:40Z</time>
    <bounds maxlat="-7.388788545504212" maxlon="110.38045247085392" minlat="-7.395076062530279" minlon="110.36934611387551" />
  </metadata>

  <wpt lat="-7.393464893102646" lon="110.37716005928814">
    <time>2022-07-17T07:10:46Z</time>
    <name>Gerbang Andong via Sawit</name>
    <sym>Flag</sym>
    <type>user</type>
    <extensions>
      <gpxx:WaypointExtension>
        <gpxx:DisplayMode>SymbolAndName</gpxx:DisplayMode>
      </gpxx:WaypointExtension>
      <wptx1:WaypointExtension>
        <wptx1:DisplayMode>SymbolAndName</wptx1:DisplayMode>
      </wptx1:WaypointExtension>
      <ctx:CreationTimeExtension>
        <ctx:CreationTime>2022-07-17T07:10:46Z</ctx:CreationTime>
      </ctx:CreationTimeExtension>
    </extensions>
  </wpt>

  <wpt lat="-7.392358230426908" lon="110.37484003230929">
    <time>2022-07-17T07:09:16Z</time>
    <name>Persimpangan Jalur Baru Dan Lama</name>
    <sym>Flag</sym>
    <type>user</type>
    <extensions>
      <gpxx:WaypointExtension>
        <gpxx:DisplayMode>SymbolAndName</gpxx:DisplayMode>
      </gpxx:WaypointExtension>
      <wptx1:WaypointExtension>
        <wptx1:DisplayMode>SymbolAndName</wptx1:DisplayMode>
      </wptx1:WaypointExtension>
      <ctx:CreationTimeExtension>
        <ctx:CreationTime>2022-07-17T07:09:16Z</ctx:CreationTime>
      </ctx:CreationTimeExtension>
    </extensions>
  </wpt>

  <wpt lat="-7.389747351408005" lon="110.36935005337">
    <time>2022-07-17T07:18:52Z</time>
    <name>Persimpangan Puncak Makam - Puncak Andong</name>
    <sym>Flag, Red</sym>
    <type>user</type>
    <extensions>
      <gpxx:WaypointExtension>
        <gpxx:DisplayMode>SymbolAndName</gpxx:DisplayMode>
      </gpxx:WaypointExtension>
      <wptx1:WaypointExtension>
        <wptx1:DisplayMode>SymbolAndName</wptx1:DisplayMode>
      </wptx1:WaypointExtension>
      <ctx:CreationTimeExtension>
        <ctx:CreationTime>2022-07-17T07:18:52Z</ctx:CreationTime>
      </ctx:CreationTimeExtension>
    </extensions>
  </wpt>

  <wpt lat="-7.394031006842852" lon="110.37291613407433">
    <time>2022-07-17T07:13:22Z</time>
    <name>Pos 1 Kemuning</name>
    <sym>Flag</sym>
    <type>user</type>
    <extensions>
      <gpxx:WaypointExtension>
        <gpxx:DisplayMode>SymbolAndName</gpxx:DisplayMode>
      </gpxx:WaypointExtension>
      <wptx1:WaypointExtension>
        <wptx1:DisplayMode>SymbolAndName</wptx1:DisplayMode>
      </wptx1:WaypointExtension>
      <ctx:CreationTimeExtension>
        <ctx:CreationTime>2022-07-17T07:13:22Z</ctx:CreationTime>
      </ctx:CreationTimeExtension>
    </extensions>
  </wpt>

  <wpt lat="-7.393071614205837" lon="110.37178776226938">
    <time>2022-07-17T07:14:38Z</time>
    <name>Pos 2 Dewandaru</name>
    <sym>Flag</sym>
    <type>user</type>
    <extensions>
      <gpxx:WaypointExtension>
        <gpxx:DisplayMode>SymbolAndName</gpxx:DisplayMode>
      </gpxx:WaypointExtension>
      <wptx1:WaypointExtension>
        <wptx1:DisplayMode>SymbolAndName</wptx1:DisplayMode>
      </wptx1:WaypointExtension>
      <ctx:CreationTimeExtension>
        <ctx:CreationTime>2022-07-17T07:14:38Z</ctx:CreationTime>
      </ctx:CreationTimeExtension>
    </extensions>
  </wpt>

  <wpt lat="-7.391044786199927" lon="110.37101428024471">
    <time>2022-07-17T07:16:42Z</time>
    <name>Pos 3 Watu Wayang</name>
    <sym>Flag, Red</sym>
    <type>user</type>
    <extensions>
      <gpxx:WaypointExtension>
        <gpxx:DisplayMode>SymbolAndName</gpxx:DisplayMode>
      </gpxx:WaypointExtension>
      <wptx1:WaypointExtension>
        <wptx1:DisplayMode>SymbolAndName</wptx1:DisplayMode>
      </wptx1:WaypointExtension>
      <ctx:CreationTimeExtension>
        <ctx:CreationTime>2022-07-17T07:16:42Z</ctx:CreationTime>
      </ctx:CreationTimeExtension>
    </extensions>
  </wpt>

  <wpt lat="-7.388788545504212" lon="110.37132935598493">
    <time>2022-07-17T07:20:00Z</time>
    <name>Puncak Andong</name>
    <sym>Summit</sym>
    <type>user</type>
    <extensions>
      <gpxx:WaypointExtension>
        <gpxx:DisplayMode>SymbolAndName</gpxx:DisplayMode>
      </gpxx:WaypointExtension>
      <wptx1:WaypointExtension>
        <wptx1:DisplayMode>SymbolAndName</wptx1:DisplayMode>
      </wptx1:WaypointExtension>
      <ctx:CreationTimeExtension>
        <ctx:CreationTime>2022-07-17T07:20:00Z</ctx:CreationTime>
      </ctx:CreationTimeExtension>
    </extensions>
  </wpt>

  <wpt lat="-7.394953686743975" lon="110.38044149056077">
    <time>2022-07-17T07:20:54Z</time>
    <name>Rest Area</name>
    <sym>Residence</sym>
    <type>user</type>
    <extensions>
      <gpxx:WaypointExtension>
        <gpxx:DisplayMode>SymbolAndName</gpxx:DisplayMode>
      </gpxx:WaypointExtension>
      <wptx1:WaypointExtension>
        <wptx1:DisplayMode>SymbolAndName</wptx1:DisplayMode>
      </wptx1:WaypointExtension>
      <ctx:CreationTimeExtension>
        <ctx:CreationTime>2022-07-17T07:20:54Z</ctx:CreationTime>
      </ctx:CreationTimeExtension>
    </extensions>
  </wpt>

  <trk>
    <name>Gunung Andong via Sawit Jalur Baru</name>
    <extensions>
      <gpxx:TrackExtension>
        <gpxx:DisplayColor>Blue</gpxx:DisplayColor>
      </gpxx:TrackExtension>
    </extensions>
    <trkseg>
      <trkpt lat="-7.394981682300568" lon="110.38045247085392">
        <ele>1327.5999999999999</ele>
        <time>2022-07-10T14:32:25Z</time>
      </trkpt>
      <trkpt lat="-7.395019568502903" lon="110.38042196072638">
        <ele>1327.9000000000001</ele>
        <time>2022-07-10T14:32:31Z</time>
      </trkpt>
      <trkpt lat="-7.395029459148645" lon="110.38037544116378">
        <ele>1328.4000000000001</ele>
        <time>2022-07-10T14:32:38Z</time>
      </trkpt>
      <trkpt lat="-7.395004481077194" lon="110.38033336400986">
        <ele>1328.5</ele>
        <time>2022-07-10T14:32:44Z</time>
      </trkpt>
      <trkpt lat="-7.394979922100902" lon="110.38029287941754">
        <ele>1328.9000000000001</ele>
        <time>2022-07-10T14:32:50Z</time>
      </trkpt>
      <trkpt lat="-7.394958883523941" lon="110.38024971261621">
        <ele>1328.5999999999999</ele>
        <time>2022-07-10T14:32:56Z</time>
      </trkpt>
      <trkpt lat="-7.394940443336964" lon="110.38020277395844">
        <ele>1328.3</ele>
        <time>2022-07-10T14:33:02Z</time>
      </trkpt>
      <trkpt lat="-7.394926529377699" lon="110.38015114143491">
        <ele>1328.5999999999999</ele>
        <time>2022-07-10T14:33:08Z</time>
      </trkpt>
      <trkpt lat="-7.39491387270391" lon="110.38010755553842">
        <ele>1329.4000000000001</ele>
        <time>2022-07-10T14:33:13Z</time>
      </trkpt>
      <trkpt lat="-7.394920494407415" lon="110.38006153889">
        <ele>1329</ele>
        <time>2022-07-10T14:33:20Z</time>
      </trkpt>
      <trkpt lat="-7.3949334025383" lon="110.38001736626029">
        <ele>1328.9000000000001</ele>
        <time>2022-07-10T14:33:27Z</time>
      </trkpt>
      <trkpt lat="-7.394955279305577" lon="110.37997495383024">
        <ele>1329</ele>
        <time>2022-07-10T14:33:33Z</time>
      </trkpt>
      <trkpt lat="-7.394984113052487" lon="110.37993849255145">
        <ele>1328.0999999999999</ele>
        <time>2022-07-10T14:33:39Z</time>
      </trkpt>
      <trkpt lat="-7.39500917494297" lon="110.37989205680788">
        <ele>1326.9000000000001</ele>
        <time>2022-07-10T14:33:45Z</time>
      </trkpt>
      <trkpt lat="-7.395026441663504" lon="110.37984897382557">
        <ele>1325.9000000000001</ele>
        <time>2022-07-10T14:33:50Z</time>
      </trkpt>
      <trkpt lat="-7.395053263753653" lon="110.37980714812875">
        <ele>1325.2</ele>
        <time>2022-07-10T14:33:56Z</time>
      </trkpt>
      <trkpt lat="-7.395076062530279" lon="110.37976163439453">
        <ele>1326</ele>
        <time>2022-07-10T14:34:02Z</time>
      </trkpt>
      <trkpt lat="-7.395068518817425" lon="110.37971075624228">
        <ele>1327.0999999999999</ele>
        <time>2022-07-10T14:34:08Z</time>
      </trkpt>
      <trkpt lat="-7.395048988983035" lon="110.37966155447066">
        <ele>1326.8</ele>
        <time>2022-07-10T14:34:15Z</time>
      </trkpt>
      <trkpt lat="-7.395032895728946" lon="110.37961176596582">
        <ele>1327</ele>
        <time>2022-07-10T14:34:21Z</time>
      </trkpt>
      <trkpt lat="-7.395017053931952" lon="110.37956658750772">
        <ele>1327.2</ele>
        <time>2022-07-10T14:34:27Z</time>
      </trkpt>
      <trkpt lat="-7.394993081688881" lon="110.37952115759254">
        <ele>1328.5</ele>
        <time>2022-07-10T14:34:33Z</time>
      </trkpt>
      <trkpt lat="-7.394972546026111" lon="110.37948050536215">
        <ele>1328.9000000000001</ele>
        <time>2022-07-10T14:34:38Z</time>
      </trkpt>
      <trkpt lat="-7.394951926544309" lon="110.37943189032376">
        <ele>1328.0999999999999</ele>
        <time>2022-07-10T14:34:45Z</time>
      </trkpt>
      <trkpt lat="-7.394929295405746" lon="110.37938369438052">
        <ele>1327.9000000000001</ele>
        <time>2022-07-10T14:34:51Z</time>
      </trkpt>
      <trkpt lat="-7.394917225465179" lon="110.37933608517051">
        <ele>1327.3</ele>
        <time>2022-07-10T14:34:57Z</time>
      </trkpt>
      <trkpt lat="-7.394911106675863" lon="110.37928696721792">
        <ele>1326.8</ele>
        <time>2022-07-10T14:35:03Z</time>
      </trkpt>
      <trkpt lat="-7.394892079755664" lon="110.3792414534837">
        <ele>1325.9000000000001</ele>
        <time>2022-07-10T14:35:09Z</time>
      </trkpt>
      <trkpt lat="-7.394878501072526" lon="110.37919233553112">
        <ele>1324.7</ele>
        <time>2022-07-10T14:35:15Z</time>
      </trkpt>
      <trkpt lat="-7.394864084199071" lon="110.37914338521659">
        <ele>1323.9000000000001</ele>
        <time>2022-07-10T14:35:21Z</time>
      </trkpt>
      <trkpt lat="-7.394841453060508" lon="110.37909787148237">
        <ele>1322.8</ele>
        <time>2022-07-10T14:35:27Z</time>
      </trkpt>
      <trkpt lat="-7.394819492474198" lon="110.37905294448137">
        <ele>1322.7</ele>
        <time>2022-07-10T14:35:33Z</time>
      </trkpt>
      <trkpt lat="-7.394804572686553" lon="110.37900432944298">
        <ele>1322.4000000000001</ele>
        <time>2022-07-10T14:35:39Z</time>
      </trkpt>
      <trkpt lat="-7.394794346764684" lon="110.37895722314715">
        <ele>1321.5999999999999</ele>
        <time>2022-07-10T14:35:45Z</time>
      </trkpt>
      <trkpt lat="-7.394777331501246" lon="110.37891279906034">
        <ele>1321</ele>
        <time>2022-07-10T14:35:51Z</time>
      </trkpt>
      <trkpt lat="-7.394757382571697" lon="110.37886845879257">
        <ele>1321</ele>
        <time>2022-07-10T14:35:56Z</time>
      </trkpt>
      <trkpt lat="-7.394740786403418" lon="110.37882613018155">
        <ele>1320.5999999999999</ele>
        <time>2022-07-10T14:36:03Z</time>
      </trkpt>
      <trkpt lat="-7.394726285710931" lon="110.37877667695284">
        <ele>1319.5999999999999</ele>
        <time>2022-07-10T14:36:55Z</time>
      </trkpt>
      <trkpt lat="-7.394708096981049" lon="110.37872982211411">
        <ele>1318.7</ele>
        <time>2022-07-10T14:37:01Z</time>
      </trkpt>
      <trkpt lat="-7.394696613773704" lon="110.3786856494844">
        <ele>1318.0999999999999</ele>
        <time>2022-07-10T14:37:07Z</time>
      </trkpt>
      <trkpt lat="-7.394679011777043" lon="110.37863971665502">
        <ele>1318.0999999999999</ele>
        <time>2022-07-10T14:37:14Z</time>
      </trkpt>
      <trkpt lat="-7.394657973200083" lon="110.37859839387238">
        <ele>1318.5999999999999</ele>
        <time>2022-07-10T14:37:20Z</time>
      </trkpt>
      <trkpt lat="-7.394627798348665" lon="110.37855623289943">
        <ele>1318.5</ele>
        <time>2022-07-10T14:37:27Z</time>
      </trkpt>
      <trkpt lat="-7.394611118361354" lon="110.37851323373616">
        <ele>1318.0999999999999</ele>
        <time>2022-07-10T14:37:33Z</time>
      </trkpt>
      <trkpt lat="-7.394601479172707" lon="110.37846461869776">
        <ele>1317.3</ele>
        <time>2022-07-10T14:37:39Z</time>
      </trkpt>
      <trkpt lat="-7.394589157775044" lon="110.37841977551579">
        <ele>1316.5999999999999</ele>
        <time>2022-07-10T14:37:45Z</time>
      </trkpt>
      <trkpt lat="-7.394578848034143" lon="110.37837409414351">
        <ele>1315.7</ele>
        <time>2022-07-10T14:37:51Z</time>
      </trkpt>
      <trkpt lat="-7.394565939903259" lon="110.37832883186638">
        <ele>1315.2</ele>
        <time>2022-07-10T14:37:57Z</time>
      </trkpt>
      <trkpt lat="-7.394551690667868" lon="110.37827954627573">
        <ele>1314.9000000000001</ele>
        <time>2022-07-10T14:38:03Z</time>
      </trkpt>
      <trkpt lat="-7.394553953781724" lon="110.37822665646672">
        <ele>1312.0999999999999</ele>
        <time>2022-07-10T14:38:12Z</time>
      </trkpt>
      <trkpt lat="-7.394535094499588" lon="110.37817745469511">
        <ele>1312</ele>
        <time>2022-07-10T14:38:18Z</time>
      </trkpt>
      <trkpt lat="-7.394516989588738" lon="110.37813344970345">
        <ele>1312</ele>
        <time>2022-07-10T14:38:24Z</time>
      </trkpt>
      <trkpt lat="-7.394508859142661" lon="110.37808408029377">
        <ele>1311.4000000000001</ele>
        <time>2022-07-10T14:38:30Z</time>
      </trkpt>
      <trkpt lat="-7.394506931304932" lon="110.3780326154083">
        <ele>1311.4000000000001</ele>
        <time>2022-07-10T14:38:36Z</time>
      </trkpt>
      <trkpt lat="-7.394506176933646" lon="110.37798299454153">
        <ele>1311.5999999999999</ele>
        <time>2022-07-10T14:38:42Z</time>
      </trkpt>
      <trkpt lat="-7.394507601857185" lon="110.3779324516654">
        <ele>1312.4000000000001</ele>
        <time>2022-07-10T14:38:49Z</time>
      </trkpt>
      <trkpt lat="-7.39449905231595" lon="110.37788559682667">
        <ele>1313.5</ele>
        <time>2022-07-10T14:38:56Z</time>
      </trkpt>
      <trkpt lat="-7.394493101164699" lon="110.37783589214087">
        <ele>1314.4000000000001</ele>
        <time>2022-07-10T14:39:02Z</time>
      </trkpt>
      <trkpt lat="-7.394485725089908" lon="110.37778593599796">
        <ele>1314.0999999999999</ele>
        <time>2022-07-10T14:39:08Z</time>
      </trkpt>
      <trkpt lat="-7.394481031224132" lon="110.37773832678795">
        <ele>1314</ele>
        <time>2022-07-10T14:39:14Z</time>
      </trkpt>
      <trkpt lat="-7.394480779767036" lon="110.37768862210214">
        <ele>1312.0999999999999</ele>
        <time>2022-07-10T14:39:20Z</time>
      </trkpt>
      <trkpt lat="-7.394490838050842" lon="110.37763858214021">
        <ele>1309.0999999999999</ele>
        <time>2022-07-10T14:39:27Z</time>
      </trkpt>
      <trkpt lat="-7.394501231610775" lon="110.37759013473988">
        <ele>1307.4000000000001</ele>
        <time>2022-07-10T14:39:34Z</time>
      </trkpt>
      <trkpt lat="-7.39450441673398" lon="110.37754428572953">
        <ele>1306.5</ele>
        <time>2022-07-10T14:39:40Z</time>
      </trkpt>
      <trkpt lat="-7.394509362056851" lon="110.37749525159597">
        <ele>1305.5999999999999</ele>
        <time>2022-07-10T14:39:46Z</time>
      </trkpt>
      <trkpt lat="-7.39451321773231" lon="110.3774472232908">
        <ele>1305</ele>
        <time>2022-07-10T14:39:52Z</time>
      </trkpt>
      <trkpt lat="-7.394504249095917" lon="110.37740137428045">
        <ele>1304.5</ele>
        <time>2022-07-10T14:39:58Z</time>
      </trkpt>
      <trkpt lat="-7.394497711211443" lon="110.3773539327085">
        <ele>1303.8</ele>
        <time>2022-07-10T14:40:04Z</time>
      </trkpt>
      <trkpt lat="-7.394497040659189" lon="110.37730447947979">
        <ele>1303.7</ele>
        <time>2022-07-10T14:40:10Z</time>
      </trkpt>
      <trkpt lat="-7.394494693726301" lon="110.3772587981075">
        <ele>1303.7</ele>
        <time>2022-07-10T14:40:15Z</time>
      </trkpt>
      <trkpt lat="-7.394486563280225" lon="110.3772054053843">
        <ele>1303.3</ele>
        <time>2022-07-10T14:40:21Z</time>
      </trkpt>
      <trkpt lat="-7.394483545795083" lon="110.37715972401202">
        <ele>1303</ele>
        <time>2022-07-10T14:40:26Z</time>
      </trkpt>
      <trkpt lat="-7.394479857757688" lon="110.37710800766945">
        <ele>1302.0999999999999</ele>
        <time>2022-07-10T14:40:32Z</time>
      </trkpt>
      <trkpt lat="-7.394476337358356" lon="110.37706266157329">
        <ele>1301.9000000000001</ele>
        <time>2022-07-10T14:40:37Z</time>
      </trkpt>
      <trkpt lat="-7.394478684291244" lon="110.37701580673456">
        <ele>1302</ele>
        <time>2022-07-10T14:40:42Z</time>
      </trkpt>
      <trkpt lat="-7.394480025395751" lon="110.3769622463733">
        <ele>1302.5</ele>
        <time>2022-07-10T14:40:48Z</time>
      </trkpt>
      <trkpt lat="-7.394481031224132" lon="110.37691321223974">
        <ele>1302.5</ele>
        <time>2022-07-10T14:40:54Z</time>
      </trkpt>
      <trkpt lat="-7.39448631182313" lon="110.37686157971621">
        <ele>1302.3</ele>
        <time>2022-07-10T14:41:00Z</time>
      </trkpt>
      <trkpt lat="-7.394478600472212" lon="110.37681648507714">
        <ele>1302.3</ele>
        <time>2022-07-10T14:41:05Z</time>
      </trkpt>
      <trkpt lat="-7.394473236054182" lon="110.37676954641938">
        <ele>1301.9000000000001</ele>
        <time>2022-07-10T14:41:10Z</time>
      </trkpt>
      <trkpt lat="-7.394459238275886" lon="110.37672478705645">
        <ele>1301.7</ele>
        <time>2022-07-10T14:41:16Z</time>
      </trkpt>
      <trkpt lat="-7.394419088959694" lon="110.37669972516596">
        <ele>1302.5</ele>
        <time>2022-07-10T14:42:10Z</time>
      </trkpt>
      <trkpt lat="-7.39440375007689" lon="110.37665395997465">
        <ele>1302.3</ele>
        <time>2022-07-10T14:42:18Z</time>
      </trkpt>
      <trkpt lat="-7.394434595480561" lon="110.37668748758733">
        <ele>1301.4000000000001</ele>
        <time>2022-07-10T14:42:44Z</time>
      </trkpt>
      <trkpt lat="-7.394391763955355" lon="110.37666829302907">
        <ele>1301.5999999999999</ele>
        <time>2022-07-10T14:43:46Z</time>
      </trkpt>
      <trkpt lat="-7.394437780603766" lon="110.37666049785912">
        <ele>1300.3</ele>
        <time>2022-07-10T14:44:18Z</time>
      </trkpt>
      <trkpt lat="-7.394396876916289" lon="110.37668287754059">
        <ele>1299.8</ele>
        <time>2022-07-10T14:46:12Z</time>
      </trkpt>
      <trkpt lat="-7.39436418749392" lon="110.37671992555261">
        <ele>1300.7</ele>
        <time>2022-07-10T14:46:21Z</time>
      </trkpt>
      <trkpt lat="-7.394326301291585" lon="110.37675269879401">
        <ele>1302.0999999999999</ele>
        <time>2022-07-10T14:46:29Z</time>
      </trkpt>
      <trkpt lat="-7.394289840012789" lon="110.37678731605411">
        <ele>1301.8</ele>
        <time>2022-07-10T14:46:37Z</time>
      </trkpt>
      <trkpt lat="-7.394247595220804" lon="110.37681061774492">
        <ele>1302</ele>
        <time>2022-07-10T14:46:45Z</time>
      </trkpt>
      <trkpt lat="-7.394208116456866" lon="110.37684179842472">
        <ele>1303.5</ele>
        <time>2022-07-10T14:46:52Z</time>
      </trkpt>
      <trkpt lat="-7.394158160313964" lon="110.37686225026846">
        <ele>1305.0999999999999</ele>
        <time>2022-07-10T14:46:59Z</time>
      </trkpt>
      <trkpt lat="-7.394111137837172" lon="110.37688873708248">
        <ele>1307</ele>
        <time>2022-07-10T14:47:04Z</time>
      </trkpt>
      <trkpt lat="-7.394066713750362" lon="110.37691053003073">
        <ele>1307.9000000000001</ele>
        <time>2022-07-10T14:47:15Z</time>
      </trkpt>
      <trkpt lat="-7.394023882225156" lon="110.37693173624575">
        <ele>1308.7</ele>
        <time>2022-07-10T14:47:22Z</time>
      </trkpt>
      <trkpt lat="-7.393982224166393" lon="110.37695193663239">
        <ele>1309.3</ele>
        <time>2022-07-10T14:47:28Z</time>
      </trkpt>
      <trkpt lat="-7.393938386812806" lon="110.3769691195339">
        <ele>1308.3</ele>
        <time>2022-07-10T14:47:35Z</time>
      </trkpt>
      <trkpt lat="-7.393898908048868" lon="110.3769915830344">
        <ele>1308</ele>
        <time>2022-07-10T14:47:41Z</time>
      </trkpt>
      <trkpt lat="-7.393857585266233" lon="110.37701421417296">
        <ele>1307.7</ele>
        <time>2022-07-10T14:47:47Z</time>
      </trkpt>
      <trkpt lat="-7.39381349645555" lon="110.37702703848481">
        <ele>1307.9000000000001</ele>
        <time>2022-07-10T14:47:53Z</time>
      </trkpt>
      <trkpt lat="-7.39376706071198" lon="110.37704883143306">
        <ele>1308</ele>
        <time>2022-07-10T14:47:59Z</time>
      </trkpt>
      <trkpt lat="-7.393723390996456" lon="110.37707070820034">
        <ele>1307.8</ele>
        <time>2022-07-10T14:48:05Z</time>
      </trkpt>
      <trkpt lat="-7.39367762580514" lon="110.3770930878818">
        <ele>1308</ele>
        <time>2022-07-10T14:48:12Z</time>
      </trkpt>
      <trkpt lat="-7.393630687147379" lon="110.37710767239332">
        <ele>1308.9000000000001</ele>
        <time>2022-07-10T14:48:19Z</time>
      </trkpt>
      <trkpt lat="-7.393585005775094" lon="110.37713189609349">
        <ele>1309.8</ele>
        <time>2022-07-10T14:48:26Z</time>
      </trkpt>
      <trkpt lat="-7.393539156764746" lon="110.37714891135693">
        <ele>1310.2</ele>
        <time>2022-07-10T14:48:33Z</time>
      </trkpt>
      <trkpt lat="-7.393487943336368" lon="110.37714564241469">
        <ele>1310.0999999999999</ele>
        <time>2022-07-10T14:48:40Z</time>
      </trkpt>
      <trkpt lat="-7.393461121246219" lon="110.37710540927947">
        <ele>1310</ele>
        <time>2022-07-10T14:48:57Z</time>
      </trkpt>
      <trkpt lat="-7.393443351611495" lon="110.37706132046878">
        <ele>1310.3</ele>
        <time>2022-07-10T14:49:04Z</time>
      </trkpt>
      <trkpt lat="-7.393423989415169" lon="110.37701438181102">
        <ele>1310.7</ele>
        <time>2022-07-10T14:49:12Z</time>
      </trkpt>
      <trkpt lat="-7.393412925302982" lon="110.37696945481002">
        <ele>1311</ele>
        <time>2022-07-10T14:49:19Z</time>
      </trkpt>
      <trkpt lat="-7.393399765715003" lon="110.37692368961871">
        <ele>1311.8</ele>
        <time>2022-07-10T14:49:26Z</time>
      </trkpt>
      <trkpt lat="-7.393384929746389" lon="110.37687825970352">
        <ele>1313.0999999999999</ele>
        <time>2022-07-10T14:49:33Z</time>
      </trkpt>
      <trkpt lat="-7.39337076433003" lon="110.37682997994125">
        <ele>1313.8</ele>
        <time>2022-07-10T14:49:40Z</time>
      </trkpt>
      <trkpt lat="-7.393357018008828" lon="110.3767859749496">
        <ele>1314.0999999999999</ele>
        <time>2022-07-10T14:49:46Z</time>
      </trkpt>
      <trkpt lat="-7.393343858420849" lon="110.37674163468182">
        <ele>1314</ele>
        <time>2022-07-10T14:49:52Z</time>
      </trkpt>
      <trkpt lat="-7.393321311101317" lon="110.37670190446079">
        <ele>1313.7</ele>
        <time>2022-07-10T14:49:58Z</time>
      </trkpt>
      <trkpt lat="-7.393299015238881" lon="110.37665597163141">
        <ele>1313.4000000000001</ele>
        <time>2022-07-10T14:50:05Z</time>
      </trkpt>
      <trkpt lat="-7.393280491232872" lon="110.37660710513592">
        <ele>1313.2</ele>
        <time>2022-07-10T14:50:12Z</time>
      </trkpt>
      <trkpt lat="-7.393259285017848" lon="110.37656125612557">
        <ele>1314.0999999999999</ele>
        <time>2022-07-10T14:50:19Z</time>
      </trkpt>
      <trkpt lat="-7.393241431564093" lon="110.37651289254427">
        <ele>1314.4000000000001</ele>
        <time>2022-07-10T14:50:26Z</time>
      </trkpt>
      <trkpt lat="-7.393221063539386" lon="110.37647022865713">
        <ele>1314.8</ele>
        <time>2022-07-10T14:50:32Z</time>
      </trkpt>
      <trkpt lat="-7.393204215914011" lon="110.37642496638">
        <ele>1315</ele>
        <time>2022-07-10T14:50:40Z</time>
      </trkpt>
      <trkpt lat="-7.393190050497651" lon="110.376380039379">
        <ele>1316.2</ele>
        <time>2022-07-10T14:50:48Z</time>
      </trkpt>
      <trkpt lat="-7.393182339146733" lon="110.3763332683593">
        <ele>1317.9000000000001</ele>
        <time>2022-07-10T14:50:56Z</time>
      </trkpt>
      <trkpt lat="-7.393178232014179" lon="110.37628448568285">
        <ele>1318.8</ele>
        <time>2022-07-10T14:51:05Z</time>
      </trkpt>
      <trkpt lat="-7.393165910616517" lon="110.37623922340572">
        <ele>1319.3</ele>
        <time>2022-07-10T14:51:12Z</time>
      </trkpt>
      <trkpt lat="-7.393165407702327" lon="110.37619094364345">
        <ele>1319.2</ele>
        <time>2022-07-10T14:51:20Z</time>
      </trkpt>
      <trkpt lat="-7.39315384067595" lon="110.37614584900439">
        <ele>1320.2</ele>
        <time>2022-07-10T14:51:34Z</time>
      </trkpt>
      <trkpt lat="-7.393151242285967" lon="110.37609874270856">
        <ele>1319.9000000000001</ele>
        <time>2022-07-10T14:51:45Z</time>
      </trkpt>
      <trkpt lat="-7.393131628632546" lon="110.37605633027852">
        <ele>1320.5</ele>
        <time>2022-07-10T14:51:57Z</time>
      </trkpt>
      <trkpt lat="-7.393127353861928" lon="110.37601014599204">
        <ele>1319.7</ele>
        <time>2022-07-10T14:53:44Z</time>
      </trkpt>
      <trkpt lat="-7.393110254779458" lon="110.37596815265715">
        <ele>1322.4000000000001</ele>
        <time>2022-07-10T14:54:14Z</time>
      </trkpt>
      <trkpt lat="-7.393077313899994" lon="110.37593563087285">
        <ele>1326</ele>
        <time>2022-07-10T14:54:31Z</time>
      </trkpt>
      <trkpt lat="-7.393061053007841" lon="110.3758929669857">
        <ele>1330.8</ele>
        <time>2022-07-10T14:54:49Z</time>
      </trkpt>
      <trkpt lat="-7.393047558143735" lon="110.37584963254631">
        <ele>1331.7</ele>
        <time>2022-07-10T14:55:19Z</time>
      </trkpt>
      <trkpt lat="-7.393029117956758" lon="110.37580638192594">
        <ele>1333.2</ele>
        <time>2022-07-10T14:55:36Z</time>
      </trkpt>
      <trkpt lat="-7.392993997782469" lon="110.37577209994197">
        <ele>1336.2</ele>
        <time>2022-07-10T14:55:47Z</time>
      </trkpt>
      <trkpt lat="-7.392953094094992" lon="110.37574904970825">
        <ele>1337.8</ele>
        <time>2022-07-10T14:56:02Z</time>
      </trkpt>
      <trkpt lat="-7.392920153215528" lon="110.37571661174297">
        <ele>1340.4000000000001</ele>
        <time>2022-07-10T14:56:12Z</time>
      </trkpt>
      <trkpt lat="-7.392896264791489" lon="110.37567637860775">
        <ele>1342.5</ele>
        <time>2022-07-10T14:56:30Z</time>
      </trkpt>
      <trkpt lat="-7.392889223992825" lon="110.37562684156001">
        <ele>1345</ele>
        <time>2022-07-10T14:56:39Z</time>
      </trkpt>
      <trkpt lat="-7.392855025827885" lon="110.3755943197757">
        <ele>1347</ele>
        <time>2022-07-10T14:56:50Z</time>
      </trkpt>
      <trkpt lat="-7.392815295606852" lon="110.37557168863714">
        <ele>1348.5</ele>
        <time>2022-07-10T14:57:10Z</time>
      </trkpt>
      <trkpt lat="-7.392781684175134" lon="110.37553581409156">
        <ele>1348.7</ele>
        <time>2022-07-10T14:57:21Z</time>
      </trkpt>
      <trkpt lat="-7.392760561779141" lon="110.37549281492829">
        <ele>1351.5</ele>
        <time>2022-07-10T14:57:30Z</time>
      </trkpt>
      <trkpt lat="-7.39274974912405" lon="110.37544621154666">
        <ele>1354.8</ele>
        <time>2022-07-10T14:57:37Z</time>
      </trkpt>
      <trkpt lat="-7.392714042216539" lon="110.37541612051427">
        <ele>1355.8</ele>
        <time>2022-07-10T14:57:45Z</time>
      </trkpt>
      <trkpt lat="-7.39267841912806" lon="110.37538544274867">
        <ele>1355.0999999999999</ele>
        <time>2022-07-10T14:57:53Z</time>
      </trkpt>
      <trkpt lat="-7.392642209306359" lon="110.37535283714533">
        <ele>1355.3</ele>
        <time>2022-07-10T14:58:04Z</time>
      </trkpt>
      <trkpt lat="-7.392608765512705" lon="110.37532031536102">
        <ele>1357.0999999999999</ele>
        <time>2022-07-10T14:58:17Z</time>
      </trkpt>
      <trkpt lat="-7.392582027241588" lon="110.37528368644416">
        <ele>1358.8</ele>
        <time>2022-07-10T14:58:23Z</time>
      </trkpt>
      <trkpt lat="-7.392555624246597" lon="110.37524621933699">
        <ele>1360.2</ele>
        <time>2022-07-10T14:58:30Z</time>
      </trkpt>
      <trkpt lat="-7.39253668114543" lon="110.37520087324083">
        <ele>1363</ele>
        <time>2022-07-10T14:59:06Z</time>
      </trkpt>
      <trkpt lat="-7.392517486587167" lon="110.37515494041145">
        <ele>1364</ele>
        <time>2022-07-10T14:59:13Z</time>
      </trkpt>
      <trkpt lat="-7.392487982288003" lon="110.37511697039008">
        <ele>1368.0999999999999</ele>
        <time>2022-07-10T14:59:33Z</time>
      </trkpt>
      <trkpt lat="-7.392504326999188" lon="110.37507254630327">
        <ele>1371.2</ele>
        <time>2022-07-10T15:00:02Z</time>
      </trkpt>
      <trkpt lat="-7.392501896247268" lon="110.37502418272197">
        <ele>1373.2</ele>
        <time>2022-07-10T15:00:16Z</time>
      </trkpt>
      <trkpt lat="-7.392489574849606" lon="110.37497648969293">
        <ele>1372.5999999999999</ele>
        <time>2022-07-10T15:00:24Z</time>
      </trkpt>
      <trkpt lat="-7.392455292865634" lon="110.37494296208024">
        <ele>1371.2</ele>
        <time>2022-07-10T15:00:38Z</time>
      </trkpt>
      <trkpt lat="-7.392419837415218" lon="110.37497296929359">
        <ele>1372.5</ele>
        <time>2022-07-10T15:00:46Z</time>
      </trkpt>
      <trkpt lat="-7.392375245690346" lon="110.37498244084418">
        <ele>1373.7</ele>
        <time>2022-07-10T15:00:54Z</time>
      </trkpt>
      <trkpt lat="-7.392388908192515" lon="110.3749328199774">
        <ele>1373.5</ele>
        <time>2022-07-10T15:01:05Z</time>
      </trkpt>
      <trkpt lat="-7.392389746382833" lon="110.37488747388124">
        <ele>1378.0999999999999</ele>
        <time>2022-07-10T15:01:27Z</time>
      </trkpt>
      <trkpt lat="-7.392390752211213" lon="110.37484095431864">
        <ele>1382</ele>
        <time>2022-07-10T15:01:44Z</time>
      </trkpt>
      <trkpt lat="-7.39234465174377" lon="110.37485126405954">
        <ele>1380</ele>
        <time>2022-07-10T15:02:05Z</time>
      </trkpt>
      <trkpt lat="-7.392374072223902" lon="110.37481321021914">
        <ele>1385.7</ele>
        <time>2022-07-10T15:02:55Z</time>
      </trkpt>
      <trkpt lat="-7.392418580129743" lon="110.37480256520212">
        <ele>1391.2</ele>
        <time>2022-07-10T15:03:15Z</time>
      </trkpt>
      <trkpt lat="-7.392421765252948" lon="110.37475227378309">
        <ele>1389.0999999999999</ele>
        <time>2022-07-10T15:03:34Z</time>
      </trkpt>
      <trkpt lat="-7.392401481047273" lon="110.37470902316272">
        <ele>1388.3</ele>
        <time>2022-07-10T15:03:40Z</time>
      </trkpt>
      <trkpt lat="-7.39237985573709" lon="110.37466585636139">
        <ele>1387.8</ele>
        <time>2022-07-10T15:03:49Z</time>
      </trkpt>
      <trkpt lat="-7.392358062788844" lon="110.37462051026523">
        <ele>1387.0999999999999</ele>
        <time>2022-07-10T15:03:56Z</time>
      </trkpt>
      <trkpt lat="-7.392353620380163" lon="110.37457499653101">
        <ele>1386.4000000000001</ele>
        <time>2022-07-10T15:04:03Z</time>
      </trkpt>
      <trkpt lat="-7.392352027818561" lon="110.37452277727425">
        <ele>1384.5</ele>
        <time>2022-07-10T15:04:10Z</time>
      </trkpt>
      <trkpt lat="-7.392361247912049" lon="110.37447701208293">
        <ele>1385.5</ele>
        <time>2022-07-10T15:04:15Z</time>
      </trkpt>
      <trkpt lat="-7.392379520460963" lon="110.37442990578711">
        <ele>1386.3</ele>
        <time>2022-07-10T15:04:21Z</time>
      </trkpt>
      <trkpt lat="-7.392369629815221" lon="110.37438464350998">
        <ele>1386.5</ele>
        <time>2022-07-10T15:04:27Z</time>
      </trkpt>
      <trkpt lat="-7.392372563481331" lon="110.37433695048094">
        <ele>1387</ele>
        <time>2022-07-10T15:04:33Z</time>
      </trkpt>
      <trkpt lat="-7.392391841858625" lon="110.37429437041283">
        <ele>1388.9000000000001</ele>
        <time>2022-07-10T15:04:39Z</time>
      </trkpt>
      <trkpt lat="-7.392407013103366" lon="110.37425044924021">
        <ele>1389</ele>
        <time>2022-07-10T15:04:46Z</time>
      </trkpt>
      <trkpt lat="-7.392417658120394" lon="110.37420191802084">
        <ele>1389.9000000000001</ele>
        <time>2022-07-10T15:04:54Z</time>
      </trkpt>
      <trkpt lat="-7.392427884042263" lon="110.37415715865791">
        <ele>1390.9000000000001</ele>
        <time>2022-07-10T15:05:06Z</time>
      </trkpt>
      <trkpt lat="-7.392441798001528" lon="110.37411164492369">
        <ele>1389.4000000000001</ele>
        <time>2022-07-10T15:05:12Z</time>
      </trkpt>
      <trkpt lat="-7.392446743324399" lon="110.37406051531434">
        <ele>1389.2</ele>
        <time>2022-07-10T15:05:18Z</time>
      </trkpt>
      <trkpt lat="-7.392433751374483" lon="110.37399991415441">
        <ele>1387.5</ele>
        <time>2022-07-10T15:05:24Z</time>
      </trkpt>
      <trkpt lat="-7.392423776909709" lon="110.37395138293505">
        <ele>1385.9000000000001</ele>
        <time>2022-07-10T15:05:27Z</time>
      </trkpt>
      <trkpt lat="-7.392440037801862" lon="110.37390343844891">
        <ele>1383.9000000000001</ele>
        <time>2022-07-10T15:05:34Z</time>
      </trkpt>
      <trkpt lat="-7.3924863897264" lon="110.37389874458313">
        <ele>1379.7</ele>
        <time>2022-07-10T15:05:48Z</time>
      </trkpt>
      <trkpt lat="-7.392457891255617" lon="110.37393704988062">
        <ele>1374</ele>
        <time>2022-07-10T15:06:14Z</time>
      </trkpt>
      <trkpt lat="-7.39249762147665" lon="110.37396320141852">
        <ele>1376.8</ele>
        <time>2022-07-10T15:06:35Z</time>
      </trkpt>
      <trkpt lat="-7.392542632296681" lon="110.37394945509732">
        <ele>1377.4000000000001</ele>
        <time>2022-07-10T15:06:42Z</time>
      </trkpt>
      <trkpt lat="-7.392581608146429" lon="110.37392179481685">
        <ele>1372.3</ele>
        <time>2022-07-10T15:07:05Z</time>
      </trkpt>
      <trkpt lat="-7.392629384994507" lon="110.37392439320683">
        <ele>1375.4000000000001</ele>
        <time>2022-07-10T15:07:18Z</time>
      </trkpt>
      <trkpt lat="-7.392657296732068" lon="110.37388768047094">
        <ele>1378.5</ele>
        <time>2022-07-10T15:07:39Z</time>
      </trkpt>
      <trkpt lat="-7.39270037971437" lon="110.37387385033071">
        <ele>1377.0999999999999</ele>
        <time>2022-07-10T15:08:01Z</time>
      </trkpt>
      <trkpt lat="-7.392747737467289" lon="110.37386647425592">
        <ele>1378.0999999999999</ele>
        <time>2022-07-10T15:08:10Z</time>
      </trkpt>
      <trkpt lat="-7.392792413011193" lon="110.37385138683021">
        <ele>1378.7</ele>
        <time>2022-07-10T15:08:20Z</time>
      </trkpt>
      <trkpt lat="-7.392836501821876" lon="110.37383638322353">
        <ele>1377.7</ele>
        <time>2022-07-10T15:08:30Z</time>
      </trkpt>
      <trkpt lat="-7.392851002514362" lon="110.37379112094641">
        <ele>1377</ele>
        <time>2022-07-10T15:08:36Z</time>
      </trkpt>
      <trkpt lat="-7.39286064170301" lon="110.37374367937446">
        <ele>1376.5</ele>
        <time>2022-07-10T15:08:42Z</time>
      </trkpt>
      <trkpt lat="-7.392878578975797" lon="110.37369548343122">
        <ele>1376.3</ele>
        <time>2022-07-10T15:08:50Z</time>
      </trkpt>
      <trkpt lat="-7.392907161265612" lon="110.37365323863924">
        <ele>1377.2</ele>
        <time>2022-07-10T15:08:56Z</time>
      </trkpt>
      <trkpt lat="-7.392934821546078" lon="110.3736171964556">
        <ele>1378.4000000000001</ele>
        <time>2022-07-10T15:09:01Z</time>
      </trkpt>
      <trkpt lat="-7.392939431592822" lon="110.37356849759817">
        <ele>1377.9000000000001</ele>
        <time>2022-07-10T15:09:06Z</time>
      </trkpt>
      <trkpt lat="-7.392958123236895" lon="110.37352348677814">
        <ele>1378.9000000000001</ele>
        <time>2022-07-10T15:09:13Z</time>
      </trkpt>
      <trkpt lat="-7.393001038581133" lon="110.37350236438215">
        <ele>1378.5999999999999</ele>
        <time>2022-07-10T15:09:19Z</time>
      </trkpt>
      <trkpt lat="-7.393044037744403" lon="110.37347705103457">
        <ele>1379</ele>
        <time>2022-07-10T15:09:26Z</time>
      </trkpt>
      <trkpt lat="-7.393075218424201" lon="110.37344377487898">
        <ele>1377.8</ele>
        <time>2022-07-10T15:09:32Z</time>
      </trkpt>
      <trkpt lat="-7.393099945038557" lon="110.37340337410569">
        <ele>1376.3</ele>
        <time>2022-07-10T15:09:40Z</time>
      </trkpt>
      <trkpt lat="-7.393124168738723" lon="110.37336288951337">
        <ele>1378.5999999999999</ele>
        <time>2022-07-10T15:09:50Z</time>
      </trkpt>
      <trkpt lat="-7.393155600875616" lon="110.37333028391004">
        <ele>1380.0999999999999</ele>
        <time>2022-07-10T15:09:57Z</time>
      </trkpt>
      <trkpt lat="-7.393196588382125" lon="110.37329818122089">
        <ele>1381</ele>
        <time>2022-07-10T15:10:04Z</time>
      </trkpt>
      <trkpt lat="-7.393233552575111" lon="110.3732630610466">
        <ele>1382.5999999999999</ele>
        <time>2022-07-10T15:10:11Z</time>
      </trkpt>
      <trkpt lat="-7.39327160641551" lon="110.37322970107198">
        <ele>1381.5999999999999</ele>
        <time>2022-07-10T15:10:18Z</time>
      </trkpt>
      <trkpt lat="-7.393323825672269" lon="110.37323799915612">
        <ele>1384.3</ele>
        <time>2022-07-10T15:10:31Z</time>
      </trkpt>
      <trkpt lat="-7.393373027443886" lon="110.37323238328099">
        <ele>1384.7</ele>
        <time>2022-07-10T15:10:36Z</time>
      </trkpt>
      <trkpt lat="-7.393418373540044" lon="110.37322115153074">
        <ele>1384.7</ele>
        <time>2022-07-10T15:10:40Z</time>
      </trkpt>
      <trkpt lat="-7.393464809283614" lon="110.3732062317431">
        <ele>1385.5</ele>
        <time>2022-07-10T15:10:47Z</time>
      </trkpt>
      <trkpt lat="-7.393512334674597" lon="110.37319499999285">
        <ele>1385.7</ele>
        <time>2022-07-10T15:10:52Z</time>
      </trkpt>
      <trkpt lat="-7.393555417656899" lon="110.3731766436249">
        <ele>1385.2</ele>
        <time>2022-07-10T15:10:58Z</time>
      </trkpt>
      <trkpt lat="-7.393579641357064" lon="110.37321788258851">
        <ele>1386.7</ele>
        <time>2022-07-10T15:11:07Z</time>
      </trkpt>
      <trkpt lat="-7.393626915290952" lon="110.37320832721889">
        <ele>1389.5999999999999</ele>
        <time>2022-07-10T15:11:17Z</time>
      </trkpt>
      <trkpt lat="-7.393665136769414" lon="110.37317454814911">
        <ele>1389.5</ele>
        <time>2022-07-10T15:11:22Z</time>
      </trkpt>
      <trkpt lat="-7.39370402880013" lon="110.37314856424928">
        <ele>1388.9000000000001</ele>
        <time>2022-07-10T15:11:30Z</time>
      </trkpt>
      <trkpt lat="-7.393750967457891" lon="110.37314102053642">
        <ele>1389.7</ele>
        <time>2022-07-10T15:11:38Z</time>
      </trkpt>
      <trkpt lat="-7.393799917772412" lon="110.37312819622457">
        <ele>1390.8</ele>
        <time>2022-07-10T15:12:04Z</time>
      </trkpt>
      <trkpt lat="-7.393845682963729" lon="110.37310464307666">
        <ele>1390.9000000000001</ele>
        <time>2022-07-10T15:12:12Z</time>
      </trkpt>
      <trkpt lat="-7.393885245546699" lon="110.3730714507401">
        <ele>1389.5999999999999</ele>
        <time>2022-07-10T15:12:23Z</time>
      </trkpt>
      <trkpt lat="-7.393911899998784" lon="110.37303389981389">
        <ele>1390.7</ele>
        <time>2022-07-10T15:12:31Z</time>
      </trkpt>
      <trkpt lat="-7.393953138962388" lon="110.37300825119019">
        <ele>1392.7</ele>
        <time>2022-07-10T15:12:39Z</time>
      </trkpt>
      <trkpt lat="-7.393984403461218" lon="110.37297279573977">
        <ele>1393.5</ele>
        <time>2022-07-10T15:12:48Z</time>
      </trkpt>
      <trkpt lat="-7.394020697101951" lon="110.37293868139386">
        <ele>1395.4000000000001</ele>
        <time>2022-07-10T15:12:57Z</time>
      </trkpt>
      <trkpt lat="-7.394014243036509" lon="110.37298369221389">
        <ele>1400.3</ele>
        <time>2022-07-10T15:14:11Z</time>
      </trkpt>
      <trkpt lat="-7.39405732601881" lon="110.37299894727767">
        <ele>1405.2</ele>
        <time>2022-07-10T15:14:28Z</time>
      </trkpt>
      <trkpt lat="-7.394053805619478" lon="110.37295234389603">
        <ele>1396.8</ele>
        <time>2022-07-10T15:15:13Z</time>
      </trkpt>
      <trkpt lat="-7.39403972402215" lon="110.37299601361156">
        <ele>1405.3</ele>
        <time>2022-07-10T15:16:55Z</time>
      </trkpt>
      <trkpt lat="-7.394042825326324" lon="110.37294790148735">
        <ele>1404.4000000000001</ele>
        <time>2022-07-10T15:17:15Z</time>
      </trkpt>
      <trkpt lat="-7.394066881388426" lon="110.37290783599019">
        <ele>1404.7</ele>
        <time>2022-07-10T15:17:33Z</time>
      </trkpt>
      <trkpt lat="-7.394017176702619" lon="110.37288151681423">
        <ele>1403.5</ele>
        <time>2022-07-10T15:18:03Z</time>
      </trkpt>
      <trkpt lat="-7.39396445453167" lon="110.37289274856448">
        <ele>1404.8</ele>
        <time>2022-07-10T15:18:16Z</time>
      </trkpt>
      <trkpt lat="-7.393915755674243" lon="110.37289945408702">
        <ele>1406.0999999999999</ele>
        <time>2022-07-10T15:18:33Z</time>
      </trkpt>
      <trkpt lat="-7.393917851150036" lon="110.37283860146999">
        <ele>1407.3</ele>
        <time>2022-07-10T15:19:15Z</time>
      </trkpt>
      <trkpt lat="-7.393938470631838" lon="110.37279065698385">
        <ele>1408.3</ele>
        <time>2022-07-10T15:19:45Z</time>
      </trkpt>
      <trkpt lat="-7.393953138962388" lon="110.37272133864462">
        <ele>1410</ele>
        <time>2022-07-10T15:20:15Z</time>
      </trkpt>
      <trkpt lat="-7.39395858719945" lon="110.37267481908202">
        <ele>1411</ele>
        <time>2022-07-10T15:20:41Z</time>
      </trkpt>
      <trkpt lat="-7.393928244709969" lon="110.37264028564095">
        <ele>1414.9000000000001</ele>
        <time>2022-07-10T15:21:59Z</time>
      </trkpt>
      <trkpt lat="-7.393977697938681" lon="110.37268596701324">
        <ele>1387.5</ele>
        <time>2022-07-10T15:22:58Z</time>
      </trkpt>
      <trkpt lat="-7.394024133682251" lon="110.3726779203862">
        <ele>1352.5</ele>
        <time>2022-07-10T15:24:25Z</time>
      </trkpt>
      <trkpt lat="-7.393994210287929" lon="110.37264271639287">
        <ele>1393.5</ele>
        <time>2022-07-10T15:24:44Z</time>
      </trkpt>
      <trkpt lat="-7.393998065963388" lon="110.37269183434546">
        <ele>1414.0999999999999</ele>
        <time>2022-07-10T15:29:36Z</time>
      </trkpt>
      <trkpt lat="-7.393950624391437" lon="110.37270063534379">
        <ele>1411.8</ele>
        <time>2022-07-10T15:29:50Z</time>
      </trkpt>
      <trkpt lat="-7.393906787037849" lon="110.3727138787508">
        <ele>1412.4000000000001</ele>
        <time>2022-07-10T15:29:57Z</time>
      </trkpt>
      <trkpt lat="-7.393858591094613" lon="110.37271781824529">
        <ele>1414.4000000000001</ele>
        <time>2022-07-10T15:30:06Z</time>
      </trkpt>
      <trkpt lat="-7.393810311332345" lon="110.37271932698786">
        <ele>1418.0999999999999</ele>
        <time>2022-07-10T15:30:14Z</time>
      </trkpt>
      <trkpt lat="-7.39376462996006" lon="110.37272242829204">
        <ele>1422.5</ele>
        <time>2022-07-10T15:30:26Z</time>
      </trkpt>
      <trkpt lat="-7.393729258328676" lon="110.37275176495314">
        <ele>1421.8</ele>
        <time>2022-07-10T15:30:37Z</time>
      </trkpt>
      <trkpt lat="-7.393687684088945" lon="110.3727331571281">
        <ele>1422.3</ele>
        <time>2022-07-10T15:30:43Z</time>
      </trkpt>
      <trkpt lat="-7.393707297742367" lon="110.37268839776516">
        <ele>1421.4000000000001</ele>
        <time>2022-07-10T15:31:22Z</time>
      </trkpt>
      <trkpt lat="-7.393758678808808" lon="110.37261136807501">
        <ele>1422.9000000000001</ele>
        <time>2022-07-10T15:32:03Z</time>
      </trkpt>
      <trkpt lat="-7.393784075975418" lon="110.37254867143929">
        <ele>1423.9000000000001</ele>
        <time>2022-07-10T15:32:21Z</time>
      </trkpt>
      <trkpt lat="-7.393820201978087" lon="110.37252000533044">
        <ele>1424.5</ele>
        <time>2022-07-10T15:32:51Z</time>
      </trkpt>
      <trkpt lat="-7.393759600818157" lon="110.3725444804877">
        <ele>1427.4000000000001</ele>
        <time>2022-07-10T15:33:21Z</time>
      </trkpt>
      <trkpt lat="-7.39366346038878" lon="110.3725568857044">
        <ele>1428.9000000000001</ele>
        <time>2022-07-10T15:33:50Z</time>
      </trkpt>
      <trkpt lat="-7.39361023530364" lon="110.37254942581058">
        <ele>1431.0999999999999</ele>
        <time>2022-07-10T15:34:19Z</time>
      </trkpt>
      <trkpt lat="-7.393566146492958" lon="110.37256635725498">
        <ele>1434.9000000000001</ele>
        <time>2022-07-10T15:34:37Z</time>
      </trkpt>
      <trkpt lat="-7.393589280545712" lon="110.37252000533044">
        <ele>1437.7</ele>
        <time>2022-07-10T15:35:00Z</time>
      </trkpt>
      <trkpt lat="-7.393595734611154" lon="110.37247424013913">
        <ele>1437.2</ele>
        <time>2022-07-10T15:36:26Z</time>
      </trkpt>
      <trkpt lat="-7.393619623035193" lon="110.37243316881359">
        <ele>1437.7</ele>
        <time>2022-07-10T15:36:43Z</time>
      </trkpt>
      <trkpt lat="-7.393573438748717" lon="110.37242847494781">
        <ele>1438.8</ele>
        <time>2022-07-10T15:37:11Z</time>
      </trkpt>
      <trkpt lat="-7.393513256683946" lon="110.3724255412817">
        <ele>1441.9000000000001</ele>
        <time>2022-07-10T15:38:18Z</time>
      </trkpt>
      <trkpt lat="-7.393461037427187" lon="110.37243601866066">
        <ele>1443.8</ele>
        <time>2022-07-10T15:39:02Z</time>
      </trkpt>
      <trkpt lat="-7.393422396853566" lon="110.37241246551275">
        <ele>1448.7</ele>
        <time>2022-07-10T15:40:03Z</time>
      </trkpt>
      <trkpt lat="-7.393374117091298" lon="110.37241062149405">
        <ele>1450.8</ele>
        <time>2022-07-10T15:40:15Z</time>
      </trkpt>
      <trkpt lat="-7.393332039937377" lon="110.37237483076751">
        <ele>1452.9000000000001</ele>
        <time>2022-07-10T15:40:44Z</time>
      </trkpt>
      <trkpt lat="-7.393289711326361" lon="110.3723428118974">
        <ele>1454.9000000000001</ele>
        <time>2022-07-10T15:41:14Z</time>
      </trkpt>
      <trkpt lat="-7.393242856487632" lon="110.37229905836284">
        <ele>1455.8</ele>
        <time>2022-07-10T15:41:31Z</time>
      </trkpt>
      <trkpt lat="-7.393273198977113" lon="110.37224759347737">
        <ele>1458.5</ele>
        <time>2022-07-10T15:42:15Z</time>
      </trkpt>
      <trkpt lat="-7.393321562558413" lon="110.37219805642962">
        <ele>1460.8</ele>
        <time>2022-07-10T15:43:00Z</time>
      </trkpt>
      <trkpt lat="-7.393247550353408" lon="110.37216536700726">
        <ele>1461.2</ele>
        <time>2022-07-10T15:43:41Z</time>
      </trkpt>
      <trkpt lat="-7.393194828182459" lon="110.37215447053313">
        <ele>1462.8</ele>
        <time>2022-07-10T15:43:58Z</time>
      </trkpt>
      <trkpt lat="-7.393132383003831" lon="110.37213242612779">
        <ele>1465.7</ele>
        <time>2022-07-10T15:44:27Z</time>
      </trkpt>
      <trkpt lat="-7.393194241449237" lon="110.3721044305712">
        <ele>1473.4000000000001</ele>
        <time>2022-07-10T15:45:36Z</time>
      </trkpt>
      <trkpt lat="-7.393240928649902" lon="110.37207819521427">
        <ele>1475.4000000000001</ele>
        <time>2022-07-10T15:46:06Z</time>
      </trkpt>
      <trkpt lat="-7.393281664699316" lon="110.37205296568573">
        <ele>1478.2</ele>
        <time>2022-07-10T15:47:06Z</time>
      </trkpt>
      <trkpt lat="-7.393297674134374" lon="110.37197400815785">
        <ele>1481.5</ele>
        <time>2022-07-10T15:48:19Z</time>
      </trkpt>
      <trkpt lat="-7.393257105723023" lon="110.37195079028606">
        <ele>1425.2</ele>
        <time>2022-07-10T15:49:04Z</time>
      </trkpt>
      <trkpt lat="-7.393207233399153" lon="110.37193612195551">
        <ele>1366.5999999999999</ele>
        <time>2022-07-10T15:49:47Z</time>
      </trkpt>
      <trkpt lat="-7.393132718279958" lon="110.37193042226136">
        <ele>1342.4000000000001</ele>
        <time>2022-07-10T15:50:16Z</time>
      </trkpt>
      <trkpt lat="-7.393150655552745" lon="110.37187384441495">
        <ele>1412.9000000000001</ele>
        <time>2022-07-10T15:51:02Z</time>
      </trkpt>
      <trkpt lat="-7.393110590055585" lon="110.37181835621595">
        <ele>1452.0999999999999</ele>
        <time>2022-07-10T15:52:02Z</time>
      </trkpt>
      <trkpt lat="-7.39307027310133" lon="110.37178591825068">
        <ele>1465</ele>
        <time>2022-07-10T15:52:32Z</time>
      </trkpt>
      <trkpt lat="-7.393017634749413" lon="110.37175733596087">
        <ele>1487.2</ele>
        <time>2022-07-10T15:54:01Z</time>
      </trkpt>
      <trkpt lat="-7.392972623929381" lon="110.37174719385803">
        <ele>1493</ele>
        <time>2022-07-10T15:54:29Z</time>
      </trkpt>
      <trkpt lat="-7.392924092710018" lon="110.37171324715018">
        <ele>1405.3</ele>
        <time>2022-07-10T15:55:26Z</time>
      </trkpt>
      <trkpt lat="-7.392885368317366" lon="110.37168298847973">
        <ele>1456.3</ele>
        <time>2022-07-10T15:56:09Z</time>
      </trkpt>
      <trkpt lat="-7.392836920917034" lon="110.37166798487306">
        <ele>1478.7</ele>
        <time>2022-07-10T15:56:53Z</time>
      </trkpt>
      <trkpt lat="-7.39280884154141" lon="110.37162330932915">
        <ele>1488.9000000000001</ele>
        <time>2022-07-10T15:57:22Z</time>
      </trkpt>
      <trkpt lat="-7.392754191532731" lon="110.37159900180995">
        <ele>1506.5999999999999</ele>
        <time>2022-07-10T15:58:39Z</time>
      </trkpt>
      <trkpt lat="-7.392698870971799" lon="110.37159011699259">
        <ele>1512.3</ele>
        <time>2022-07-10T15:59:08Z</time>
      </trkpt>
      <trkpt lat="-7.392658889293671" lon="110.3715637139976">
        <ele>1342.4000000000001</ele>
        <time>2022-07-10T16:03:11Z</time>
      </trkpt>
      <trkpt lat="-7.392609436064959" lon="110.37156949751079">
        <ele>1398.0999999999999</ele>
        <time>2022-07-10T16:03:59Z</time>
      </trkpt>
      <trkpt lat="-7.392557300627232" lon="110.37155910395086">
        <ele>1423</ele>
        <time>2022-07-10T16:04:30Z</time>
      </trkpt>
      <trkpt lat="-7.392493011429906" lon="110.37153722718358">
        <ele>1465.4000000000001</ele>
        <time>2022-07-10T16:05:16Z</time>
      </trkpt>
      <trkpt lat="-7.392449341714382" lon="110.3715137578547">
        <ele>1484.4000000000001</ele>
        <time>2022-07-10T16:05:45Z</time>
      </trkpt>
      <trkpt lat="-7.392389075830579" lon="110.37151685915887">
        <ele>1504.5</ele>
        <time>2022-07-10T16:06:33Z</time>
      </trkpt>
      <trkpt lat="-7.392339203506708" lon="110.37149732932448">
        <ele>1523.4000000000001</ele>
        <time>2022-07-10T16:07:35Z</time>
      </trkpt>
      <trkpt lat="-7.392280530184507" lon="110.37148961797357">
        <ele>1529.5</ele>
        <time>2022-07-10T16:08:04Z</time>
      </trkpt>
      <trkpt lat="-7.392224203795195" lon="110.37151392549276">
        <ele>1536</ele>
        <time>2022-07-10T16:08:33Z</time>
      </trkpt>
      <trkpt lat="-7.392151951789856" lon="110.37150411866605">
        <ele>1541.5</ele>
        <time>2022-07-10T16:09:05Z</time>
      </trkpt>
      <trkpt lat="-7.392113814130426" lon="110.37152851000428">
        <ele>1474.9000000000001</ele>
        <time>2022-07-10T16:11:20Z</time>
      </trkpt>
      <trkpt lat="-7.392074419185519" lon="110.37147587165236">
        <ele>1451.9000000000001</ele>
        <time>2022-07-10T16:13:33Z</time>
      </trkpt>
      <trkpt lat="-7.392033599317074" lon="110.37145449779928">
        <ele>1494.9000000000001</ele>
        <time>2022-07-10T16:14:10Z</time>
      </trkpt>
      <trkpt lat="-7.392034688964486" lon="110.37140688858926">
        <ele>1494.8</ele>
        <time>2022-07-10T16:15:07Z</time>
      </trkpt>
      <trkpt lat="-7.391970651224256" lon="110.37142197601497">
        <ele>1547.7</ele>
        <time>2022-07-10T16:17:29Z</time>
      </trkpt>
      <trkpt lat="-7.391920275986195" lon="110.37138995714486">
        <ele>1563.3</ele>
        <time>2022-07-10T16:18:28Z</time>
      </trkpt>
      <trkpt lat="-7.391858082264662" lon="110.37140697240829">
        <ele>1569.2</ele>
        <time>2022-07-10T16:18:58Z</time>
      </trkpt>
      <trkpt lat="-7.391812903806567" lon="110.37137797102332">
        <ele>1578.3</ele>
        <time>2022-07-10T16:20:00Z</time>
      </trkpt>
      <trkpt lat="-7.391753308475018" lon="110.37138735875487">
        <ele>1584.5</ele>
        <time>2022-07-10T16:20:59Z</time>
      </trkpt>
      <trkpt lat="-7.391783986240625" lon="110.37134486250579">
        <ele>1588.5</ele>
        <time>2022-07-10T16:21:39Z</time>
      </trkpt>
      <trkpt lat="-7.391739478334785" lon="110.3713340498507">
        <ele>1599.5</ele>
        <time>2022-07-10T16:24:26Z</time>
      </trkpt>
      <trkpt lat="-7.391701927408576" lon="110.37130664102733">
        <ele>1601.5999999999999</ele>
        <time>2022-07-10T16:26:53Z</time>
      </trkpt>
      <trkpt lat="-7.39167183637619" lon="110.37126389332116">
        <ele>1604.7</ele>
        <time>2022-07-10T16:27:51Z</time>
      </trkpt>
      <trkpt lat="-7.391625987365842" lon="110.37126288749278">
        <ele>1606.7</ele>
        <time>2022-07-10T16:28:20Z</time>
      </trkpt>
      <trkpt lat="-7.391585418954492" lon="110.37122089415789">
        <ele>1609.7</ele>
        <time>2022-07-10T16:28:58Z</time>
      </trkpt>
      <trkpt lat="-7.391510484740138" lon="110.37121519446373">
        <ele>1612.3</ele>
        <time>2022-07-10T16:29:27Z</time>
      </trkpt>
      <trkpt lat="-7.391450637951493" lon="110.37120488472283">
        <ele>1615.2</ele>
        <time>2022-07-10T16:29:56Z</time>
      </trkpt>
      <trkpt lat="-7.391390958800912" lon="110.37119549699128">
        <ele>1617.8</ele>
        <time>2022-07-10T16:30:25Z</time>
      </trkpt>
      <trkpt lat="-7.391316778957844" lon="110.37118108011782">
        <ele>1620.3</ele>
        <time>2022-07-10T16:30:54Z</time>
      </trkpt>
      <trkpt lat="-7.391264392063022" lon="110.3711617179215">
        <ele>1623.0999999999999</ele>
        <time>2022-07-10T16:31:28Z</time>
      </trkpt>
      <trkpt lat="-7.391209742054343" lon="110.37115015089512">
        <ele>1625.5</ele>
        <time>2022-07-10T16:32:12Z</time>
      </trkpt>
      <trkpt lat="-7.391164479777217" lon="110.3711323812604">
        <ele>1627</ele>
        <time>2022-07-10T16:32:41Z</time>
      </trkpt>
      <trkpt lat="-7.391120307147503" lon="110.37111603654921">
        <ele>1629.5999999999999</ele>
        <time>2022-07-10T16:33:53Z</time>
      </trkpt>
      <trkpt lat="-7.391089126467705" lon="110.37106373347342">
        <ele>1632.2</ele>
        <time>2022-07-10T16:35:06Z</time>
      </trkpt>
      <trkpt lat="-7.391064232215285" lon="110.37102391943336">
        <ele>1634.9000000000001</ele>
        <time>2022-07-10T16:36:16Z</time>
      </trkpt>
      <trkpt lat="-7.391017796471715" lon="110.37098159082234">
        <ele>1635.5</ele>
        <time>2022-07-10T16:36:50Z</time>
      </trkpt>
      <trkpt lat="-7.390951747074723" lon="110.37094999104738">
        <ele>1637.7</ele>
        <time>2022-07-10T16:37:16Z</time>
      </trkpt>
      <trkpt lat="-7.390909837558866" lon="110.37091864272952">
        <ele>1638.0999999999999</ele>
        <time>2022-07-10T16:37:36Z</time>
      </trkpt>
      <trkpt lat="-7.390860971063376" lon="110.37087832577527">
        <ele>1638.5</ele>
        <time>2022-07-10T16:37:46Z</time>
      </trkpt>
      <trkpt lat="-7.390826186165214" lon="110.37083029747009">
        <ele>1639.7</ele>
        <time>2022-07-10T16:38:06Z</time>
      </trkpt>
      <trkpt lat="-7.390795089304447" lon="110.37078151479363">
        <ele>1639.9000000000001</ele>
        <time>2022-07-10T16:38:22Z</time>
      </trkpt>
      <trkpt lat="-7.390766842290759" lon="110.37073046900332">
        <ele>1641.9000000000001</ele>
        <time>2022-07-10T16:38:38Z</time>
      </trkpt>
      <trkpt lat="-7.390750162303448" lon="110.37068277597427">
        <ele>1643.8</ele>
        <time>2022-07-10T16:38:54Z</time>
      </trkpt>
      <trkpt lat="-7.390717891976237" lon="110.37063994444907">
        <ele>1645.8</ele>
        <time>2022-07-10T16:39:10Z</time>
      </trkpt>
      <trkpt lat="-7.390670198947191" lon="110.37060398608446">
        <ele>1648.7</ele>
        <time>2022-07-10T16:39:54Z</time>
      </trkpt>
      <trkpt lat="-7.390630133450031" lon="110.37055931054056">
        <ele>1651</ele>
        <time>2022-07-10T16:40:26Z</time>
      </trkpt>
      <trkpt lat="-7.3906110227108" lon="110.3704999666661">
        <ele>1654.3</ele>
        <time>2022-07-10T16:40:56Z</time>
      </trkpt>
      <trkpt lat="-7.390568191185594" lon="110.37043358199298">
        <ele>1658.3</ele>
        <time>2022-07-10T16:41:41Z</time>
      </trkpt>
      <trkpt lat="-7.39052259363234" lon="110.37042503245175">
        <ele>1583.3</ele>
        <time>2022-07-10T16:44:56Z</time>
      </trkpt>
      <trkpt lat="-7.390499375760555" lon="110.37037583068013">
        <ele>1606.0999999999999</ele>
        <time>2022-07-10T16:45:28Z</time>
      </trkpt>
      <trkpt lat="-7.39044489338994" lon="110.37034599110484">
        <ele>1639.3</ele>
        <time>2022-07-10T16:46:26Z</time>
      </trkpt>
      <trkpt lat="-7.390422262251377" lon="110.37029947154224">
        <ele>1645.3</ele>
        <time>2022-07-10T16:46:43Z</time>
      </trkpt>
      <trkpt lat="-7.390398206189275" lon="110.37020903080702">
        <ele>1653.5</ele>
        <time>2022-07-10T16:47:12Z</time>
      </trkpt>
      <trkpt lat="-7.390404995530844" lon="110.37012831307948">
        <ele>1661.9000000000001</ele>
        <time>2022-07-10T16:47:41Z</time>
      </trkpt>
      <trkpt lat="-7.390434332191944" lon="110.37008984014392">
        <ele>1665.9000000000001</ele>
        <time>2022-07-10T16:47:54Z</time>
      </trkpt>
      <trkpt lat="-7.390440786257386" lon="110.37003695033491">
        <ele>1669.5999999999999</ele>
        <time>2022-07-10T16:48:10Z</time>
      </trkpt>
      <trkpt lat="-7.390448665246368" lon="110.36998783238232">
        <ele>1673.4000000000001</ele>
        <time>2022-07-10T16:48:23Z</time>
      </trkpt>
      <trkpt lat="-7.390454700216651" lon="110.36992236971855">
        <ele>1676.5</ele>
        <time>2022-07-10T16:48:39Z</time>
      </trkpt>
      <trkpt lat="-7.390461321920157" lon="110.36987467668951">
        <ele>1679.2</ele>
        <time>2022-07-10T16:48:51Z</time>
      </trkpt>
      <trkpt lat="-7.390455873683095" lon="110.36980259232223">
        <ele>1681.5</ele>
        <time>2022-07-10T16:49:07Z</time>
      </trkpt>
      <trkpt lat="-7.39043215289712" lon="110.36975766532123">
        <ele>1684.3</ele>
        <time>2022-07-10T16:49:19Z</time>
      </trkpt>
      <trkpt lat="-7.390402145683765" lon="110.36971651017666">
        <ele>1686.9000000000001</ele>
        <time>2022-07-10T16:49:35Z</time>
      </trkpt>
      <trkpt lat="-7.390318745747209" lon="110.36965264007449">
        <ele>1691.8</ele>
        <time>2022-07-10T16:50:05Z</time>
      </trkpt>
      <trkpt lat="-7.390267867594957" lon="110.36961995065212">
        <ele>1693</ele>
        <time>2022-07-10T16:50:20Z</time>
      </trkpt>
      <trkpt lat="-7.390210200101137" lon="110.36959103308618">
        <ele>1694.5</ele>
        <time>2022-07-10T16:50:35Z</time>
      </trkpt>
      <trkpt lat="-7.390143312513828" lon="110.36955214105546">
        <ele>1696.5</ele>
        <time>2022-07-10T16:50:50Z</time>
      </trkpt>
      <trkpt lat="-7.390080448240042" lon="110.36952188238502">
        <ele>1697.8</ele>
        <time>2022-07-10T16:51:05Z</time>
      </trkpt>
      <trkpt lat="-7.390010207891464" lon="110.3694813977927">
        <ele>1699.7</ele>
        <time>2022-07-10T16:51:18Z</time>
      </trkpt>
      <trkpt lat="-7.389941895380616" lon="110.36943663842976">
        <ele>1701.0999999999999</ele>
        <time>2022-07-10T16:51:34Z</time>
      </trkpt>
      <trkpt lat="-7.3898771032691" lon="110.36941409111023">
        <ele>1702.3</ele>
        <time>2022-07-10T16:51:46Z</time>
      </trkpt>
      <trkpt lat="-7.389816418290138" lon="110.36937737837434">
        <ele>1703.9000000000001</ele>
        <time>2022-07-10T16:52:02Z</time>
      </trkpt>
      <trkpt lat="-7.389753386378288" lon="110.36934611387551">
        <ele>1706</ele>
        <time>2022-07-10T16:52:32Z</time>
      </trkpt>
      <trkpt lat="-7.389757325872779" lon="110.36939363926649">
        <ele>1708.8</ele>
        <time>2022-07-10T16:53:17Z</time>
      </trkpt>
      <trkpt lat="-7.389794625341892" lon="110.36948835477233">
        <ele>1712.8</ele>
        <time>2022-07-10T16:53:48Z</time>
      </trkpt>
      <trkpt lat="-7.389816753566265" lon="110.36953940056264">
        <ele>1714.0999999999999</ele>
        <time>2022-07-10T16:54:04Z</time>
      </trkpt>
      <trkpt lat="-7.389835361391306" lon="110.36958214826882">
        <ele>1715.4000000000001</ele>
        <time>2022-07-10T16:54:20Z</time>
      </trkpt>
      <trkpt lat="-7.38986587151885" lon="110.36966253072023">
        <ele>1717.2</ele>
        <time>2022-07-10T16:54:52Z</time>
      </trkpt>
      <trkpt lat="-7.389893447980285" lon="110.369738554582">
        <ele>1718.9000000000001</ele>
        <time>2022-07-10T16:55:24Z</time>
      </trkpt>
      <trkpt lat="-7.389926221221685" lon="110.36979504860938">
        <ele>1720.5</ele>
        <time>2022-07-10T16:55:56Z</time>
      </trkpt>
      <trkpt lat="-7.389956898987293" lon="110.3698664624244">
        <ele>1723.5</ele>
        <time>2022-07-10T16:56:28Z</time>
      </trkpt>
      <trkpt lat="-7.389958910644054" lon="110.36997970193624">
        <ele>1725.2</ele>
        <time>2022-07-10T16:57:00Z</time>
      </trkpt>
      <trkpt lat="-7.389946421608329" lon="110.370053043589">
        <ele>1725.9000000000001</ele>
        <time>2022-07-10T16:57:16Z</time>
      </trkpt>
      <trkpt lat="-7.389935189858079" lon="110.37012160755694">
        <ele>1725.7</ele>
        <time>2022-07-10T16:57:32Z</time>
      </trkpt>
      <trkpt lat="-7.389910379424691" lon="110.37018815986812">
        <ele>1726.9000000000001</ele>
        <time>2022-07-10T16:57:48Z</time>
      </trkpt>
      <trkpt lat="-7.389871906489134" lon="110.37025395780802">
        <ele>1727.4000000000001</ele>
        <time>2022-07-10T16:58:04Z</time>
      </trkpt>
      <trkpt lat="-7.38982580602169" lon="110.3703186661005">
        <ele>1727.3</ele>
        <time>2022-07-10T16:58:20Z</time>
      </trkpt>
      <trkpt lat="-7.389773754402995" lon="110.37038018926978">
        <ele>1728</ele>
        <time>2022-07-10T16:58:36Z</time>
      </trkpt>
      <trkpt lat="-7.389708375558257" lon="110.37044095806777">
        <ele>1728.5</ele>
        <time>2022-07-10T16:58:52Z</time>
      </trkpt>
      <trkpt lat="-7.389632100239396" lon="110.37050734274089">
        <ele>1729.9000000000001</ele>
        <time>2022-07-10T16:59:08Z</time>
      </trkpt>
      <trkpt lat="-7.38956437446177" lon="110.37057247012854">
        <ele>1730</ele>
        <time>2022-07-10T16:59:24Z</time>
      </trkpt>
      <trkpt lat="-7.389493798837066" lon="110.3706400282681">
        <ele>1732.5</ele>
        <time>2022-07-10T16:59:40Z</time>
      </trkpt>
      <trkpt lat="-7.389432694762945" lon="110.37069811485708">
        <ele>1733</ele>
        <time>2022-07-10T16:59:56Z</time>
      </trkpt>
      <trkpt lat="-7.389365388080478" lon="110.37076173350215">
        <ele>1734</ele>
        <time>2022-07-10T17:00:12Z</time>
      </trkpt>
      <trkpt lat="-7.389286514371634" lon="110.37084052339196">
        <ele>1735.5</ele>
        <time>2022-07-10T17:00:28Z</time>
      </trkpt>
      <trkpt lat="-7.389222141355276" lon="110.37090850062668">
        <ele>1737.0999999999999</ele>
        <time>2022-07-10T17:00:44Z</time>
      </trkpt>
      <trkpt lat="-7.389179728925228" lon="110.37095594219863">
        <ele>1737.5</ele>
        <time>2022-07-10T17:01:00Z</time>
      </trkpt>
      <trkpt lat="-7.389124240726233" lon="110.37100967019796">
        <ele>1739.2</ele>
        <time>2022-07-10T17:01:29Z</time>
      </trkpt>
      <trkpt lat="-7.389057017862797" lon="110.37105501629412">
        <ele>1741.0999999999999</ele>
        <time>2022-07-10T17:02:10Z</time>
      </trkpt>
      <trkpt lat="-7.388998931273818" lon="110.37111503072083">
        <ele>1741.5</ele>
        <time>2022-07-10T17:02:29Z</time>
      </trkpt>
      <trkpt lat="-7.388943359255791" lon="110.37116733379662">
        <ele>1742.5</ele>
        <time>2022-07-10T17:02:45Z</time>
      </trkpt>
      <trkpt lat="-7.388902204111219" lon="110.37121796049178">
        <ele>1743.2</ele>
        <time>2022-07-10T17:03:01Z</time>
      </trkpt>
      <trkpt lat="-7.388865072280169" lon="110.37125769071281">
        <ele>1743.8</ele>
        <time>2022-07-10T17:03:31Z</time>
      </trkpt>
      <trkpt lat="-7.388835232704878" lon="110.37129272706807">
        <ele>1744.5</ele>
        <time>2022-07-10T17:04:11Z</time>
      </trkpt>
      <trkpt lat="-7.38879818469286" lon="110.37134008482099">
        <ele>1745.4000000000001</ele>
        <time>2022-07-10T17:05:30Z</time>
      </trkpt>
    </trkseg>
  </trk>

</gpx>